,RAW,FREQ,FULL_NAME,ADDRESS,LOC_TYPE,STREET,CITY,STATE,ZIP,COUNTY_SYSTEM,STATUS,
35,BETHANY HOSPITA,49,ADVOCATE BETHANY HOSPITAL,"3435 W VAN BUREN ST, CHICAGO, IL 60624",HOSPITAL,3435 W VAN BUREN ST,CHICAGO,IL,60624,,CLOSED,
1,CHRIST HOSPITAL,1971,ADVOCATE CHRIST MEDICAL CENTER,"4440 W 95TH ST, OAK LAWN, IL 60453",HOSPITAL,4440 W 95TH ST,OAK LAWN,IL,60453,,,
6,ILLINOIS MASONI,621,ADVOCATE ILLINOIS MASONIC MEDICAL CENTER,"836 W WELLINGTON AVE, CHICAGO, IL 60657",HOSPITAL,836 W WELLINGTON AVE,CHICAGO,IL,60657,,,
42,LUTHERAN GENERA,36,ADVOCATE LUTHERAN GENERAL HOSPITAL,"1775 DEMPSTER ST, PARK RIDGE, IL 60068",HOSPITAL,1775 DEMPSTER ST,PARK RIDGE,IL,60068,,,
48,SOUTH SUBURBAN,28,ADVOCATE SOUTH SUBURBAN HOSPITAL,"17800 S KEDZIE AVE, HAZEL CREST, IL 60429",HOSPITAL,17800 S KEDZIE AVE,HAZEL CREST,IL,60429,,,
40,TRINITY HOSPITA,41,ADVOCATE TRINITY HOSPITAL,"2320 E 93RD ST, CHICAGO, IL 60617",HOSPITAL,2320 E 93RD ST,CHICAGO,IL,60617,,,
52,BILLINGS MEMORI,22,ALBERT MERRITT BILLINGS HOSPITAL,"950 E 59TH ST, CHICAGO, IL 60637",HOSPITAL,950 E 59TH ST,CHICAGO,IL,60637,,,
65,ALEXIAN BROTHER,8,AMITA HEALTH ALEXIAN BROTHERS MEDICAL CENTER ELK GROVE VILLAGE,"800 BIESTERFIELD RD, ELK GROVE VILLAGE, IL 60007",HOSPITAL,800 BIESTERFIELD RD,ELK GROVE VILLAGE,IL,60007,,,
63,HOLY FAMILY HOS,10,AMITA HEALTH HOLY FAMILY MEDICAL CENTER DES PLAINES,"100 N RIVER RD, DES PLAINES, IL 60016",HOSPITAL,100 N RIVER RD,DES PLAINES,IL,60016,,,
72,RESURRECTION HO,6,AMITA HEALTH RESURRECTION MEDICAL CENTER CHICAGO,"7435 W TALCOTT AVE, CHICAGO, IL 60631",HOSPITAL,7435 W TALCOTT AVE,CHICAGO,IL,60631,,,
113,RESURRECTION ME,2,AMITA HEALTH RESURRECTION MEDICAL CENTER CHICAGO,"7435 W TALCOTT AVE, CHICAGO, IL 60631",HOSPITAL,7435 W TALCOTT AVE,CHICAGO,IL,60631,,,
14,ST. FRANCIS HOS,147,AMITA HEALTH SAINT FRANCIS HOSPITAL EVANSTON,"355 RIDGE AVE, EVANSTON, IL 60202",HOSPITAL,355 RIDGE AVE,EVANSTON,IL,60202,,,
64,ST. FRANCES XAV,9,SAINT CABRINI HOSPITAL,"811 S LYTLE ST, CHICAGO, IL 60607",HOSPITAL,811 S LYTLE ST,CHICAGO,IL,60607,,CLOSED,"Spot-checked by Dr. Arunkumar for case 90-JAN-0496: confirmed location was St Cabrini. Closed in 1996 (?): https://www.chicagobusiness.com/article/19960106/ISSUE01/10008104/obituary-for-a-neighborhood-hospitals-cabrini-s-close-why-only-biggest-survive; http://www.hospital-data.com/hospitals/ST-CABRINI-HOSPITAL-CHICAGO.html; https://www.cabrininationalshrine.org/mother-cabrini---chicago-missions; https://illinois.hometownlocator.com/maps/feature-map,ftc,3,fid,1833153,n,saint%20cabrini%20hospital.cfm"
69,ST. JOSEPH'S HO,7,AMITA HEALTH SAINT JOSEPH HOSPITAL CHICAGO,"2900 N LAKE SHORE DR, CHICAGO, IL 60657",HOSPITAL,2900 N LAKE SHORE DR,CHICAGO,IL,60657,,,
24,ST. ELIZABETH'S,85,AMITA HEALTH SAINTS MARY AND ELIZABETH MEDICAL CENTER: SAINT ELIZABETH CAMPUS,"1431 N CLAREMONT AVE, CHICAGO, IL 60622",HOSPITAL,1431 N CLAREMONT AVE,CHICAGO,IL,60622,,,"Top result is for a St Elizabeth's in O'Fallon, IL - far from Chicago. IF AMITA HEALTH, this is ST ELIZABETH CAMPUS - different locations for MARY and ELIZABETH"
17,ST. MARY OF NAZ,117,AMITA HEALTH SAINTS MARY AND ELIZABETH MEDICAL CENTER: SAINT MARY OF NAZARETH CAMPUS,"2233 W DIVISION ST, CHICAGO, IL 60622 ",HOSPITAL,2233 W DIVISION ST,CHICAGO,IL,60622,,,
84,ST. ALEXIUS HOS,4,AMITA HEALTH ST. ALEXIUS MEDICAL CENTER HOFFMAN ESTATES,"1555 BARRINGTON RD, HOFFMAN ESTATES, IL 60169",HOSPITAL,1555 BARRINGTON RD,HOFFMAN ESTATES,IL,60169,,,
109,HOFFMAN ESTATES,2,AMITA HEALTH ST. ALEXIUS MEDICAL CENTER HOFFMAN ESTATES,"1555 BARRINGTON RD, HOFFMAN ESTATES, IL 60169",HOSPITAL,1555 BARRINGTON RD,HOFFMAN ESTATES,IL,60169,,,"Not positive, but no other clear contenders"
21,MITCHELL HOSPIT,104,BERNARD A. MITCHELL HOSPITAL,"5841 S MARYLAND AVE, CHICAGO, IL 60637",HOSPITAL,5841 S MARYLAND AVE,CHICAGO,IL,60637,,,
108,CENTRAL COMMUNI,2,CENTRAL COMMUNITY HOSPITAL,"5701 S WOOD ST, CHICAGO, IL, 60636",HOSPITAL,5701 S WOOD ST,CHICAGO,IL,60636,,CLOSED,Closed in 1990: https://www.chicagotribune.com/news/ct-xpm-1990-03-15-9001220019-story.html
36,CHICAGO OSTEOPA,47,CHICAGO OSTEOPATHIC HOSPITAL,"5200 S ELLIS AVE, CHICAGO, IL 60615",HOSPITAL,5200 S ELLIS AVE,CHICAGO,IL,60615,,CLOSED,"Closed 20+ years ago, but I think this location is correct"
45,CHILDREN'S MEMO,29,CHILDREN'S MEMORIAL HOSPITAL,"225 E CHICAGO AVE, CHICAGO, IL 60611",HOSPITAL,225 E CHICAGO AVE,CHICAGO,IL,60611,,,Now renamed LURIE CHILDREN’S HOSPITAL OF CHICAGO
86,COLUMBUS HOSPIT,3,COLUMBUS HOSPITAL,"2520 NORTH LAKEVIEW AVE, CHICAGO, IL 60614",HOSPITAL,2520 NORTH LAKEVIEW AVE,CHICAGO,IL,60614,,CLOSED,"Closed in 2001: https://news.wttw.com/2012/10/01/chicagos-mother-cabrini-shrine-reopens#:~:text=In%20late%202001%2C%20Columbus%20Hospital%20closed%20its%20doors.,the%20order%20of%20nuns%20founded%20by%20Mother%20Cabrini."
4,MEDICAL EXAMINE,802,COOK COUNTY MEDICAL EXAMINER,"2121 W HARRISON ST, CHICAGO, IL 60612",MEDICAL_EXAMINER,2121 W HARRISON ST,CHICAGO,IL,60612,,,
37,EDGEWATER HOSPI,45,EDGEWATER HOSPITAL,"5700 N ASHLAND AVE, CHICAGO, IL 60660",HOSPITAL,5700 N ASHLAND AVE,CHICAGO,IL,60660,,CLOSED,
44,ENGLEWOOD HOSPI,30,ENGLEWOOD HEALTH CENTER,"1135 W 69TH ST, CHICAGO, IL 60621",HOSPITAL,1135 W 69TH ST,CHICAGO,IL,60621,YES,,
22,OLYMPIA FIELDS,91,FRANCISCAN HEALTH OLYMPIA FIELDS,"20201 SOUTH CRAWFORD AVE, OLYMPIA FIELDS, IL 60461",HOSPITAL,20201 SOUTH CRAWFORD AVE,OLYMPIA FIELDS,IL,60461,,,Potentially also FRANCISCAN ST JAMES HEALTH OLYMPIA FIELDS
23,ST. JAMES OLYMP,89,FRANCISCAN HEALTH OLYMPIA FIELDS,"20201 SOUTH CRAWFORD AVE, OLYMPIA FIELDS, IL 60461",HOSPITAL,20201 SOUTH CRAWFORD AVE,OLYMPIA FIELDS,IL,60461,,,
66,FRANKLIN BOULEV,7,FRANKLIN BOULEVARD COMMUNITY HOSPITAL,"3240 W FRANKLIN BLVD, CHICAGO, IL 60624",HOSPITAL,3240 W FRANKLIN BLVD,CHICAGO,IL,60624,,CLOSED,"Most recently named Sacred Heart Hospital (https://www.chicagotribune.com/news/ct-xpm-2013-08-30-ct-met-sacred-heart-hospital-fraud-20130830-story.html), now closed (https://www.justice.gov/usao-ndil/pr/owner-and-executives-convicted-medicare-referral-kickback-conspiracy-closed-sacred)"
74,GLENBROOK HOSPI,5,GLENBROOK HOSPITAL,"2100 PFINGSTEN RD, GLENVIEW, IL  60026",HOSPITAL,2100 PFINGSTEN RD,GLENVIEW,IL,60026,,,
43,GOTTLIEB MEMORI,32,GOTTLIEB MEMORIAL HOSPITAL,"701 W NORTH AVE, MELROSE PARK, IL 60160",HOSPITAL,701 W NORTH AVE,MELROSE PARK,IL,60160,,,
70,GRANT HOSPITAL,6,GRANT HOSPITAL,"550 WEBSTER AVE, CHICAGO, IL 60614",HOSPITAL,550 WEBSTER AVE,CHICAGO,IL,60614,,CLOSED,"Renamed LINCOLN PARK HOSPITAL, closed in 2008. https://www.chicagotribune.com/news/ct-xpm-1985-12-06-8503240606-story.html; https://mreida.tumblr.com/post/26389591728/chicago-hospitals-that-have-closed-in-the-past-12; https://yochicago.com/a-view-of-lincoln-parks-five-vanished-hospitals/29164/"
46,HENROTIN HOSPIT,29,HENROTIN HOSPITAL,"111 W OAK ST, CHICAGO, IL 60610",HOSPITAL,111 W OAK ST,CHICAGO,IL,60610,,CLOSED,"GNIS Detail - Henrotin Hospital (historical) (usgs.gov) - gives lat/lon, as 111 W Oak is no longer a location - closest is 123 W Oak now, it looks like"
19,HOLY CROSS HOSP,108,HOLY CROSS HOSPITAL,"2701 W 68TH ST, CHICAGO, IL 60629",HOSPITAL,2701 W 68TH ST,CHICAGO,IL,60629,,,
110,HOPE'S CHILDREN,2,HOPE CHILDREN'S HOSPITAL,"4440 W 95TH ST, OAK LAWN, IL 60453",HOSPITAL,4440 W 95TH ST,OAK LAWN,IL,60453,,,Renamed from HOPE CHILDREN'S HOSPITAL when merged in 2012: https://www.chicagomag.com/Chicago-Magazine/January-2013/Top-Hospitals-Chicago-and-the-Suburbs-List/?hospital=advocate-christ-medical-center
111,ILLINOIS CENTRA,2,ILLINOIS CENTRAL HOSPITAL,"5800 S STONY ISLAND AVE, CHICAGO, IL 60637",HOSPITAL,5800 S STONY ISLAND AVE,CHICAGO,IL,60637,,CLOSED,Demolished in 2011; last known as DOCTOR'S HOSPITAL: https://chicago.cbslocal.com/2011/04/25/old-hospital-in-hyde-park-is-now-a-memory/; https://substreet.org/illinois-central-hospital/
13,INGALLS MEMORIA,153,INGALLS MEMORIAL HOSPITAL,"1 INGALLS DR, HARVEY, IL 60426",HOSPITAL,1 INGALLS DR,HARVEY,IL,60426,,,
15,JACKSON PARK HO,145,JACKSON PARK HOSPITAL AND MEDICAL CENTER,"7531 S STONY ISLAND AVE, CHICAGO, IL 60649",HOSPITAL,7531 S STONY ISLAND AVE,CHICAGO,IL,60649,,,
73,VETERANS ADMINI,6,JESSE BROWN VA MEDICAL CENTER,"820 S DAMEN AVE, CHICAGO, IL 60612",HOSPITAL,820 S DAMEN AVE,CHICAGO,IL,60612,,,Assuming it's the main VA center
3,COOK COUNTY HOS,1737,"JOHN H. STROGER, JR. HOSPITAL OF COOK COUNTY","1969 OGDEN AVE, CHICAGO, IL 60612",HOSPITAL,1969 OGDEN AVE,CHICAGO,IL,60612,YES,,Confirm same as JOHN H. STROGER?
5,JOHN H. STROGER,694,"JOHN H. STROGER, JR. HOSPITAL OF COOK COUNTY","1969 OGDEN AVE, CHICAGO, IL 60612",HOSPITAL,1969 OGDEN AVE,CHICAGO,IL,60612,,,
54,KINDRED CHICAGO,20,KINDRED CHICAGO CENTRAL HOSPITAL,"4058 W MELROSE ST, CHICAGO, IL  60641",HOSPITAL,4058 W MELROSE ST,CHICAGO,IL,60641,,,"Honestly no clue whether this campus (95-bed, but 1st result for 'Chicago') or KINDRED HOSPITAL CHICAGO: NORTH CAMPUS (164 bed, very close to Central campus)"
317,KINDRED NORTHLA,1,KINDRED HOSPITAL - CHICAGO: NORTHLAKE CAMPUS,"365 E NORTH AVE, NORTHLAKE, IL 60164",HOSPITAL,365 E NORTH AVE,NORTHLAKE,IL,60164,,,
20,LORETTO HOSPITA,105,LORETTO HOSPITAL,"645 S CENTRAL AVE, CHICAGO, IL 60644",HOSPITAL,645 S CENTRAL AVE,CHICAGO,IL,60644,,,
31,WEISS MEMORIAL,65,LOUIS A. WEISS MEMORIAL HOSPITAL,"4646 N MARINE DR, CHICAGO, IL 60640",HOSPITAL,4646 N MARINE DR,CHICAGO,IL,60640,,,
8,LOYOLA UNIVERSI,463,LOYOLA UNIVERSITY MEDICAL CENTER,"2160 S 1ST AVE, MAYWOOD, IL 60153",HOSPITAL,2160 S 1ST AVE,MAYWOOD,IL,60153,,,
26,MAC NEAL HOSPIT,75,MACNEAL HOSPITAL,"3249 S OAK PARK AVE, BERWYN, IL 60402",HOSPITAL,3249 S OAK PARK AVE,BERWYN,IL,60402,,,
114,RUSH MAC NEAL L,2,MACNEAL HOSPITAL,"3249 S OAK PARK AVE, BERWYN, IL 60402",HOSPITAL,3249 S OAK PARK AVE,BERWYN,IL,60402,,,"Not sure if this is same - MacNeal was 100 years old in 2019, so possible at some point was Rush MacNeal, but most recent purchase was from Tenent to Loyola: https://loyolamedicine.org/news/macneal-centennial-anniversary; https://www.mcmorrowreports.com/loyola-medicine-acquire-macneal-hospital-affiliated-operations/"
78,MARTHA WASHINGT,4,MARTHA WASHINGTON HOSPITAL,"4055 N WESTERN AVE, CHICAGO, IL, 60618",HOSPITAL,4055 N WESTERN AVE,CHICAGO,IL,60618,,CLOSED,https://www.chicagotribune.com/news/ct-xpm-1991-08-10-9103270505-story.html
28,MERCY HOSPITAL,68,MERCY HOSPITAL AND MEDICAL CENTER,"2525 S MICHIGAN AVE, CHICAGO, IL 60616",HOSPITAL,2525 S MICHIGAN AVE,CHICAGO,IL,60616,,,
62,BETHANY METHODI,10,METHODIST HOSPITAL OF CHICAGO,"5025 N PAULINA ST, CHICAGO, IL 60640",HOSPITAL,5025 N PAULINA ST,CHICAGO,IL,60640,,,"MAYBE? Could be this one, owned by Bethany Methodist (though sold in 2019?) - or potentially ADVOCATE METHODIST HOSPITAL, but can't find reference to BETHANY with the advocate one"
58,METRO SOUTH MED,12,METROSOUTH MEDICAL CENTER,"12935 S GREGORY ST, BLUE ISLAND, IL 60406",HOSPITAL,12935 S GREGORY ST,BLUE ISLAND,IL,60406,,CLOSED,"Closed 2019, but temporarily reopened for COVID"
9,MICHAEL REESE H,293,MICHAEL REESE HOSPITAL AND MEDICAL CENTER,"2929 S ELLIS AVE, CHICAGO, IL, 60616",HOSPITAL,2929 S ELLIS AVE,CHICAGO,IL,60616,,CLOSED,
2,MOUNT SINAI MED,1809,MOUNT SINAI HOSPITAL,"1500 S FAIRFIELD AVE, CHICAGO, IL 60608",HOSPITAL,1500 S FAIRFIELD AVE,CHICAGO,IL,60608,,,
47,EVANSTON HOSPIT,28,NORTHSHORE EVANSTON HOSPITAL,"2650 RIDGE AVE, EVANSTON, IL 60201",HOSPITAL,2650 RIDGE AVE,EVANSTON,IL,60201,,,
50,NORTHWEST COMMU,24,NORTHWEST COMMUNITY HOSPITAL,"800 W CENTRAL RD, ARLINGTON HEIGHTS, IL 60005",HOSPITAL,800 W CENTRAL RD,ARLINGTON HEIGHTS,IL,60005,,,
67,NORTHWEST HOSPI,7,NORTHWEST COMMUNITY HOSPITAL,"800 W CENTRAL ROAD, ARLINGTON HEIGHTS, IL 60005",HOSPITAL,800 W CENTRAL ROAD,ARLINGTON HEIGHTS,IL,60005,,,"Not positive, but seems to be either this or NORTHWESTERN MEMORIAL"
7,NORTHWESTERN ME,478,NORTHWESTERN MEMORIAL HOSPITAL,"251 E HURON ST, CHICAGO, IL 60611",HOSPITAL,251 E HURON ST,CHICAGO,IL,60611,,,
41,NORWEGIAN-AMERI,38,NORWEGIAN AMERICAN HOSPITAL,"1044 N FRANCISCO AVE, CHICAGO, IL 60622",HOSPITAL,1044 N FRANCISCO AVE,CHICAGO,IL,60622,,,Now renamed Humboldt Park Health (Jan 2021)
33,OAK FOREST HOSP,57,OAK FOREST HOSPITAL,"15900 S CICERO AVE, OAK FOREST, IL 60452",HOSPITAL,15900 S CICERO AVE,OAK FOREST,IL,60452,YES,,Now named Blue Island Health Center
27,LITTLE COMPANY,68,OSF LITTLE COMPANY OF MARY MEDICAL CENTER,"2800 W 95TH ST, EVERGREEN PARK, IL 60805",HOSPITAL,2800 W 95TH ST,EVERGREEN PARK,IL,60805,,,
51,OUR LADY OF THE,24,OUR LADY OF THE RESURRECTION HOSPITAL,"5645 W ADDISON ST, CHICAGO, IL 60634",HOSPITAL,5645 W ADDISON ST,CHICAGO,IL,60634,,,Now renamed COMMUNITY FIRST MEDICAL CENTER. (Not completely sure if this is the right 'our lady of the..')
71,PALOS COMMUNITY,6,PALOS HOSPITAL,"12251 S 80TH AVE, PALOS HEIGHTS, IL 60463",HOSPITAL,12251 S 80TH AVE,PALOS HEIGHTS,IL,60463,,,
60,LA GRANGE COMMU,11,PILLARS COMMUNITY HEALTH MEDICAL CENTER,"110 CALENDAR AVE, LA GRANGE, IL 60525",HOSPITAL,110 CALENDAR AVE,LA GRANGE,IL,60525,,,"UNSURE which this is - potentially this one (used to be Community Nurse until merged and became Pillar), or maybe AMITA Health La Grange?"
29,PROVIDENT HOSPI,68,PROVIDENT HOSPITAL OF COOK COUNTY,"500 E 51ST ST, CHICAGO, IL 60615",HOSPITAL,500 E 51ST ST,CHICAGO,IL,60615,YES,,
56,RAVENSWOOD HOSP,16,RAVENSWOOD HOSPITAL,"1931 W WILSON AVE, CHICAGO, IL 60640",HOSPITAL,1931 W WILSON AVE,CHICAGO,IL,60640,,CLOSED,
10,ROSELAND COMMUN,195,ROSELAND COMMUNITY HOSPITAL,"45 W 111TH ST, CHICAGO, IL 60628",HOSPITAL,45 W 111TH ST,CHICAGO,IL,60628,,,
75,RUSH NORTH SHOR,5,RUSH NORTH SHORE HOSPITAL,"9600 GROSS POINT RD, SKOKIE, IL 60076",HOSPITAL,9600 GROSS POINT RD,SKOKIE,IL,60076,,,Renamed SKOKIE HOSPITAL after new ownership in 2009: http://www.ilhealthagents.com/insurance-news/blue-cross-blue-shield/northshore-university-health-system-acquires-rush-north-shore-hospital/
88,OAK PARK HOSPIT,3,RUSH OAK PARK HOSPITAL,"520 S MAPLE AVE, OAK PARK, IL 60304",HOSPITAL,520 S MAPLE AVE,OAK PARK,IL,60304,,,"Think it's RUSH, but could be another hospital located in Oak Park."
57,RUSH PRESBYTERI,15,RUSH PRESBYTERIAN ST. LUKE’S MEDICAL CENTER,"1620 W HARRISON ST, CHICAGO, IL 60612",HOSPITAL,1620 W HARRISON ST,CHICAGO,IL,60612,,,Renamed to RUSH UNIVERSITY MEDICAL CENTER in 2003: https://www.rush.edu/about-us/history
76,SACRED HEART HO,5,SACRED HEART HOSPITAL,"3240 W FRANKLIN BLVD, CHICAGO, IL 60624",HOSPITAL,3240 W FRANKLIN BLVD,CHICAGO,IL,60624,,CLOSED,Closed in 2013: https://www.chicagobusiness.com/article/20130701/NEWS03/130709987/sacred-heart-hospital-closes
16,ST. ANTHONY DE,138,SAINT ANTHONY HOSPITAL,"2875 W 19TH ST, CHICAGO, IL 60623",HOSPITAL,2875 W 19TH ST,CHICAGO,IL,60623,,,May be St Anthony of Padua Parish affilate?
39,SOUTH CHICAGO C,41,SOUTH CHICAGO COMMUNITY HOSPITAL,"2320 E 93RD ST, CHICAGO, IL 60617",HOSPITAL,2320 E 93RD ST,CHICAGO,IL,60617,,CLOSED,Maybe now Advocate Trinity Hospital? Unsure - can't find much info past 1966 murders of 8 nurses and 1991 article: https://www.nwitimes.com/uncategorized/south-chicago-community-hospital-undergoes-15-5-million/article_d4ea62f4-f0b6-54d3-be99-42d188da78ad.html. 
34,SOUTH SHORE HOS,56,SOUTH SHORE HOSPITAL,"8012 S CRANDON AVE, CHICAGO, IL 60617",HOSPITAL,8012 S CRANDON AVE,CHICAGO,IL,60617,,,
38,ST. ANNE'S HOSP,44,ST. ANNE'S HOSPITAL,"4900 W THOMAS ST, CHICAGO, IL 60651",HOSPITAL,4900 W THOMAS ST,CHICAGO,IL,60651,,CLOSED,
12,ST. BERNARD'S H,157,ST. BERNARD HOSPITAL,"326 W 64TH ST, CHICAGO, IL 60621",HOSPITAL,326 W 64TH ST,CHICAGO,IL,60621,,,
18,ST.JAMES HOSPIT,113,ST. JAMES HOSPITAL,"1423 CHICAGO RD, CHICAGO HEIGHTS, IL 60411",HOSPITAL,1423 CHICAGO RD,CHICAGO HEIGHTS,IL,60411,,CLOSED,Also/later known as FRANCISCAN ST JAMES HEALTH
49,SWEDISH COVENAN,25,SWEDISH COVENANT HOSPITAL,"5140 N CALIFORNIA AVE, CHICAGO, IL 60625",HOSPITAL,5140 N CALIFORNIA AVE,CHICAGO,IL,60625,,,Now renamed NORTHSHORE SWEDISH HOSPITAL
11,UNIVERSITY OF C,169,THE UNIVERSITY OF CHICAGO MEDICAL CENTER,"5841 S MARYLAND AVE, CHICAGO, IL 60637",HOSPITAL,5841 S MARYLAND AVE,CHICAGO,IL,60637,,,
85,THOREK HOSPITAL,4,THOREK MEMORIAL HOSPITAL,"850 W IRVING PARK RD, CHICAGO, IL 60613",HOSPITAL,850 W IRVING PARK RD,CHICAGO,IL,60613,,,
25,UNIVERSITY OF I,79,UNIVERSITY OF ILLINOIS HOSPITAL,"1740 W TAYLOR ST, CHICAGO, IL 60612",HOSPITAL,1740 W TAYLOR ST,CHICAGO,IL,60612,,,
55,VENCOR CHICAGO,18,VENCOR HOSPITAL CHICAGO NORTH,"2544 W MONTROSE AVE, CHICAGO, IL 60618",HOSPITAL,2544 W MONTROSE AVE,CHICAGO,IL,60618,,,"Vencor company changed name to Kindred after emerging from bankruptcy in 2001: https://en.wikipedia.org/wiki/Kindred_Healthcare; https://www.bmartin.cc/dissent/documents/health/access_vencor.html.
Not sure whether location 'VENCOR CHICAGO' referrs to the current Kindred Chicago North or Kindred Northlake (which would be address 365 E. North Ave, Melrose Park, IL 60164 - Vencor Northlake comes up as much as/more than Vencor Chicago North). Some links for North: http://www.usa.com/frs/vencor-hospital-chicago-north.html, https://www.wellness.com/dir/2498551/uncategorized/il/chicago/vencor-hosp-chicago-north, http://webapps.sfm.illinois.gov/ustsearch/Facility.aspx?ID=2014488, https://www.bbb.org/search?find_country=USA&find_latlng=41.870171%2C-87.671737&find_loc=Chicago%2C%20IL&find_text=vencor%20hospital&page=1&sort=Relevance&touched=1. Some links for Northlake: https://www.superpages.com/northlake-il/bpp/vencor-hospital-northlake-537341, https://www.bbb.org/us/il/melrose-park/profile/clinic/vencor-hospital-northlake-0654-39003638."
77,WALTER MEMORIAL,5,WALTHER MEMORIAL HOSPITAL,"1116 N KEDZIE AVE, CHICAGO, IL 60651",HOSPITAL,1116 N KEDZIE AVE,CHICAGO,IL,60651,,CLOSED,"Think it's WALTHER, no clear 'WALTER' option. Closed in 1987: https://www.chicagotribune.com/news/ct-xpm-1987-03-22-8701220299-story.html#:~:text=Walther%20Memorial%2C%20which%20filed%20for%20bankruptcy%20protection%20Jan.,is%20the%20first%20to%20file%20for%20bankruptcy%20protection."
30,WEST SUBURBAN H,66,WEST SUBURBAN MEDICAL CENTER,"3 ERIE ST, OAK PARK, IL 60302",HOSPITAL,3 ERIE ST,OAK PARK,IL,60302,,,
53,WESTLAKE COMMUN,21,WESTLAKE COMMUNITY HOSPITAL,"1225 LAKE ST, MELROSE PARK, IL 60160",HOSPITAL,1225 LAKE ST,MELROSE PARK,IL,60160,,CLOSED,"Also named WESTLAKE HOSPITAL, closed in 2019 but temporarily reopened for COVID"
32,SCENE,63,,,SCENE,,,IL,,,,
59,BELMONT HOSPITA,11,,,HOSPITAL,,,,,,,https://www.chicagotribune.com/news/ct-xpm-1992-06-11-9202210846-story.html; http://www.encyclopedia.chicagohistory.org/pages/602.html
61,SUBURBAN MEDICA,11,,,HOSPITAL,,,,,,,"NOT SURE if this is WESTERN SUBURBAN MEDICAL CENTER or if it's one of the SUBURBAN MEDICAL AND WELLNESS CENTER lcoations? Humana Hospital; ST Alexius Medical Center - formerly by Alexian Brothers Health System? Maybe ST Alexius in Hoffman Estates? Michael Reese comes up frequently, but not correct location for the INCIDENT CITIES in the records"
68,SCENE 168 W NOR,7,,"168 W NORTHWEST HWY, PALATINE, IL 60067",SCENE,168 W NORTHWEST HWY,PALATINE,IL,60067,,,"Brown's Chicken Massacre, 1993, at RESTAURANT Brown's Chicken: https://chicago.cbslocal.com/2018/01/08/browns-chicken-massacre-25-years-anniversary/"
79,SCENE 1428 N. K,4,,,,,,,,,,
80,SCENE 3620 S RH,4,,,,,,,,,,
81,SCENE 3912 S WA,4,,,,,,,,,,
82,SCENE 4519 W OG,4,,,,,,,,,,
83,SCENE 7248 S. M,4,,,,,,,,,,
87,FORENSIC INSTIT,3,FORENSIC INSTITUTE,"1957 N SPAULDING AVE, CHICAGO, IL 60647",,1957 N SPAULDING AVE,CHICAGO,IL,60647,,,
89,SCENE 10400 W N,3,,,,,,,,,,
90,SCENE 11439 S.,3,,,,,,,,,,
91,SCENE 11729 S.,3,,,,,,,,,,
92,SCENE 12214 S.,3,,,,,,,,,,
93,SCENE 2203 W. 2,3,,,,,,,,,,
94,SCENE 2811 S. K,3,,,,,,,,,,
95,SCENE 2856 S KI,3,,,,,,,,,,
96,SCENE 3546 W LY,3,,,,,,,,,,
97,SCENE 4865 N. R,3,,,,,,,,,,
98,SCENE 507 EAST,3,,,,,,,,,,
99,SCENE 5708 S. M,3,,,,,,,,,,
100,SCENE 6120 S HE,3,,,,,,,,,,
101,SCENE 6128 S. K,3,,,,,,,,,,
102,SCENE 6602 S WE,3,,,,,,,,,,
103,SCENE 7609 S RH,3,,,,,,,,,,
104,SCENE 7808 S KI,3,,,,,,,,,,
105,SCENE 7908 S LA,3,,,,,,,,,,
106,SCENE 8042 S. M,3,,,,,,,,,,
107,1239 S RACINE,2,,,,,,,,,,
112,INSTITUTE,2,,,HOSPITAL,,,,,,,
115,SCENE   412 E.,2,,,,,,,,,,
116,SCENE 10312 S A,2,,,,,,,,,,
117,SCENE 10440 S A,2,,,,,,,,,,
118,SCENE 10454 S I,2,,,,,,,,,,
119,SCENE 1055 W CA,2,,,,,,,,,,
120,SCENE 10611 S.,2,,,,,,,,,,
121,SCENE 10801 S.,2,,,,,,,,,,
122,SCENE 10844 S E,2,,,,,,,,,,
123,SCENE 109 BOARD,2,,,,,,,,,,
124,SCENE 11100 SOU,2,,,,,,,,,,
125,SCENE 1111 ELMW,2,,,,,,,,,,
126,SCENE 11346 S C,2,,,,,,,,,,
127,SCENE 1136 N HA,2,,,,,,,,,,
128,SCENE 11400 S.,2,,,,,,,,,,
129,SCENE 11600 S.,2,,,,,,,,,,
130,SCENE 11601 S W,2,,,,,,,,,,
131,SCENE 1165 N MI,2,,,,,,,,,,
132,SCENE 119 E 120,2,,,,,,,,,,
133,SCENE 1209 S RA,2,,,,,,,,,,
134,SCENE 12134 S.,2,,,,,,,,,,
135,SCENE 1235 S WA,2,,,,,,,,,,
136,SCENE 127 S CEN,2,,,,,,,,,,
137,SCENE 13052 S.,2,,,,,,,,,,
138,SCENE 1320 W 74,2,,,,,,,,,,
139,SCENE 13200 S C,2,,,,,,,,,,
140,SCENE 136 E. 11,2,,,,,,,,,,
141,SCENE 13648 S.,2,,,,,,,,,,
142,SCENE 140 S. DE,2,,,,,,,,,,
143,SCENE 1433 W 13,2,,,,,,,,,,
144,SCENE 1455 W CO,2,,,,,,,,,,
145,SCENE 1506 WEST,2,,,,,,,,,,
146,SCENE 15112 MYR,2,,,,,,,,,,
147,SCENE 1520 S CH,2,,,,,,,,,,
148,SCENE 1521 W 61,2,,,,,,,,,,
149,SCENE 15300 S.,2,,,,,,,,,,
150,SCENE 1578 WENT,2,,,,,,,,,,
151,SCENE 158TH AND,2,,,,,,,,,,
152,SCENE 1648 W 44,2,,,,,,,,,,
153,SCENE 1755 E 71,2,,,,,,,,,,
154,SCENE 17760 COU,2,,,,,,,,,,
155,SCENE 18 E 19TH,2,,,,,,,,,,
156,SCENE 1800 W AU,2,,,,,,,,,,
157,SCENE 1819 SYCA,2,,,,,,,,,,
158,SCENE 1837 CANA,2,,,,,,,,,,
159,SCENE 1901 GEOR,2,,,,,,,,,,
160,SCENE 1936 W WA,2,,,,,,,,,,
161,SCENE 19460 GLE,2,,,,,,,,,,
162,SCENE 2030 WEST,2,,,,,,,,,,
163,SCENE 21252 S.,2,,,,,,,,,,
164,SCENE 2215 E 87,2,,,,,,,,,,
165,SCENE 2222 S KI,2,,,,,,,,,,
166,SCENE 2238 W 54,2,,,,,,,,,,
167,SCENE 226 E. 47,2,,,,,,,,,,
168,SCENE 22642 BRO,2,,,,,,,,,,
169,SCENE 2414 W BY,2,,,,,,,,,,
170,SCENE 2415 N MO,2,,,,,,,,,,
171,SCENE 2419 S CH,2,,,,,,,,,,
172,SCENE 2432 W. 5,2,,,,,,,,,,
173,SCENE 2450 W MO,2,,,,,,,,,,
174,SCENE 24TH AND,2,,,,,,,,,,
175,SCENE 255 W 69T,2,,,,,,,,,,
176,SCENE 2637 E 10,2,,,,,,,,,,
177,SCENE 2654 S. D,2,,,,,,,,,,
178,SCENE 289 W 154,2,,,,,,,,,,
179,SCENE 2961 S DE,2,,,,,,,,,,
180,SCENE 3037 SUSS,2,,,,,,,,,,
181,SCENE 308 154TH,2,,,,,,,,,,
182,SCENE 3100 W. 4,2,,,,,,,,,,
183,SCENE 3121 W JE,2,,,,,,,,,,
184,SCENE 3121 W. D,2,,,,,,,,,,
185,SCENE 3229 N. O,2,,,,,,,,,,
186,SCENE 3335 W. C,2,,,,,,,,,,
187,SCENE 3344 W VA,2,,,,,,,,,,
188,SCENE 335 N. WH,2,,,,,,,,,,
189,SCENE 340 S HAM,2,,,,,,,,,,
190,SCENE 3404 W WA,2,,,,,,,,,,
191,SCENE 3515 W BE,2,,,,,,,,,,
192,SCENE 3522 W JA,2,,,,,,,,,,
193,SCENE 3527 W 79,2,,,,,,,,,,
194,SCENE 3649 W. O,2,,,,,,,,,,
195,SCENE 3710 W PO,2,,,,,,,,,,
196,SCENE 3832 W. P,2,,,,,,,,,,
197,SCENE 400 E 87T,2,,,,,,,,,,
198,SCENE 412 W CHI,2,,,,,,,,,,
199,SCENE 4144 W. 4,2,,,,,,,,,,
200,SCENE 4211 S CH,2,,,,,,,,,,
201,SCENE 4211 W. 5,2,,,,,,,,,,
202,SCENE 4245 W AU,2,,,,,,,,,,
203,SCENE 4258 WEST,2,,,,,,,,,,
204,SCENE 4314 S WE,2,,,,,,,,,,
205,SCENE 447 WEST,2,,,,,,,,,,
206,SCENE 4500 SOUT,2,,,,,,,,,,
207,SCENE 4525 S FE,2,,,,,,,,,,
208,SCENE 4608 S. L,2,,,,,,,,,,
209,SCENE 4643 S FR,2,,,,,,,,,,
210,SCENE 4701 W. L,2,,,,,,,,,,
211,SCENE 4847 S VI,2,,,,,,,,,,
212,SCENE 494 INGRH,2,,,,,,,,,,
213,SCENE 4946 S ST,2,,,,,,,,,,
214,SCENE 503 GARFI,2,,,,,,,,,,
215,SCENE 5106 S CA,2,,,,,,,,,,
216,SCENE 5200 S WI,2,,,,,,,,,,
217,SCENE 5247 S FE,2,,,,,,,,,,
218,SCENE 5301 S MO,2,,,,,,,,,,
219,SCENE 5332 S. W,2,,,,,,,,,,
220,SCENE 540 W 56T,2,,,,,,,,,,
221,SCENE 5500 W CH,2,,,,,,,,,,
222,SCENE 5565 W. K,2,,,,,,,,,,
223,SCENE 5701 W. M,2,,,,,,,,,,
224,SCENE 5834 S. W,2,,,,,,,,,,
225,SCENE 5848 S NO,2,,,,,,,,,,
226,SCENE 5870 W. L,2,,,,,,,,,,
227,SCENE 6001 S. A,2,,,,,,,,,,
228,SCENE 6100 S. M,2,,,,,,,,,,
229,SCENE 614 E 101,2,,,,,,,,,,
230,SCENE 617 E 89T,2,,,,,,,,,,
231,SCENE 628 BOHLA,2,,,,,,,,,,
232,SCENE 6425 S LO,2,,,,,,,,,,
233,SCENE 6600 SOUT,2,,,,,,,,,,
234,SCENE 6659 S. S,2,,,,,,,,,,
235,SCENE 6701 SOUT,2,,,,,,,,,,
236,SCENE 6733 S. O,2,,,,,,,,,,
237,SCENE 6740 S. D,2,,,,,,,,,,
238,SCENE 6817 S IN,2,,,,,,,,,,
239,SCENE 7115 S. E,2,,,,,,,,,,
240,SCENE 735 TORRE,2,,,,,,,,,,
241,SCENE 7423 SOUT,2,,,,,,,,,,
242,SCENE 7555 S PH,2,,,,,,,,,,
243,SCENE 7609 SOUT,2,,,,,,,,,,
244,SCENE 7619 S. C,2,,,,,,,,,,
245,SCENE 765 TERRA,2,,,,,,,,,,
246,SCENE 7746 S. C,2,,,,,,,,,,
247,SCENE 7831 S CO,2,,,,,,,,,,
248,SCENE 7900 S ST,2,,,,,,,,,,
249,SCENE 7908 S. L,2,,,,,,,,,,
250,SCENE 8006 S BR,2,,,,,,,,,,
251,SCENE 8007 S. M,2,,,,,,,,,,
252,SCENE 8011 S SH,2,,,,,,,,,,
253,SCENE 8016 S WA,2,,,,,,,,,,
254,SCENE 8044 S. L,2,,,,,,,,,,
255,SCENE 810 W 59T,2,,,,,,,,,,
256,SCENE 8144 S TH,2,,,,,,,,,,
257,SCENE 819 W WAV,2,,,,,,,,,,
258,SCENE 8212 S HO,2,,,,,,,,,,
259,SCENE 826 GREEN,2,,,,,,,,,,
260,SCENE 832 W 53R,2,,,,,,,,,,
261,SCENE 856 W NEL,2,,,,,,,,,,
262,SCENE 9041 S. H,2,,,,,,,,,,
263,SCENE 9129 S. C,2,,,,,,,,,,
264,SCENE 913 W 9TH,2,,,,,,,,,,
265,SCENE 9223 S BL,2,,,,,,,,,,
266,SCENE 923 DAVIS,2,,,,,,,,,,
267,SCENE 9329 S ME,2,,,,,,,,,,
268,SCENE 948 WEST,2,,,,,,,,,,
269,SCENE RT 58 GOL,2,,,,,,,,,,
270,SCENE/6349 S EV,2,,,,,,,,,,
271,SCENE:   1 W. 5,2,,,,,,,,,,
272,SCENE:   4430 N,2,,,,,,,,,,
273,SCENE:  1308 SU,2,,,,,,,,,,
274,SCENE: 2001 W.,2,,,,,,,,,,
275,WOODLAWN HOSPIT,2,,,,,,,,,,
276,10012 S. PARNELL,1,,,,,,,,,,
277,1024 N. Monticello,1,,,,,,,,,,
278,10243 S. LAFAYETTE,1,,,,,,,,,,
279,11721 S. Halsted,1,,,,,,,,,,
280,12352 SOUTH UNION,1,,,,,,,,,,
281,13242 S. Corliss Ave.,1,,,,,,,,,,
282,15 WEST 107TH STREET,1,,,,,,,,,,
283,1504 W. 71ST STREET,1,,,,,,,,,,
284,159th and Marshfield,1,,,,,,,,,,
285,200 S. Oakley,1,,,,,,,,,,
286,2100 W. Adams Street,1,,,,,,,,,,
287,2121 W HARRISO,1,,,,,,,,,,
288,2446 S Sacramento,1,,,,,,,,,,
289,2650 W 64th street,1,,,,,,,,,,
290,"2719 W. Evergreen Street, 2nd floor",1,,,,,,,,,,
291,31 E. 42ND ST.,1,,,,,,,,,,
292,356,1,,,,,,,,,,
293,4317 SOUTH STATE STREET,1,,,,,,,,,,
294,4927 WEST MONROE AVENUE,1,,,,,,,,,,
295,"5002 S. Champlain, Apt. 1N",1,,,,,,,,,,
296,5002 WEST WASHINGTON,1,,,,,,,,,,
297,5436 W. 24TH S,1,,,,,,,,,,
298,5452 West LaMoyne,1,,,,,,,,,,
299,5501 w quincy,1,,,,,,,,,,
300,5700 S May,1,,,,,,,,,,
301,6900 SOUTH WENTWORTH,1,,,,,,,,,,
302,7200 W. 63rd,1,,,,,,,,,,
303,7300 N Rogers,1,,,,,,,,,,
304,7639 N. ASHLAND AVE,1,,,,,,,,,,
305,7715 S TROY,1,,,,,,,,,,
306,8027 s STEWART AVE,1,,,,,,,,,,
307,9900 S CRILLY RD,1,,,,,,,,,,
308,AUGUSTANA HOSPI,1,,,,,,,,,,
309,CHICAGO CENTER,1,,,,,,,,,,
310,CHRIST HOSPIRTA,1,,,,,,,,,,
311,COMMUNITY HOSPI,1,,,,,,,,,,
312,DOCTOR'S HOSPIT,1,,,,,,,,,,
313,FORKOSH MEMORIA,1,,,,,,,,,,
314,GARFIELD PARK C,1,,,,,,,,,,
315,HYDE PARK HOSPI,1,,,,,,,,,,
316,ILLINOIS STATE,1,,,,,,,,,,
318,LEYDEN COMMUNIT,1,,,,,,,,,,
319,LURIE CHILDREN',1,,,,,,,,,,
320,SCCENE 6115 S L,1,,,,,,,,,,
321,SCE4NE 14423 LI,1,,,,,,,,,,
322,SCEBE 523 E. 47,1,,,,,,,,,,
323,SCEBE 622 N AVE,1,,,,,,,,,,
324,SCEEN 7601 S. S,1,,,,,,,,,,
325,SCEN  225 W.111,1,,,,,,,,,,
326,SCENE---1420 W.,1,,,,,,,,,,
327,SCENE---2446 S.,1,,,,,,,,,,
328,SCENE---2609 S.,1,,,,,,,,,,
329,SCENE---2651 W.,1,,,,,,,,,,
330,SCENE---2701 E.,1,,,,,,,,,,
331,SCENE---3940 W.,1,,,,,,,,,,
332,SCENE---455 W.,1,,,,,,,,,,
333,SCENE---643 MAR,1,,,,,,,,,,
334,SCENE---946 N.,1,,,,,,,,,,
335,SCENE--1624 W.,1,,,,,,,,,,
336,SCENE--1634 S.,1,,,,,,,,,,
337,SCENE--450 E. 4,1,,,,,,,,,,
338,SCENE--639 W. 1,1,,,,,,,,,,
339,SCENE--7800 S.,1,,,,,,,,,,
340,SCENE-9322 S.HA,1,,,,,,,,,,
341,SCENE - 1938 SO,1,,,,,,,,,,
342,SCENE - 5241 S.,1,,,,,,,,,,
343,SCENE     2350,1,,,,,,,,,,
344,SCENE     48TH,1,,,,,,,,,,
345,SCENE    1829 N,1,,,,,,,,,,
346,SCENE    3838 W,1,,,,,,,,,,
347,SCENE    5050,1,,,,,,,,,,
348,SCENE    552  N,1,,,,,,,,,,
349,SCENE    7010 S,1,,,,,,,,,,
350,SCENE   1014,1,,,,,,,,,,
351,SCENE   1100 N.,1,,,,,,,,,,
352,SCENE   1441 W.,1,,,,,,,,,,
353,SCENE   209  N.,1,,,,,,,,,,
354,SCENE   2350 S.,1,,,,,,,,,,
355,SCENE   2931 W.,1,,,,,,,,,,
356,SCENE   4241 SO,1,,,,,,,,,,
357,SCENE   4728 S.,1,,,,,,,,,,
358,SCENE   5001 S.,1,,,,,,,,,,
359,SCENE   503 E M,1,,,,,,,,,,
360,SCENE   61 E 29,1,,,,,,,,,,
361,SCENE   6318 S.,1,,,,,,,,,,
362,SCENE   6442 S,1,,,,,,,,,,
363,SCENE   9237  S,1,,,,,,,,,,
364,SCENE   9320,1,,,,,,,,,,
365,SCENE   939 N.,1,,,,,,,,,,
366,SCENE  1016  N.,1,,,,,,,,,,
367,SCENE  10212 S,1,,,,,,,,,,
368,SCENE  11 E  36,1,,,,,,,,,,
369,SCENE  1115 EAS,1,,,,,,,,,,
370,SCENE  1154 N.,1,,,,,,,,,,
371,SCENE  121 W. 1,1,,,,,,,,,,
372,SCENE  125  W 1,1,,,,,,,,,,
373,SCENE  1258 N.,1,,,,,,,,,,
374,SCENE  13334  S,1,,,,,,,,,,
375,SCENE  134 W. 1,1,,,,,,,,,,
376,SCENE  1376  W,1,,,,,,,,,,
377,SCENE  1411 W S,1,,,,,,,,,,
378,SCENE  14436 CA,1,,,,,,,,,,
379,SCENE  1455   W,1,,,,,,,,,,
380,SCENE  14820 SO,1,,,,,,,,,,
381,SCENE  1521  N,1,,,,,,,,,,
382,SCENE  1527 WES,1,,,,,,,,,,
383,SCENE  15420  M,1,,,,,,,,,,
384,SCENE  15TH AND,1,,,,,,,,,,
385,SCENE  1641 W F,1,,,,,,,,,,
386,SCENE  1830 W O,1,,,,,,,,,,
387,SCENE  1915 S B,1,,,,,,,,,,
388,SCENE  1919 W P,1,,,,,,,,,,
389,SCENE  2008 W 7,1,,,,,,,,,,
390,SCENE  2011 W C,1,,,,,,,,,,
391,SCENE  2018  W,1,,,,,,,,,,
392,SCENE  2030 EAS,1,,,,,,,,,,
393,SCENE  209 N. L,1,,,,,,,,,,
394,SCENE  2104 N.,1,,,,,,,,,,
395,SCENE  220 N HO,1,,,,,,,,,,
396,SCENE  231  N.,1,,,,,,,,,,
397,SCENE  2315 N.,1,,,,,,,,,,
398,SCENE  2528  W.,1,,,,,,,,,,
399,SCENE  2564 S B,1,,,,,,,,,,
400,SCENE  2631 W.,1,,,,,,,,,,
401,SCENE  2633 W 5,1,,,,,,,,,,
402,SCENE  2700 S S,1,,,,,,,,,,
403,SCENE  2709  S,1,,,,,,,,,,
404,SCENE  2710 S S,1,,,,,,,,,,
405,SCENE  2849  W,1,,,,,,,,,,
406,SCENE  3 EAST 6,1,,,,,,,,,,
407,SCENE  300 W 55,1,,,,,,,,,,
408,SCENE  3013 PR,1,,,,,,,,,,
409,SCENE  3112  W.,1,,,,,,,,,,
410,SCENE  3120 S.,1,,,,,,,,,,
411,SCENE  31ST & H,1,,,,,,,,,,
412,SCENE  3536 S.,1,,,,,,,,,,
413,SCENE  358 E 11,1,,,,,,,,,,
414,SCENE  3801 W J,1,,,,,,,,,,
415,SCENE  3805 W O,1,,,,,,,,,,
416,SCENE  401 S.,1,,,,,,,,,,
417,SCENE  4010 W I,1,,,,,,,,,,
418,SCENE  4030 S I,1,,,,,,,,,,
419,SCENE  4126  W2,1,,,,,,,,,,
420,SCENE  4212   W,1,,,,,,,,,,
421,SCENE  4217 W.,1,,,,,,,,,,
422,SCENE  4250 S.,1,,,,,,,,,,
423,SCENE  426 S CI,1,,,,,,,,,,
424,SCENE  4431 W.,1,,,,,,,,,,
425,SCENE  4500 S W,1,,,,,,,,,,
426,SCENE  4707 N K,1,,,,,,,,,,
427,SCENE  500 WEST,1,,,,,,,,,,
428,SCENE  5301 S M,1,,,,,,,,,,
429,SCENE  5320   S,1,,,,,,,,,,
430,SCENE  5329 S.,1,,,,,,,,,,
431,SCENE  545 NO P,1,,,,,,,,,,
432,SCENE  5608 S T,1,,,,,,,,,,
433,SCENE  5838  N.,1,,,,,,,,,,
434,SCENE  587 DOUG,1,,,,,,,,,,
435,SCENE  5925 SOU,1,,,,,,,,,,
436,SCENE  5927 S.,1,,,,,,,,,,
437,SCENE  5931 S W,1,,,,,,,,,,
438,SCENE  6134 S F,1,,,,,,,,,,
439,SCENE  614 E 10,1,,,,,,,,,,
440,SCENE  6230 S I,1,,,,,,,,,,
441,SCENE  624 WEST,1,,,,,,,,,,
442,SCENE  6335 SOU,1,,,,,,,,,,
443,SCENE  6348 W C,1,,,,,,,,,,
444,SCENE  6410  S.,1,,,,,,,,,,
445,SCENE  6619 S.,1,,,,,,,,,,
446,SCENE  6635 S L,1,,,,,,,,,,
447,SCENE  6740 NOR,1,,,,,,,,,,
448,SCENE  6759 CON,1,,,,,,,,,,
449,SCENE  6825 S.,1,,,,,,,,,,
450,SCENE  6827 1/2,1,,,,,,,,,,
451,SCENE  7009 S V,1,,,,,,,,,,
452,SCENE  7256 S.,1,,,,,,,,,,
453,SCENE  7514 S W,1,,,,,,,,,,
454,SCENE  7941 S.,1,,,,,,,,,,
455,SCENE  7941 S.E,1,,,,,,,,,,
456,SCENE  8032  S,1,,,,,,,,,,
457,SCENE  8400 S S,1,,,,,,,,,,
458,SCENE  872 SACR,1,,,,,,,,,,
459,SCENE  904 W. V,1,,,,,,,,,,
460,SCENE  914 EAST,1,,,,,,,,,,
461,SCENE  925 N MO,1,,,,,,,,,,
462,SCENE  927 WEST,1,,,,,,,,,,
463,SCENE  947 ARNO,1,,,,,,,,,,
464,SCENE  9514 S.,1,,,,,,,,,,
465,SCENE  CHICAGO,1,,,,,,,,,,
466,SCENE  DUNDEE R,1,,,,,,,,,,
467,SCENE  FLOSSMOO,1,,,,,,,,,,
468,SCENE  GRAND AV,1,,,,,,,,,,
469,SCENE  I-94 470,1,,,,,,,,,,
470,SCENE  IOWA  AN,1,,,,,,,,,,
471,SCENE ^@% N. RI,1,,,,,,,,,,
472,SCENE 10 E. CLA,1,,,,,,,,,,
473,SCENE 10 JUDITH,1,,,,,,,,,,
474,SCENE 10 W PENN,1,,,,,,,,,,
475,SCENE 10 W. 113,1,,,,,,,,,,
476,SCENE 100 EAST,1,,,,,,,,,,
477,SCENE 100 N. 13,1,,,,,,,,,,
478,SCENE 1000 E. 1,1,,,,,,,,,,
479,SCENE 1000 E. 5,1,,,,,,,,,,
480,SCENE 1000 N. M,1,,,,,,,,,,
481,SCENE 1000 NORT,1,,,,,,,,,,
482,SCENE 10000 S P,1,,,,,,,,,,
483,SCENE 10000 W O,1,,,,,,,,,,
484,SCENE 1001 S. K,1,,,,,,,,,,
485,SCENE 1002 N AV,1,,,,,,,,,,
486,SCENE 10028 S P,1,,,,,,,,,,
487,SCENE 10032 S.,1,,,,,,,,,,
488,SCENE 10054 SOU,1,,,,,,,,,,
489,SCENE 10055 S P,1,,,,,,,,,,
490,SCENE 1006 SOUT,1,,,,,,,,,,
491,SCENE 1007 BURN,1,,,,,,,,,,
492,SCENE 1007 W 63,1,,,,,,,,,,
493,SCENE 1009 W 10,1,,,,,,,,,,
494,SCENE 101 S PAR,1,,,,,,,,,,
495,SCENE 101 W. 10,1,,,,,,,,,,
496,SCENE 1010 N MA,1,,,,,,,,,,
497,SCENE 1010 SOUT,1,,,,,,,,,,
498,SCENE 1011 N LE,1,,,,,,,,,,
499,SCENE 10133 SOU,1,,,,,,,,,,
500,SCENE 10134 S.,1,,,,,,,,,,
501,SCENE 10146 S E,1,,,,,,,,,,
502,SCENE 10146 S.,1,,,,,,,,,,
503,SCENE 1015 HONE,1,,,,,,,,,,
504,SCENE 10155 S.,1,,,,,,,,,,
505,SCENE 1017 S. 1,1,,,,,,,,,,
506,SCENE 1018 EAST,1,,,,,,,,,,
507,SCENE 10191 STA,1,,,,,,,,,,
508,SCENE 102 E 46T,1,,,,,,,,,,
509,SCENE 102 E 50T,1,,,,,,,,,,
510,SCENE 102 E. 46,1,,,,,,,,,,
511,SCENE 1020 W BE,1,,,,,,,,,,
512,SCENE 1020 W LA,1,,,,,,,,,,
513,SCENE 10200 SOU,1,,,,,,,,,,
514,SCENE 10202 S.,1,,,,,,,,,,
515,SCENE 10207 OGL,1,,,,,,,,,,
516,SCENE 10210 S G,1,,,,,,,,,,
517,SCENE 1022 W 10,1,,,,,,,,,,
518,SCENE 10220 S M,1,,,,,,,,,,
519,SCENE 1023  E 4,1,,,,,,,,,,
520,SCENE 1023 E. 4,1,,,,,,,,,,
521,SCENE 1023 N PU,1,,,,,,,,,,
522,SCENE 1024 BELL,1,,,,,,,,,,
523,SCENE 1024 CLAR,1,,,,,,,,,,
524,SCENE 1024 N. S,1,,,,,,,,,,
525,SCENE 1025 N CE,1,,,,,,,,,,
526,SCENE 10251 S.,1,,,,,,,,,,
527,SCENE 1026 N. L,1,,,,,,,,,,
528,SCENE 1026 W MA,1,,,,,,,,,,
529,SCENE 1026 W MO,1,,,,,,,,,,
530,SCENE 1026 W. 1,1,,,,,,,,,,
531,SCENE 102ND AND,1,,,,,,,,,,
532,SCENE 1030 E. 1,1,,,,,,,,,,
533,SCENE 1030 N AV,1,,,,,,,,,,
534,SCENE 1030 W 75,1,,,,,,,,,,
535,SCENE 10300 S D,1,,,,,,,,,,
536,SCENE 10301 S.,1,,,,,,,,,,
537,SCENE 1031 SIBL,1,,,,,,,,,,
538,SCENE 1034 E. 7,1,,,,,,,,,,
539,SCENE 1035 W. 5,1,,,,,,,,,,
540,SCENE 10354 S A,1,,,,,,,,,,
541,SCENE 10358 S W,1,,,,,,,,,,
542,SCENE 1036 W GA,1,,,,,,,,,,
543,SCENE 1038 W. B,1,,,,,,,,,,
544,SCENE 1039 DARR,1,,,,,,,,,,
545,SCENE 104 S MAR,1,,,,,,,,,,
546,SCENE 1040 W 90,1,,,,,,,,,,
547,SCENE 1040 W HO,1,,,,,,,,,,
548,SCENE 1042 E. 8,1,,,,,,,,,,
549,SCENE 1044 W 48,1,,,,,,,,,,
550,SCENE 10459 S W,1,,,,,,,,,,
551,SCENE 1046 W 61,1,,,,,,,,,,
552,SCENE 105 E 42N,1,,,,,,,,,,
553,SCENE 105 E DEL,1,,,,,,,,,,
554,SCENE 105 EAST,1,,,,,,,,,,
555,SCENE 105 S. AS,1,,,,,,,,,,
556,SCENE 105 W 102,1,,,,,,,,,,
557,SCENE 105 W 116,1,,,,,,,,,,
558,SCENE 1050  N,1,,,,,,,,,,
559,SCENE 1050 S 6T,1,,,,,,,,,,
560,SCENE 1050 W 14,1,,,,,,,,,,
561,SCENE 10500 CRO,1,,,,,,,,,,
562,SCENE 10501 S S,1,,,,,,,,,,
563,SCENE 10504 S.,1,,,,,,,,,,
564,SCENE 1051 WARW,1,,,,,,,,,,
565,SCENE 1051 WEST,1,,,,,,,,,,
566,SCENE 10526 S L,1,,,,,,,,,,
567,SCENE 10528 S H,1,,,,,,,,,,
568,SCENE 10528 S P,1,,,,,,,,,,
569,SCENE 10531 S O,1,,,,,,,,,,
570,SCENE 10539 S P,1,,,,,,,,,,
571,SCENE 10552 S.,1,,,,,,,,,,
572,SCENE 10554 S A,1,,,,,,,,,,
573,SCENE 10554 S E,1,,,,,,,,,,
574,SCENE 10555 S E,1,,,,,,,,,,
575,SCENE 10555 S.,1,,,,,,,,,,
576,SCENE 1058 N. L,1,,,,,,,,,,
577,SCENE 106 E 140,1,,,,,,,,,,
578,SCENE 106 N. KI,1,,,,,,,,,,
579,SCENE 106 W 91S,1,,,,,,,,,,
580,SCENE 1060 E 73,1,,,,,,,,,,
581,SCENE 10603 S H,1,,,,,,,,,,
582,SCENE 10611 S L,1,,,,,,,,,,
583,SCENE 10618 S.,1,,,,,,,,,,
584,SCENE 10624 SOU,1,,,,,,,,,,
585,SCENE 1063 W GR,1,,,,,,,,,,
586,SCENE 10635 W W,1,,,,,,,,,,
587,SCENE 10643 S I,1,,,,,,,,,,
588,SCENE 10659 S.,1,,,,,,,,,,
589,SCENE 106TH & C,1,,,,,,,,,,
590,SCENE 10704 S M,1,,,,,,,,,,
591,SCENE 10705 SOU,1,,,,,,,,,,
592,SCENE 10708 BEN,1,,,,,,,,,,
593,SCENE 10716 S A,1,,,,,,,,,,
594,SCENE 10716 S.,1,,,,,,,,,,
595,SCENE 10717 S.,1,,,,,,,,,,
596,SCENE 10718 S T,1,,,,,,,,,,
597,SCENE 10729 S.,1,,,,,,,,,,
598,SCENE 10737 S E,1,,,,,,,,,,
599,SCENE 10739 S P,1,,,,,,,,,,
600,SCENE 1074 N HE,1,,,,,,,,,,
601,SCENE 10752 S.,1,,,,,,,,,,
602,SCENE 10753 S H,1,,,,,,,,,,
603,SCENE 10753 S P,1,,,,,,,,,,
604,SCENE 10755 S U,1,,,,,,,,,,
605,SCENE 10768 S L,1,,,,,,,,,,
606,SCENE 10768 S.,1,,,,,,,,,,
607,SCENE 108 S PAR,1,,,,,,,,,,
608,SCENE 108 W 157,1,,,,,,,,,,
609,SCENE 10805 S G,1,,,,,,,,,,
610,SCENE 10806 S P,1,,,,,,,,,,
611,SCENE 10855 S W,1,,,,,,,,,,
612,SCENE 10865 S C,1,,,,,,,,,,
613,SCENE 109 EGGLE,1,,,,,,,,,,
614,SCENE 109 SOUTH,1,,,,,,,,,,
615,SCENE 109 W HUB,1,,,,,,,,,,
616,SCENE 10907 S H,1,,,,,,,,,,
617,SCENE 10910 S W,1,,,,,,,,,,
618,SCENE 10945 S W,1,,,,,,,,,,
619,SCENE 10946 S.,1,,,,,,,,,,
620,SCENE 10TH AVEN,1,,,,,,,,,,
621,SCENE 11 SOUTH,1,,,,,,,,,,
622,SCENE 11000 S.,1,,,,,,,,,,
623,SCENE 1101 BOHL,1,,,,,,,,,,
624,SCENE 11010 S.,1,,,,,,,,,,
625,SCENE 11016 S V,1,,,,,,,,,,
626,SCENE 1103 N NO,1,,,,,,,,,,
627,SCENE 11030 S N,1,,,,,,,,,,
628,SCENE 1104 N LA,1,,,,,,,,,,
629,SCENE 1106 N WA,1,,,,,,,,,,
630,SCENE 1106 NORT,1,,,,,,,,,,
631,SCENE 1107 S. M,1,,,,,,,,,,
632,SCENE 1108 S LY,1,,,,,,,,,,
633,SCENE 111 W. 75,1,,,,,,,,,,
634,SCENE 1110 E 82,1,,,,,,,,,,
635,SCENE 11114 S T,1,,,,,,,,,,
636,SCENE 11115 S.,1,,,,,,,,,,
637,SCENE 111346 S,1,,,,,,,,,,
638,SCENE 1114 S ST,1,,,,,,,,,,
639,SCENE 11143 S N,1,,,,,,,,,,
640,SCENE 11146 LOW,1,,,,,,,,,,
641,SCENE 1115 W 11,1,,,,,,,,,,
642,SCENE 11150 S A,1,,,,,,,,,,
643,SCENE 1116 E 82,1,,,,,,,,,,
644,SCENE 1117 W  1,1,,,,,,,,,,
645,SCENE 1117 W WI,1,,,,,,,,,,
646,SCENE 1119 N KE,1,,,,,,,,,,
647,SCENE 112 E. 72,1,,,,,,,,,,
648,SCENE 112 FREDE,1,,,,,,,,,,
649,SCENE 112 MARAN,1,,,,,,,,,,
650,SCENE 1120 NORT,1,,,,,,,,,,
651,SCENE 1120 W MA,1,,,,,,,,,,
652,SCENE 11209 SOU,1,,,,,,,,,,
653,SCENE 1121 EAST,1,,,,,,,,,,
654,SCENE 1121 W 78,1,,,,,,,,,,
655,SCENE 1121 W. 1,1,,,,,,,,,,
656,SCENE 11221 S E,1,,,,,,,,,,
657,SCENE 11222 S I,1,,,,,,,,,,
658,SCENE 11235 S I,1,,,,,,,,,,
659,SCENE 1125 N CH,1,,,,,,,,,,
660,SCENE 1125 N LO,1,,,,,,,,,,
661,SCENE 1125 S TR,1,,,,,,,,,,
662,SCENE 1125 W 56,1,,,,,,,,,,
663,SCENE 1125 W 59,1,,,,,,,,,,
664,SCENE 11250 S A,1,,,,,,,,,,
665,SCENE 11259 SOU,1,,,,,,,,,,
666,SCENE 1126 N KE,1,,,,,,,,,,
667,SCENE 1127 W 47,1,,,,,,,,,,
668,SCENE 11280 DIN,1,,,,,,,,,,
669,SCENE 1130 N DE,1,,,,,,,,,,
670,SCENE 11300 E.,1,,,,,,,,,,
671,SCENE 11300 S W,1,,,,,,,,,,
672,SCENE 1131 NORT,1,,,,,,,,,,
673,SCENE 11311 S.,1,,,,,,,,,,
674,SCENE 11318 S.,1,,,,,,,,,,
675,SCENE 11320 S V,1,,,,,,,,,,
676,SCENE 11340 S E,1,,,,,,,,,,
677,SCENE 1135  S.,1,,,,,,,,,,
678,SCENE 1135 W 18,1,,,,,,,,,,
679,SCENE 11352 S E,1,,,,,,,,,,
680,SCENE 11358 S F,1,,,,,,,,,,
681,SCENE 11358 S W,1,,,,,,,,,,
682,SCENE 11358 S.,1,,,,,,,,,,
683,SCENE 1136 W 12,1,,,,,,,,,,
684,SCENE 1137 23RD,1,,,,,,,,,,
685,SCENE 1139 N AV,1,,,,,,,,,,
686,SCENE 1140 S 13,1,,,,,,,,,,
687,SCENE 1140 W. 1,1,,,,,,,,,,
688,SCENE 1140 W. W,1,,,,,,,,,,
689,SCENE 1141 N MA,1,,,,,,,,,,
690,SCENE 11411 S L,1,,,,,,,,,,
691,SCENE 11412 S K,1,,,,,,,,,,
692,SCENE 1142 N KI,1,,,,,,,,,,
693,SCENE 1142 N. M,1,,,,,,,,,,
694,SCENE 1142 W 11,1,,,,,,,,,,
695,SCENE 11421 S.,1,,,,,,,,,,
696,SCENE 114217 CH,1,,,,,,,,,,
697,SCENE 11425 SOU,1,,,,,,,,,,
698,SCENE 11429 S C,1,,,,,,,,,,
699,SCENE 11440 S U,1,,,,,,,,,,
700,SCENE 11445 S M,1,,,,,,,,,,
701,SCENE 1145 W 84,1,,,,,,,,,,
702,SCENE 1149 EAST,1,,,,,,,,,,
703,SCENE 115 E 47T,1,,,,,,,,,,
704,SCENE 115 S 15T,1,,,,,,,,,,
705,SCENE 1150  N L,1,,,,,,,,,,
706,SCENE 1150 N CI,1,,,,,,,,,,
707,SCENE 1150 N. P,1,,,,,,,,,,
708,SCENE 11501 S.,1,,,,,,,,,,
709,SCENE 1151 N. H,1,,,,,,,,,,
710,SCENE 11512 S Y,1,,,,,,,,,,
711,SCENE 11518 S W,1,,,,,,,,,,
712,SCENE 11531 S R,1,,,,,,,,,,
713,SCENE 11532 S A,1,,,,,,,,,,
714,SCENE 11540 S Y,1,,,,,,,,,,
715,SCENE 11549 S.,1,,,,,,,,,,
716,SCENE 1155 W. 1,1,,,,,,,,,,
717,SCENE 1156 E. 1,1,,,,,,,,,,
718,SCENE 1157 NORT,1,,,,,,,,,,
719,SCENE 1157 W. G,1,,,,,,,,,,
720,SCENE 1158 N CL,1,,,,,,,,,,
721,SCENE 1158 N WA,1,,,,,,,,,,
722,SCENE 1159 W SU,1,,,,,,,,,,
723,SCENE 116 N. KE,1,,,,,,,,,,
724,SCENE 11607 S.,1,,,,,,,,,,
725,SCENE 11608 S P,1,,,,,,,,,,
726,SCENE 11619 S L,1,,,,,,,,,,
727,SCENE 11628 S C,1,,,,,,,,,,
728,SCENE 11630 S.,1,,,,,,,,,,
729,SCENE 11631 S.,1,,,,,,,,,,
730,SCENE 11642 S S,1,,,,,,,,,,
731,SCENE 11648 SOU,1,,,,,,,,,,
732,SCENE 11658 S B,1,,,,,,,,,,
733,SCENE 117 5TH A,1,,,,,,,,,,
734,SCENE 117 KILBO,1,,,,,,,,,,
735,SCENE 117 N JEF,1,,,,,,,,,,
736,SCENE 117 S KIL,1,,,,,,,,,,
737,SCENE 11712 S.,1,,,,,,,,,,
738,SCENE 11714 S.,1,,,,,,,,,,
739,SCENE 11727 S N,1,,,,,,,,,,
740,SCENE 11729 S H,1,,,,,,,,,,
741,SCENE 11730 SOU,1,,,,,,,,,,
742,SCENE 11731 S P,1,,,,,,,,,,
743,SCENE 11731 S.,1,,,,,,,,,,
744,SCENE 11735 S S,1,,,,,,,,,,
745,SCENE 11740 FRO,1,,,,,,,,,,
746,SCENE 11749 S.,1,,,,,,,,,,
747,SCENE 1175 HIGG,1,,,,,,,,,,
748,SCENE 1175 JANI,1,,,,,,,,,,
749,SCENE 11753 SOU,1,,,,,,,,,,
750,SCENE 117TH 154,1,,,,,,,,,,
751,SCENE 118 N CEN,1,,,,,,,,,,
752,SCENE 118 N KEY,1,,,,,,,,,,
753,SCENE 118 S 11T,1,,,,,,,,,,
754,SCENE 11801 S S,1,,,,,,,,,,
755,SCENE 11820 S P,1,,,,,,,,,,
756,SCENE 11848 S L,1,,,,,,,,,,
757,SCENE 11858 S.,1,,,,,,,,,,
758,SCENE 119 S CIC,1,,,,,,,,,,
759,SCENE 119 WEST,1,,,,,,,,,,
760,SCENE 11901 S Y,1,,,,,,,,,,
761,SCENE 119200 S,1,,,,,,,,,,
762,SCENE 11924 S.L,1,,,,,,,,,,
763,SCENE 11927 S E,1,,,,,,,,,,
764,SCENE 11940 S R,1,,,,,,,,,,
765,SCENE 11946 S E,1,,,,,,,,,,
766,SCENE 12 S PULA,1,,,,,,,,,,
767,SCENE 1200 E 77,1,,,,,,,,,,
768,SCENE 1200 PULA,1,,,,,,,,,,
769,SCENE 1200 S PU,1,,,,,,,,,,
770,SCENE 1200 W 11,1,,,,,,,,,,
771,SCENE 12005 S.,1,,,,,,,,,,
772,SCENE 1201 E 16,1,,,,,,,,,,
773,SCENE 1201 N LE,1,,,,,,,,,,
774,SCENE 1201 N. D,1,,,,,,,,,,
775,SCENE 12012 S N,1,,,,,,,,,,
776,SCENE 12018 S.,1,,,,,,,,,,
777,SCENE 12055 S.,1,,,,,,,,,,
778,SCENE 12056 S P,1,,,,,,,,,,
779,SCENE 1207 SOUT,1,,,,,,,,,,
780,SCENE 1208 W. 5,1,,,,,,,,,,
781,SCENE 120865 CH,1,,,,,,,,,,
782,SCENE 1209 W 79,1,,,,,,,,,,
783,SCENE 12100 S.,1,,,,,,,,,,
784,SCENE 12121 VIN,1,,,,,,,,,,
785,SCENE 12134 S W,1,,,,,,,,,,
786,"SCENE 12137 S,",1,,,,,,,,,,
787,SCENE 12139 S M,1,,,,,,,,,,
788,SCENE 1214 EAST,1,,,,,,,,,,
789,SCENE 1215 CUYL,1,,,,,,,,,,
790,SCENE 1215 E 87,1,,,,,,,,,,
791,SCENE 12158 S U,1,,,,,,,,,,
792,SCENE 1216 N CE,1,,,,,,,,,,
793,SCENE 1217 N MA,1,,,,,,,,,,
794,SCENE 1218 E 53,1,,,,,,,,,,
795,SCENE 1219 S. L,1,,,,,,,,,,
796,SCENE 122 E 47T,1,,,,,,,,,,
797,SCENE 1220 E 11,1,,,,,,,,,,
798,SCENE 1220 E 73,1,,,,,,,,,,
799,SCENE 12207 S A,1,,,,,,,,,,
800,SCENE 1221 E. 9,1,,,,,,,,,,
801,SCENE 1222 S. R,1,,,,,,,,,,
802,SCENE 12239 S N,1,,,,,,,,,,
803,SCENE 1224 N. K,1,,,,,,,,,,
804,SCENE 1224 W OH,1,,,,,,,,,,
805,SCENE 12247 S H,1,,,,,,,,,,
806,SCENE 12249 S.,1,,,,,,,,,,
807,SCENE 1225 W LA,1,,,,,,,,,,
808,SCENE 12251 S.,1,,,,,,,,,,
809,SCENE 12253 S L,1,,,,,,,,,,
810,SCENE 12258 S G,1,,,,,,,,,,
811,SCENE 12259 S S,1,,,,,,,,,,
812,SCENE 1226 MASO,1,,,,,,,,,,
813,SCENE 1226 N ME,1,,,,,,,,,,
814,SCENE 1228 W 11,1,,,,,,,,,,
815,SCENE 122ND AND,1,,,,,,,,,,
816,SCENE 123 W 1O4,1,,,,,,,,,,
817,SCENE 1230 N BU,1,,,,,,,,,,
818,SCENE 1230 N. B,1,,,,,,,,,,
819,SCENE 12300 SCE,1,,,,,,,,,,
820,SCENE 1231 S WE,1,,,,,,,,,,
821,SCENE 12311 S.,1,,,,,,,,,,
822,SCENE 12315 S E,1,,,,,,,,,,
823,SCENE 12315 SOU,1,,,,,,,,,,
824,SCENE 1232 N. M,1,,,,,,,,,,
825,SCENE 12334 S P,1,,,,,,,,,,
826,SCENE 1234 INDE,1,,,,,,,,,,
827,SCENE 1234 N PA,1,,,,,,,,,,
828,SCENE 1234 N. H,1,,,,,,,,,,
829,SCENE 1234 W 43,1,,,,,,,,,,
830,SCENE 12344 S.,1,,,,,,,,,,
831,SCENE 1236 BARB,1,,,,,,,,,,
832,SCENE 1237 N PA,1,,,,,,,,,,
833,SCENE 1237 N. K,1,,,,,,,,,,
834,SCENE 1238 E. 7,1,,,,,,,,,,
835,SCENE 1238 W 74,1,,,,,,,,,,
836,SCENE 124 E 44T,1,,,,,,,,,,
837,SCENE 124 S CIC,1,,,,,,,,,,
838,SCENE 12401 ASH,1,,,,,,,,,,
839,SCENE 12409 S M,1,,,,,,,,,,
840,SCENE 1241 THOR,1,,,,,,,,,,
841,SCENE 1242 N. L,1,,,,,,,,,,
842,SCENE 1242 W 97,1,,,,,,,,,,
843,SCENE 12427 S W,1,,,,,,,,,,
844,SCENE 12437 S.,1,,,,,,,,,,
845,SCENE 1244 W 61,1,,,,,,,,,,
846,SCENE 1245 S. N,1,,,,,,,,,,
847,SCENE 1247 N HA,1,,,,,,,,,,
848,SCENE 1248 W 72,1,,,,,,,,,,
849,SCENE 1248 W 89,1,,,,,,,,,,
850,SCENE 125 LINCO,1,,,,,,,,,,
851,SCENE 12500 S D,1,,,,,,,,,,
852,SCENE 12515 S E,1,,,,,,,,,,
853,SCENE 1253 N SP,1,,,,,,,,,,
854,SCENE 1253 N. D,1,,,,,,,,,,
855,SCENE 12545 S.,1,,,,,,,,,,
856,SCENE 12556  SO,1,,,,,,,,,,
857,SCENE 1259 N LO,1,,,,,,,,,,
858,SCENE 1259 W 79,1,,,,,,,,,,
859,SCENE 126 N. LO,1,,,,,,,,,,
860,SCENE 12607 S.,1,,,,,,,,,,
861,SCENE 12622 S L,1,,,,,,,,,,
862,SCENE 12622 S.,1,,,,,,,,,,
863,SCENE 12625 S W,1,,,,,,,,,,
864,SCENE 1265 CUNN,1,,,,,,,,,,
865,SCENE 1265 W AU,1,,,,,,,,,,
866,SCENE 127 EAST,1,,,,,,,,,,
867,SCENE 127 S KAR,1,,,,,,,,,,
868,SCENE 127 SOUTH,1,,,,,,,,,,
869,SCENE 12715 S S,1,,,,,,,,,,
870,SCENE 12725  S,1,,,,,,,,,,
871,SCENE 12751 S.,1,,,,,,,,,,
872,SCENE 128 E 51S,1,,,,,,,,,,
873,SCENE 12837 SJU,1,,,,,,,,,,
874,SCENE 1285 W NO,1,,,,,,,,,,
875,SCENE 129 EAST,1,,,,,,,,,,
876,SCENE 12957 S.,1,,,,,,,,,,
877,SCENE 13 W. 120,1,,,,,,,,,,
878,SCENE 130 E. 14,1,,,,,,,,,,
879,SCENE 130 N LEA,1,,,,,,,,,,
880,SCENE 130 S SAC,1,,,,,,,,,,
881,SCENE 1300 N. 2,1,,,,,,,,,,
882,SCENE 1300 S KA,1,,,,,,,,,,
883,SCENE 1300 W 90,1,,,,,,,,,,
884,SCENE 1300 W GR,1,,,,,,,,,,
885,SCENE 1300 W. 7,1,,,,,,,,,,
886,SCENE 13003 S E,1,,,,,,,,,,
887,SCENE 1301 S. A,1,,,,,,,,,,
888,SCENE 1301 W SH,1,,,,,,,,,,
889,SCENE 1301 W. H,1,,,,,,,,,,
890,SCENE 1302 W. 1,1,,,,,,,,,,
891,SCENE 13040 S D,1,,,,,,,,,,
892,SCENE 1305 OTTO,1,,,,,,,,,,
893,SCENE 1308 W 48,1,,,,,,,,,,
894,SCENE 13080 S G,1,,,,,,,,,,
895,SCENE 131 E 155,1,,,,,,,,,,
896,SCENE 131 E 72N,1,,,,,,,,,,
897,SCENE 131 W 114,1,,,,,,,,,,
898,SCENE 1310 E. 5,1,,,,,,,,,,
899,SCENE 1313 CENT,1,,,,,,,,,,
900,SCENE 1313 E 71,1,,,,,,,,,,
901,SCENE 1313 S KO,1,,,,,,,,,,
902,SCENE 13135 S C,1,,,,,,,,,,
903,SCENE 1314 E 71,1,,,,,,,,,,
904,SCENE 13142 S.,1,,,,,,,,,,
905,SCENE 1315 E 75,1,,,,,,,,,,
906,SCENE 1315 S 59,1,,,,,,,,,,
907,SCENE 1315 SOUT,1,,,,,,,,,,
908,SCENE 1317 W EL,1,,,,,,,,,,
909,SCENE 1317 W HA,1,,,,,,,,,,
910,SCENE 1319 W HA,1,,,,,,,,,,
911,SCENE 13199 S D,1,,,,,,,,,,
912,SCENE 132 SOUTH,1,,,,,,,,,,
913,SCENE 13215 S L,1,,,,,,,,,,
914,SCENE 1322 SPAU,1,,,,,,,,,,
915,SCENE 1324 W AR,1,,,,,,,,,,
916,SCENE 1325 N. H,1,,,,,,,,,,
917,SCENE 13255 S.,1,,,,,,,,,,
918,SCENE 1327 RIDG,1,,,,,,,,,,
919,SCENE 1328 E. 7,1,,,,,,,,,,
920,SCENE 1328 WEST,1,,,,,,,,,,
921,SCENE 13295 S E,1,,,,,,,,,,
922,SCENE 133 EAST,1,,,,,,,,,,
923,SCENE 133 W 95T,1,,,,,,,,,,
924,SCENE 1330 S HE,1,,,,,,,,,,
925,SCENE 1331 N. W,1,,,,,,,,,,
926,SCENE 1331 S RO,1,,,,,,,,,,
927,SCENE 1333 WEST,1,,,,,,,,,,
928,SCENE 1334 S AS,1,,,,,,,,,,
929,SCENE 1334 SOUT,1,,,,,,,,,,
930,SCENE 1334 W DI,1,,,,,,,,,,
931,SCENE 13350 S H,1,,,,,,,,,,
932,SCENE 13355 S.,1,,,,,,,,,,
933,SCENE 1336 W 79,1,,,,,,,,,,
934,SCENE 1340 S. O,1,,,,,,,,,,
935,SCENE 1340 W. 1,1,,,,,,,,,,
936,SCENE 1341 N LO,1,,,,,,,,,,
937,SCENE 1341 W DI,1,,,,,,,,,,
938,SCENE 13410 S D,1,,,,,,,,,,
939,SCENE 13420 SOU,1,,,,,,,,,,
940,SCENE 1346 N AR,1,,,,,,,,,,
941,SCENE 1346 S LA,1,,,,,,,,,,
942,SCENE 1346 S. T,1,,,,,,,,,,
943,SCENE 1346 W CA,1,,,,,,,,,,
944,SCENE 1346 W HA,1,,,,,,,,,,
945,SCENE 1347 N. H,1,,,,,,,,,,
946,SCENE 1348 E. 4,1,,,,,,,,,,
947,SCENE 134W.119T,1,,,,,,,,,,
948,SCENE 135 E MAI,1,,,,,,,,,,
949,SCENE 135 W. 68,1,,,,,,,,,,
950,SCENE 1351 N. L,1,,,,,,,,,,
951,SCENE 1351 W 87,1,,,,,,,,,,
952,SCENE 1352  KEY,1,,,,,,,,,,
953,SCENE 13529 S.,1,,,,,,,,,,
954,SCENE 13537 S A,1,,,,,,,,,,
955,SCENE 1355 KING,1,,,,,,,,,,
956,SCENE 1355 N MA,1,,,,,,,,,,
957,SCENE 1358 N HA,1,,,,,,,,,,
958,SCENE 1358 W. M,1,,,,,,,,,,
959,SCENE 136 BLOCK,1,,,,,,,,,,
960,SCENE 136 EAST,1,,,,,,,,,,
961,SCENE 13600 S S,1,,,,,,,,,,
962,SCENE 13601 S C,1,,,,,,,,,,
963,SCENE 1363 E 90,1,,,,,,,,,,
964,SCENE 1364 E 53,1,,,,,,,,,,
965,SCENE 1364 EAST,1,,,,,,,,,,
966,SCENE 13664 S W,1,,,,,,,,,,
967,SCENE 13710 S D,1,,,,,,,,,,
968,SCENE 13714 S C,1,,,,,,,,,,
969,SCENE 13719 HOM,1,,,,,,,,,,
970,SCENE 13729 S E,1,,,,,,,,,,
971,SCENE 13734 S S,1,,,,,,,,,,
972,SCENE 1375 REBE,1,,,,,,,,,,
973,SCENE 1376 WYND,1,,,,,,,,,,
974,SCENE 13800 S D,1,,,,,,,,,,
975,SCENE 13812 S D,1,,,,,,,,,,
976,SCENE 13826 PAR,1,,,,,,,,,,
977,SCENE 13841 S.,1,,,,,,,,,,
978,SCENE 138TH & T,1,,,,,,,,,,
979,SCENE 140 S DEA,1,,,,,,,,,,
980,SCENE 140 W 104,1,,,,,,,,,,
981,SCENE 140 W 73R,1,,,,,,,,,,
982,SCENE 140 W 95T,1,,,,,,,,,,
983,SCENE 1400 DREX,1,,,,,,,,,,
984,SCENE 1400 E 13,1,,,,,,,,,,
985,SCENE 1400 E. 1,1,,,,,,,,,,
986,SCENE 1400 N. L,1,,,,,,,,,,
987,SCENE 1400 S SA,1,,,,,,,,,,
988,SCENE 14008 EAS,1,,,,,,,,,,
989,SCENE 1402 W. R,1,,,,,,,,,,
990,SCENE 1403 N. L,1,,,,,,,,,,
991,SCENE 14035 TRA,1,,,,,,,,,,
992,SCENE 1404 S. A,1,,,,,,,,,,
993,SCENE 1405 AMBA,1,,,,,,,,,,
994,SCENE 14050 TRA,1,,,,,,,,,,
995,SCENE 1406 S CH,1,,,,,,,,,,
996,SCENE 1406 S HA,1,,,,,,,,,,
997,SCENE 1406 S. H,1,,,,,,,,,,
998,SCENE 1407 S DR,1,,,,,,,,,,
999,SCENE 1409 W. 1,1,,,,,,,,,,
1000,SCENE 1410 N 21,1,,,,,,,,,,
1001,SCENE 1410 W. 1,1,,,,,,,,,,
1002,SCENE 14116 S S,1,,,,,,,,,,
1003,SCENE 14118 S A,1,,,,,,,,,,
1004,SCENE 14121 LYD,1,,,,,,,,,,
1005,SCENE 14121 REE,1,,,,,,,,,,
1006,SCENE 1414 N.43,1,,,,,,,,,,
1007,SCENE 1416 EAST,1,,,,,,,,,,
1008,SCENE 1416 S DR,1,,,,,,,,,,
1009,SCENE 1417 N KI,1,,,,,,,,,,
1010,SCENE 1418  N W,1,,,,,,,,,,
1011,SCENE 1418 N  M,1,,,,,,,,,,
1012,SCENE 1419 N LA,1,,,,,,,,,,
1013,SCENE 1419 N. S,1,,,,,,,,,,
1014,SCENE 142 N. LO,1,,,,,,,,,,
1015,SCENE 142 S KIL,1,,,,,,,,,,
1016,SCENE 142 W. 10,1,,,,,,,,,,
1017,SCENE 1420 S 6T,1,,,,,,,,,,
1018,SCENE 1420 S AV,1,,,,,,,,,,
1019,SCENE 1420 S. 5,1,,,,,,,,,,
1020,SCENE 1420 W. 4,1,,,,,,,,,,
1021,SCENE 14200 COT,1,,,,,,,,,,
1022,SCENE 1421 S AV,1,,,,,,,,,,
1023,SCENE 1422 DODG,1,,,,,,,,,,
1024,SCENE 14226 DOB,1,,,,,,,,,,
1025,"SCENE 1423 N, H",1,,,,,,,,,,
1026,SCENE 14234 SCH,1,,,,,,,,,,
1027,SCENE 1424 W PR,1,,,,,,,,,,
1028,SCENE 14247 LIN,1,,,,,,,,,,
1029,SCENE 1427 W. 7,1,,,,,,,,,,
1030,SCENE 1430 N. D,1,,,,,,,,,,
1031,SCENE 1430 NORT,1,,,,,,,,,,
1032,SCENE 1433 S. K,1,,,,,,,,,,
1033,SCENE 1433 W WA,1,,,,,,,,,,
1034,SCENE 1435 N HU,1,,,,,,,,,,
1035,SCENE 1436 S. 5,1,,,,,,,,,,
1036,SCENE 1436 W 10,1,,,,,,,,,,
1037,SCENE 1437  DIP,1,,,,,,,,,,
1038,SCENE 144 AND L,1,,,,,,,,,,
1039,SCENE 144 N MAY,1,,,,,,,,,,
1040,SCENE 144 NORTH,1,,,,,,,,,,
1041,SCENE 1440 E 52,1,,,,,,,,,,
1042,SCENE 1440 N LA,1,,,,,,,,,,
1043,SCENE 1440 W 84,1,,,,,,,,,,
1044,SCENE 14407  DA,1,,,,,,,,,,
1045,SCENE 1441 W 54,1,,,,,,,,,,
1046,SCENE 1441 W. W,1,,,,,,,,,,
1047,SCENE 1442 N WI,1,,,,,,,,,,
1048,SCENE 14423 CHI,1,,,,,,,,,,
1049,SCENE 14423 LIN,1,,,,,,,,,,
1050,SCENE 14435 S.,1,,,,,,,,,,
1051,SCENE 1444 REGE,1,,,,,,,,,,
1052,SCENE 1445 S. H,1,,,,,,,,,,
1053,SCENE 1446 W  9,1,,,,,,,,,,
1054,SCENE 1449 WEST,1,,,,,,,,,,
1055,SCENE 1450 N CL,1,,,,,,,,,,
1056,SCENE 14503 VAN,1,,,,,,,,,,
1057,SCENE 1451 N AS,1,,,,,,,,,,
1058,SCENE 1452 S PU,1,,,,,,,,,,
1059,SCENE 14525 S.,1,,,,,,,,,,
1060,SCENE 1455 S KE,1,,,,,,,,,,
1061,SCENE 1456 N. A,1,,,,,,,,,,
1062,SCENE 1456 N. M,1,,,,,,,,,,
1063,SCENE 1457 N. L,1,,,,,,,,,,
1064,SCENE 1458 W 10,1,,,,,,,,,,
1065,SCENE 1459 W. 7,1,,,,,,,,,,
1066,SCENE 146 E 16T,1,,,,,,,,,,
1067,SCENE 146 E.16T,1,,,,,,,,,,
1068,SCENE 14600 KEN,1,,,,,,,,,,
1069,SCENE 14600 SO.,1,,,,,,,,,,
1070,SCENE 14605 AVA,1,,,,,,,,,,
1071,SCENE 1461 W FR,1,,,,,,,,,,
1072,SCENE 14613 ASH,1,,,,,,,,,,
1073,SCENE 14616 S.,1,,,,,,,,,,
1074,SCENE 1463 E 67,1,,,,,,,,,,
1075,SCENE 1468 E 67,1,,,,,,,,,,
1076,SCENE 146TH HAL,1,,,,,,,,,,
1077,SCENE 147 RIVER,1,,,,,,,,,,
1078,SCENE 147 W 74T,1,,,,,,,,,,
1079,SCENE 1470 W. 7,1,,,,,,,,,,
1080,SCENE 14730 KET,1,,,,,,,,,,
1081,SCENE 14750 EVE,1,,,,,,,,,,
1082,SCENE 14800 S V,1,,,,,,,,,,
1083,SCENE 14805 S.,1,,,,,,,,,,
1084,SCENE 14810 MYR,1,,,,,,,,,,
1085,SCENE 14810 S.,1,,,,,,,,,,
1086,SCENE 148TH & K,1,,,,,,,,,,
1087,SCENE 14904 SOU,1,,,,,,,,,,
1088,SCENE 14912  SO,1,,,,,,,,,,
1089,SCENE 14921 LIN,1,,,,,,,,,,
1090,SCENE 15  N WAS,1,,,,,,,,,,
1091,SCENE 15 E SIBL,1,,,,,,,,,,
1092,SCENE 150 OXFOR,1,,,,,,,,,,
1093,SCENE 150 S. CA,1,,,,,,,,,,
1094,SCENE 150 W CON,1,,,,,,,,,,
1095,SCENE 150 W JOE,1,,,,,,,,,,
1096,SCENE 1500 BLOC,1,,,,,,,,,,
1097,SCENE 1500 HANO,1,,,,,,,,,,
1098,SCENE 15000 S.,1,,,,,,,,,,
1099,SCENE 1501 N TA,1,,,,,,,,,,
1100,SCENE 1501 S RI,1,,,,,,,,,,
1101,SCENE 1502 S. A,1,,,,,,,,,,
1102,SCENE 15026 FAI,1,,,,,,,,,,
1103,SCENE 1504 S 5T,1,,,,,,,,,,
1104,SCENE 15045 OAK,1,,,,,,,,,,
1105,SCENE 1505 W 63,1,,,,,,,,,,
1106,SCENE 1505 W. 7,1,,,,,,,,,,
1107,SCENE 1507 S 51,1,,,,,,,,,,
1108,SCENE 1508 SOUT,1,,,,,,,,,,
1109,SCENE 1508 W. 7,1,,,,,,,,,,
1110,SCENE 150TH MAP,1,,,,,,,,,,
1111,SCENE 151 SOUTH,1,,,,,,,,,,
1112,SCENE 151 W OHI,1,,,,,,,,,,
1113,SCENE 1510 W 13,1,,,,,,,,,,
1114,SCENE 1510 W 48,1,,,,,,,,,,
1115,SCENE 1511 W PA,1,,,,,,,,,,
1116,SCENE 15113 LEX,1,,,,,,,,,,
1117,SCENE 15122 S M,1,,,,,,,,,,
1118,SCENE 1513 N MA,1,,,,,,,,,,
1119,SCENE 15139 MEA,1,,,,,,,,,,
1120,SCENE 1514 EAST,1,,,,,,,,,,
1121,SCENE 1515 CHUR,1,,,,,,,,,,
1122,SCENE 1515 N PA,1,,,,,,,,,,
1123,SCENE 1515 S. D,1,,,,,,,,,,
1124,SCENE 1515 W 56,1,,,,,,,,,,
1125,SCENE 1516 50TH,1,,,,,,,,,,
1126,SCENE 1516 N. H,1,,,,,,,,,,
1127,SCENE 1516 W. 8,1,,,,,,,,,,
1128,SCENE 1518 W. 6,1,,,,,,,,,,
1129,SCENE 151ST AND,1,,,,,,,,,,
1130,SCENE 1520 ST C,1,,,,,,,,,,
1131,SCENE 1520 W 13,1,,,,,,,,,,
1132,SCENE 1520 W WA,1,,,,,,,,,,
1133,SCENE 1520 W. L,1,,,,,,,,,,
1134,SCENE 15201 S B,1,,,,,,,,,,
1135,SCENE 1521 E. 8,1,,,,,,,,,,
1136,SCENE 1521 N. M,1,,,,,,,,,,
1137,SCENE 1523 W CO,1,,,,,,,,,,
1138,SCENE 1523 W. 1,1,,,,,,,,,,
1139,SCENE 1524 S KE,1,,,,,,,,,,
1140,SCENE 1524 S LA,1,,,,,,,,,,
1141,SCENE 15241 S.,1,,,,,,,,,,
1142,SCENE 15258 ING,1,,,,,,,,,,
1143,SCENE 15259 S D,1,,,,,,,,,,
1144,SCENE 15263 CAL,1,,,,,,,,,,
1145,SCENE 1527 S HO,1,,,,,,,,,,
1146,SCENE 1527 W 48,1,,,,,,,,,,
1147,SCENE 1527 W. W,1,,,,,,,,,,
1148,SCENE 1528 W PR,1,,,,,,,,,,
1149,SCENE 1530 W. 6,1,,,,,,,,,,
1150,SCENE 15316 S W,1,,,,,,,,,,
1151,SCENE 1533 E 76,1,,,,,,,,,,
1152,SCENE 15332 GRE,1,,,,,,,,,,
1153,SCENE 1534 MOR,1,,,,,,,,,,
1154,SCENE 1535 S.KA,1,,,,,,,,,,
1155,SCENE 15360 ALB,1,,,,,,,,,,
1156,SCENE 1537 W 17,1,,,,,,,,,,
1157,SCENE 1537 W. 5,1,,,,,,,,,,
1158,SCENE 1540 E RE,1,,,,,,,,,,
1159,SCENE 1540 W HO,1,,,,,,,,,,
1160,SCENE 15400 S C,1,,,,,,,,,,
1161,SCENE 15400 SCA,1,,,,,,,,,,
1162,SCENE 1541  S C,1,,,,,,,,,,
1163,SCENE 1544 W 69,1,,,,,,,,,,
1164,SCENE 1547 N LE,1,,,,,,,,,,
1165,SCENE 1547 W 87,1,,,,,,,,,,
1166,SCENE 155 S. HO,1,,,,,,,,,,
1167,SCENE 1550 E 79,1,,,,,,,,,,
1168,SCENE 15500 S C,1,,,,,,,,,,
1169,SCENE 15509 WES,1,,,,,,,,,,
1170,SCENE 1551 N WE,1,,,,,,,,,,
1171,SCENE 1551 S KE,1,,,,,,,,,,
1172,SCENE 1552 W 69,1,,,,,,,,,,
1173,SCENE 15526 PAR,1,,,,,,,,,,
1174,SCENE 1554 N LA,1,,,,,,,,,,
1175,SCENE 1554 S. K,1,,,,,,,,,,
1176,SCENE 1557 SIBL,1,,,,,,,,,,
1177,SCENE 1559 S KI,1,,,,,,,,,,
1178,SCENE 1559 W. 3,1,,,,,,,,,,
1179,SCENE 1560 N HO,1,,,,,,,,,,
1180,SCENE 156116 LO,1,,,,,,,,,,
1181,SCENE 1569 N HO,1,,,,,,,,,,
1182,SCENE 15712 S W,1,,,,,,,,,,
1183,SCENE 15712 S.,1,,,,,,,,,,
1184,SCENE 15713 CAR,1,,,,,,,,,,
1185,SCENE 1572 TAHO,1,,,,,,,,,,
1186,SCENE 15802 S M,1,,,,,,,,,,
1187,SCENE 15840 S L,1,,,,,,,,,,
1188,SCENE 15TH AVE.,1,,,,,,,,,,
1189,SCENE 16 EAST O,1,,,,,,,,,,
1190,SCENE 160 AND R,1,,,,,,,,,,
1191,SCENE 160 N. GR,1,,,,,,,,,,
1192,SCENE 1600 E 76,1,,,,,,,,,,
1193,SCENE 1600 W DI,1,,,,,,,,,,
1194,SCENE 1600 W E,1,,,,,,,,,,
1195,SCENE 1601 WEST,1,,,,,,,,,,
1196,SCENE 1602 W CE,1,,,,,,,,,,
1197,SCENE 1606 14TH,1,,,,,,,,,,
1198,SCENE 1606 SOUT,1,,,,,,,,,,
1199,SCENE 1607 S KA,1,,,,,,,,,,
1200,SCENE 1607 W 59,1,,,,,,,,,,
1201,SCENE 1609 N. 3,1,,,,,,,,,,
1202,SCENE 1610 N.MA,1,,,,,,,,,,
1203,SCENE 1610 W HO,1,,,,,,,,,,
1204,SCENE 1611 N KE,1,,,,,,,,,,
1205,SCENE 1613 CHUR,1,,,,,,,,,,
1206,SCENE 1614 S SP,1,,,,,,,,,,
1207,SCENE 1614 S. S,1,,,,,,,,,,
1208,SCENE 1615 N OR,1,,,,,,,,,,
1209,SCENE 1615 W 95,1,,,,,,,,,,
1210,SCENE 1616 SOUT,1,,,,,,,,,,
1211,SCENE 1616 W. 3,1,,,,,,,,,,
1212,SCENE 1617 E 53,1,,,,,,,,,,
1213,SCENE 1618 E 73,1,,,,,,,,,,
1214,SCENE 1618 S. K,1,,,,,,,,,,
1215,SCENE 1619 S LO,1,,,,,,,,,,
1216,SCENE 1620 N. H,1,,,,,,,,,,
1217,SCENE 16205 LAF,1,,,,,,,,,,
1218,SCENE 1621 N KE,1,,,,,,,,,,
1219,SCENE 1621 W 43,1,,,,,,,,,,
1220,SCENE 16220 MAR,1,,,,,,,,,,
1221,SCENE 16220 SAW,1,,,,,,,,,,
1222,SCENE 1623 E 74,1,,,,,,,,,,
1223,SCENE 16230 CAR,1,,,,,,,,,,
1224,SCENE 1624 N KE,1,,,,,,,,,,
1225,SCENE 1626 N MO,1,,,,,,,,,,
1226,SCENE 1626 S. K,1,,,,,,,,,,
1227,SCENE 1630 W HU,1,,,,,,,,,,
1228,SCENE 1631 N ME,1,,,,,,,,,,
1229,SCENE 1631 W. J,1,,,,,,,,,,
1230,SCENE 1632 W 49,1,,,,,,,,,,
1231,SCENE 1632 W HO,1,,,,,,,,,,
1232,SCENE 1633 THOR,1,,,,,,,,,,
1233,SCENE 1634 NORT,1,,,,,,,,,,
1234,SCENE 1634 S 18,1,,,,,,,,,,
1235,SCENE 1637 W. A,1,,,,,,,,,,
1236,SCENE 1639 N. H,1,,,,,,,,,,
1237,SCENE 1639 WEST,1,,,,,,,,,,
1238,SCENE 1640 W. J,1,,,,,,,,,,
1239,SCENE 16400 S.,1,,,,,,,,,,
1240,SCENE 1641 E 72,1,,,,,,,,,,
1241,SCENE 1641 N BO,1,,,,,,,,,,
1242,SCENE 1641 W 47,1,,,,,,,,,,
1243,SCENE 16418 SCH,1,,,,,,,,,,
1244,SCENE 1644 E. A,1,,,,,,,,,,
1245,SCENE 1644 N. M,1,,,,,,,,,,
1246,SCENE 1645 SOUT,1,,,,,,,,,,
1247,SCENE 1647 W JU,1,,,,,,,,,,
1248,SCENE 1648 N AU,1,,,,,,,,,,
1249,SCENE 1648 N CI,1,,,,,,,,,,
1250,SCENE 1648 N. K,1,,,,,,,,,,
1251,SCENE 1648 S CH,1,,,,,,,,,,
1252,SCENE 1648 W 66,1,,,,,,,,,,
1253,SCENE 1650 S LE,1,,,,,,,,,,
1254,SCENE 1651 N. L,1,,,,,,,,,,
1255,SCENE 1651 S SA,1,,,,,,,,,,
1256,SCENE 1651 W 78,1,,,,,,,,,,
1257,SCENE 1655 WEST,1,,,,,,,,,,
1258,SCENE 1656 N KI,1,,,,,,,,,,
1259,SCENE 1657 W 64,1,,,,,,,,,,
1260,SCENE 1659 WCUL,1,,,,,,,,,,
1261,SCENE 16621 SCH,1,,,,,,,,,,
1262,SCENE 1669 W FA,1,,,,,,,,,,
1263,SCENE 167 N. LA,1,,,,,,,,,,
1264,SCENE 16700 S.,1,,,,,,,,,,
1265,SCENE 16801 EXC,1,,,,,,,,,,
1266,SCENE 169 EAST,1,,,,,,,,,,
1267,SCENE 17 N. LOT,1,,,,,,,,,,
1268,SCENE 1700 N ME,1,,,,,,,,,,
1269,SCENE 1700 SOU,1,,,,,,,,,,
1270,SCENE 1700 W. E,1,,,,,,,,,,
1271,SCENE 17001 S H,1,,,,,,,,,,
1272,SCENE 17002 TOR,1,,,,,,,,,,
1273,SCENE 17003 S H,1,,,,,,,,,,
1274,SCENE 1705 N MA,1,,,,,,,,,,
1275,SCENE 1705 N. L,1,,,,,,,,,,
1276,SCENE 1706 N. H,1,,,,,,,,,,
1277,SCENE 1707 N AR,1,,,,,,,,,,
1278,SCENE 1708 W 58,1,,,,,,,,,,
1279,SCENE 1710  N A,1,,,,,,,,,,
1280,SCENE 1710 W 47,1,,,,,,,,,,
1281,SCENE 1712 W 18,1,,,,,,,,,,
1282,SCENE 1712 W 19,1,,,,,,,,,,
1283,SCENE 1717 N FR,1,,,,,,,,,,
1284,SCENE 1718 S 1S,1,,,,,,,,,,
1285,SCENE 1719 E 87,1,,,,,,,,,,
1286,SCENE 1719 N MA,1,,,,,,,,,,
1287,SCENE 1719 W 51,1,,,,,,,,,,
1288,SCENE 1719 WEST,1,,,,,,,,,,
1289,SCENE 1720 N TR,1,,,,,,,,,,
1290,SCENE 1720 W 14,1,,,,,,,,,,
1291,SCENE 17218 PEA,1,,,,,,,,,,
1292,SCENE 1722 N ST,1,,,,,,,,,,
1293,SCENE 1725 HOWA,1,,,,,,,,,,
1294,SCENE 1727 DUMO,1,,,,,,,,,,
1295,SCENE 1730 N MO,1,,,,,,,,,,
1296,SCENE 1731 GREY,1,,,,,,,,,,
1297,SCENE 1731 N. C,1,,,,,,,,,,
1298,SCENE 1733,1,,,,,,,,,,
1299,SCENE 1733 N. M,1,,,,,,,,,,
1300,SCENE 1735 E. 9,1,,,,,,,,,,
1301,SCENE 1740 EAST,1,,,,,,,,,,
1302,SCENE 1740 N HU,1,,,,,,,,,,
1303,SCENE 1740 W GA,1,,,,,,,,,,
1304,SCENE 1740 W. T,1,,,,,,,,,,
1305,SCENE 17400 S A,1,,,,,,,,,,
1306,SCENE 1741 N MO,1,,,,,,,,,,
1307,SCENE 1743 E. 6,1,,,,,,,,,,
1308,SCENE 1744 LEMO,1,,,,,,,,,,
1309,SCENE 1745 E 69,1,,,,,,,,,,
1310,SCENE 1745 EAST,1,,,,,,,,,,
1311,SCENE 1745 N ME,1,,,,,,,,,,
1312,SCENE 1745 W 45,1,,,,,,,,,,
1313,SCENE 1747 N MO,1,,,,,,,,,,
1314,SCENE 1747 NORT,1,,,,,,,,,,
1315,SCENE 174TH AND,1,,,,,,,,,,
1316,SCENE 1751 W ST,1,,,,,,,,,,
1317,SCENE 1753 N KE,1,,,,,,,,,,
1318,SCENE 1755 E. 5,1,,,,,,,,,,
1319,SCENE 1755 S. W,1,,,,,,,,,,
1320,SCENE 1758 N KI,1,,,,,,,,,,
1321,SCENE 1758 S. W,1,,,,,,,,,,
1322,SCENE 1758 W WO,1,,,,,,,,,,
1323,SCENE 17780 S.,1,,,,,,,,,,
1324,SCENE 178 E. 14,1,,,,,,,,,,
1325,SCENE 18 E. 122,1,,,,,,,,,,
1326,SCENE 1800 CHIP,1,,,,,,,,,,
1327,SCENE 1800 S 10,1,,,,,,,,,,
1328,SCENE 1800 S. M,1,,,,,,,,,,
1329,SCENE 1800 W. 5,1,,,,,,,,,,
1330,SCENE 1801 N. F,1,,,,,,,,,,
1331,SCENE 1801 N. L,1,,,,,,,,,,
1332,SCENE 1801 S CA,1,,,,,,,,,,
1333,SCENE 1801 S UN,1,,,,,,,,,,
1334,SCENE 1801 W 69,1,,,,,,,,,,
1335,SCENE 1801 WEST,1,,,,,,,,,,
1336,SCENE 1802 S CA,1,,,,,,,,,,
1337,SCENE 1803 E 71,1,,,,,,,,,,
1338,SCENE 1803 W 51,1,,,,,,,,,,
1339,SCENE 1810 CHUR,1,,,,,,,,,,
1340,SCENE 1810 W. 6,1,,,,,,,,,,
1341,SCENE 1810 WADA,1,,,,,,,,,,
1342,SCENE 1810 WEST,1,,,,,,,,,,
1343,SCENE 18100 LAW,1,,,,,,,,,,
1344,SCENE 18118 OLY,1,,,,,,,,,,
1345,SCENE 1815 E 71,1,,,,,,,,,,
1346,SCENE 1819 W WA,1,,,,,,,,,,
1347,SCENE 1820 W 85,1,,,,,,,,,,
1348,SCENE 1820 W 87,1,,,,,,,,,,
1349,SCENE 1821 S BA,1,,,,,,,,,,
1350,SCENE 1821 S HA,1,,,,,,,,,,
1351,SCENE 1822 W. 4,1,,,,,,,,,,
1352,SCENE 1824 SOUT,1,,,,,,,,,,
1353,SCENE 1825 N 73,1,,,,,,,,,,
1354,SCENE 1826 S CE,1,,,,,,,,,,
1355,SCENE 1828 N K,1,,,,,,,,,,
1356,SCENE 1828 N KI,1,,,,,,,,,,
1357,SCENE 1830 E 78,1,,,,,,,,,,
1358,SCENE 1830 W KI,1,,,,,,,,,,
1359,SCENE 1832 E 71,1,,,,,,,,,,
1360,SCENE 1832 JUNE,1,,,,,,,,,,
1361,SCENE 1833 S. A,1,,,,,,,,,,
1362,SCENE 1835 N LO,1,,,,,,,,,,
1363,SCENE 1835 W HA,1,,,,,,,,,,
1364,SCENE 1835 W. C,1,,,,,,,,,,
1365,SCENE 1836  KAR,1,,,,,,,,,,
1366,SCENE 1836 W. B,1,,,,,,,,,,
1367,SCENE 1837 W 48,1,,,,,,,,,,
1368,SCENE 1839 E 95,1,,,,,,,,,,
1369,SCENE 1840 S.56,1,,,,,,,,,,
1370,SCENE 1851 W MA,1,,,,,,,,,,
1371,SCENE 1854 S BL,1,,,,,,,,,,
1372,SCENE 1854 S CE,1,,,,,,,,,,
1373,SCENE 1856 S KA,1,,,,,,,,,,
1374,SCENE 1856 W.69,1,,,,,,,,,,
1375,SCENE 1857 S LO,1,,,,,,,,,,
1376,SCENE 1858 W. 8,1,,,,,,,,,,
1377,SCENE 1859 S. L,1,,,,,,,,,,
1378,SCENE 1859 W 21,1,,,,,,,,,,
1379,SCENE 1864 S KI,1,,,,,,,,,,
1380,SCENE 1895 HOWA,1,,,,,,,,,,
1381,SCENE 18TH & HO,1,,,,,,,,,,
1382,SCENE 1900 BLOC,1,,,,,,,,,,
1383,SCENE 1900 N AU,1,,,,,,,,,,
1384,SCENE 1900 S AL,1,,,,,,,,,,
1385,SCENE 1900 SOUT,1,,,,,,,,,,
1386,SCENE 1901 CHUR,1,,,,,,,,,,
1387,SCENE 1904 NORT,1,,,,,,,,,,
1388,SCENE 1909 S LO,1,,,,,,,,,,
1389,SCENE 1911 LECL,1,,,,,,,,,,
1390,SCENE 1913 W 18,1,,,,,,,,,,
1391,SCENE 1916 S TR,1,,,,,,,,,,
1392,SCENE 1917 W GA,1,,,,,,,,,,
1393,SCENE 1920 W 56,1,,,,,,,,,,
1394,SCENE 1920 W OA,1,,,,,,,,,,
1395,SCENE 1923 S AL,1,,,,,,,,,,
1396,SCENE 1925 N DR,1,,,,,,,,,,
1397,SCENE 1926 PRAI,1,,,,,,,,,,
1398,SCENE 1928 S.,1,,,,,,,,,,
1399,SCENE 1930 W NO,1,,,,,,,,,,
1400,SCENE 1931 N. H,1,,,,,,,,,,
1401,SCENE 1931 SOUT,1,,,,,,,,,,
1402,SCENE 1931 W BE,1,,,,,,,,,,
1403,SCENE 1932 E 75,1,,,,,,,,,,
1404,SCENE 1934 SOUT,1,,,,,,,,,,
1405,SCENE 1935 S DR,1,,,,,,,,,,
1406,SCENE 1935 WEST,1,,,,,,,,,,
1407,SCENE 1936 N. T,1,,,,,,,,,,
1408,SCENE 1937 N. L,1,,,,,,,,,,
1409,SCENE 1938 S 51,1,,,,,,,,,,
1410,SCENE 1940 S. K,1,,,,,,,,,,
1411,SCENE 1941 CAMB,1,,,,,,,,,,
1412,SCENE 1945 W. 6,1,,,,,,,,,,
1413,SCENE 1946 BEAC,1,,,,,,,,,,
1414,SCENE 1950 N HA,1,,,,,,,,,,
1415,SCENE 1950 W 14,1,,,,,,,,,,
1416,SCENE 1951 E 95,1,,,,,,,,,,
1417,SCENE 1976 W LA,1,,,,,,,,,,
1418,SCENE 19769 S T,1,,,,,,,,,,
1419,SCENE 198 E. DE,1,,,,,,,,,,
1420,SCENE 19825 ORC,1,,,,,,,,,,
1421,SCENE 19TH ST &,1,,,,,,,,,,
1422,SCENE 20 N.CAMP,1,,,,,,,,,,
1423,SCENE 20 WEST 1,1,,,,,,,,,,
1424,SCENE 200 N LEC,1,,,,,,,,,,
1425,SCENE 2000 S 1S,1,,,,,,,,,,
1426,SCENE 2000 S. 2,1,,,,,,,,,,
1427,SCENE 2004 S KO,1,,,,,,,,,,
1428,SCENE 2006 S 10,1,,,,,,,,,,
1429,SCENE 2007 W. A,1,,,,,,,,,,
1430,SCENE 201 E. 90,1,,,,,,,,,,
1431,SCENE 201 N. PU,1,,,,,,,,,,
1432,SCENE 2013 N. L,1,,,,,,,,,,
1433,SCENE 2015 W MA,1,,,,,,,,,,
1434,SCENE 2016 W 65,1,,,,,,,,,,
1435,SCENE 2020 E 71,1,,,,,,,,,,
1436,SCENE 2022 W 66,1,,,,,,,,,,
1437,SCENE 2024 W 86,1,,,,,,,,,,
1438,SCENE 2025 N.SA,1,,,,,,,,,,
1439,SCENE 203 N LEA,1,,,,,,,,,,
1440,SCENE 2031 EAST,1,,,,,,,,,,
1441,SCENE 2032  W A,1,,,,,,,,,,
1442,SCENE 2032 W DI,1,,,,,,,,,,
1443,SCENE 2034 W 13,1,,,,,,,,,,
1444,SCENE 2036 EAST,1,,,,,,,,,,
1445,SCENE 2039 N. W,1,,,,,,,,,,
1446,SCENE 2039 W 53,1,,,,,,,,,,
1447,SCENE 204 N. DA,1,,,,,,,,,,
1448,SCENE 204 S SAC,1,,,,,,,,,,
1449,SCENE 2040 W 68,1,,,,,,,,,,
1450,SCENE 2041 W BE,1,,,,,,,,,,
1451,SCENE 2041 W. 2,1,,,,,,,,,,
1452,SCENE 2043 W 21,1,,,,,,,,,,
1453,SCENE 2047 N MI,1,,,,,,,,,,
1454,SCENE 205 N. HA,1,,,,,,,,,,
1455,SCENE 2054 E 70,1,,,,,,,,,,
1456,SCENE 2058 SOUT,1,,,,,,,,,,
1457,SCENE 2058 W 69,1,,,,,,,,,,
1458,SCENE 206 N PIN,1,,,,,,,,,,
1459,SCENE 207 W CER,1,,,,,,,,,,
1460,SCENE 208 W 138,1,,,,,,,,,,
1461,SCENE 208 W. 15,1,,,,,,,,,,
1462,SCENE 209 E 55T,1,,,,,,,,,,
1463,SCENE 209 S HAR,1,,,,,,,,,,
1464,SCENE 2090 S CA,1,,,,,,,,,,
1465,SCENE 2099 MANH,1,,,,,,,,,,
1466,SCENE 21 W.151,1,,,,,,,,,,
1467,SCENE 21 W.151S,1,,,,,,,,,,
1468,SCENE 210 S.CAN,1,,,,,,,,,,
1469,SCENE 210 W 105,1,,,,,,,,,,
1470,SCENE 2100 S CA,1,,,,,,,,,,
1471,SCENE 2100 W GL,1,,,,,,,,,,
1472,SCENE 2101 S CA,1,,,,,,,,,,
1473,SCENE 2101 W MA,1,,,,,,,,,,
1474,SCENE 2103 W HO,1,,,,,,,,,,
1475,SCENE 2104 N HA,1,,,,,,,,,,
1476,SCENE 2105 E 71,1,,,,,,,,,,
1477,SCENE 2106 S CH,1,,,,,,,,,,
1478,SCENE 2108 W. L,1,,,,,,,,,,
1479,SCENE 2109 SOUT,1,,,,,,,,,,
1480,SCENE 211 NORTH,1,,,,,,,,,,
1481,SCENE 211 W 93R,1,,,,,,,,,,
1482,SCENE 2111 W. 1,1,,,,,,,,,,
1483,SCENE 2113 W BA,1,,,,,,,,,,
1484,SCENE 2115 S HA,1,,,,,,,,,,
1485,SCENE 2115 W BI,1,,,,,,,,,,
1486,SCENE 2116 N. L,1,,,,,,,,,,
1487,SCENE 2117 EAT,1,,,,,,,,,,
1488,SCENE 2118 W WA,1,,,,,,,,,,
1489,SCENE 2118 W. V,1,,,,,,,,,,
1490,SCENE 2119 S. A,1,,,,,,,,,,
1491,SCENE 2120 N KI,1,,,,,,,,,,
1492,SCENE 2122 W. 1,1,,,,,,,,,,
1493,SCENE 2123 S TR,1,,,,,,,,,,
1494,SCENE 21252 SOU,1,,,,,,,,,,
1495,SCENE 2129 S. W,1,,,,,,,,,,
1496,SCENE 2131 S FA,1,,,,,,,,,,
1497,SCENE 2132 S FA,1,,,,,,,,,,
1498,SCENE 2132 W 45,1,,,,,,,,,,
1499,SCENE 2135 W CH,1,,,,,,,,,,
1500,SCENE 2136 N DO,1,,,,,,,,,,
1501,SCENE 2137 N NA,1,,,,,,,,,,
1502,SCENE 2137 N. L,1,,,,,,,,,,
1503,SCENE 2139 W 53,1,,,,,,,,,,
1504,SCENE 214  22ND,1,,,,,,,,,,
1505,SCENE 214 WEST,1,,,,,,,,,,
1506,SCENE 2140 EAST,1,,,,,,,,,,
1507,SCENE 2144 N. S,1,,,,,,,,,,
1508,SCENE 2144 S DA,1,,,,,,,,,,
1509,SCENE 2145 N PU,1,,,,,,,,,,
1510,SCENE 2148 S IN,1,,,,,,,,,,
1511,SCENE 2148 WEST,1,,,,,,,,,,
1512,SCENE 2149 EAST,1,,,,,,,,,,
1513,SCENE 215 E GAR,1,,,,,,,,,,
1514,SCENE 2150 N CA,1,,,,,,,,,,
1515,SCENE 2150 W 73,1,,,,,,,,,,
1516,SCENE 2151 WEST,1,,,,,,,,,,
1517,SCENE 2155 N. N,1,,,,,,,,,,
1518,SCENE 2163 NORT,1,,,,,,,,,,
1519,SCENE 21641 PET,1,,,,,,,,,,
1520,SCENE 217 W 105,1,,,,,,,,,,
1521,SCENE 2170  N M,1,,,,,,,,,,
1522,SCENE 2170 N MC,1,,,,,,,,,,
1523,SCENE 2171 E 76,1,,,,,,,,,,
1524,SCENE 2171 E 97,1,,,,,,,,,,
1525,SCENE 2174 N. A,1,,,,,,,,,,
1526,SCENE 2179 N. A,1,,,,,,,,,,
1527,SCENE 218 23RD,1,,,,,,,,,,
1528,SCENE 218 E. 70,1,,,,,,,,,,
1529,SCENE 219 N WAL,1,,,,,,,,,,
1530,SCENE 21ST ST A,1,,,,,,,,,,
1531,SCENE 220 LATRO,1,,,,,,,,,,
1532,SCENE 2200 W 68,1,,,,,,,,,,
1533,SCENE 2200 W. M,1,,,,,,,,,,
1534,SCENE 2201 N MO,1,,,,,,,,,,
1535,SCENE 2201 W HU,1,,,,,,,,,,
1536,SCENE 2202 S. S,1,,,,,,,,,,
1537,SCENE 2203 S KO,1,,,,,,,,,,
1538,SCENE 2203 W.21,1,,,,,,,,,,
1539,SCENE 2205 SOUT,1,,,,,,,,,,
1540,SCENE 2205 W 13,1,,,,,,,,,,
1541,SCENE 2209 E67T,1,,,,,,,,,,
1542,SCENE 2209 W. 2,1,,,,,,,,,,
1543,SCENE 2212 N. N,1,,,,,,,,,,
1544,SCENE 2213 W  8,1,,,,,,,,,,
1545,SCENE 2216 E. 7,1,,,,,,,,,,
1546,SCENE 2216 N KE,1,,,,,,,,,,
1547,SCENE 2217 WEST,1,,,,,,,,,,
1548,SCENE 2218 S. L,1,,,,,,,,,,
1549,SCENE 2219 S. M,1,,,,,,,,,,
1550,SCENE 222 W 110,1,,,,,,,,,,
1551,SCENE 2220 WWAR,1,,,,,,,,,,
1552,SCENE 2223 N ME,1,,,,,,,,,,
1553,SCENE 2223 NORT,1,,,,,,,,,,
1554,SCENE 2223 S. M,1,,,,,,,,,,
1555,SCENE 2225 W CH,1,,,,,,,,,,
1556,SCENE 2226 W CE,1,,,,,,,,,,
1557,SCENE 223 E. 14,1,,,,,,,,,,
1558,SCENE 2230 S SP,1,,,,,,,,,,
1559,SCENE 2230 S. S,1,,,,,,,,,,
1560,SCENE 2233 S. S,1,,,,,,,,,,
1561,SCENE 2235 N SA,1,,,,,,,,,,
1562,SCENE 2235 N ST,1,,,,,,,,,,
1563,SCENE 2237 N. L,1,,,,,,,,,,
1564,SCENE 223E 121S,1,,,,,,,,,,
1565,SCENE 2240 S ST,1,,,,,,,,,,
1566,SCENE 2241 E 78,1,,,,,,,,,,
1567,SCENE 2241 S. P,1,,,,,,,,,,
1568,SCENE 2242 W  1,1,,,,,,,,,,
1569,SCENE 2244 N. T,1,,,,,,,,,,
1570,SCENE 2245 S. O,1,,,,,,,,,,
1571,SCENE 2247 N WE,1,,,,,,,,,,
1572,SCENE 2247 RIDG,1,,,,,,,,,,
1573,SCENE 2248 W. C,1,,,,,,,,,,
1574,SCENE 225 EAST,1,,,,,,,,,,
1575,SCENE 2250 N MA,1,,,,,,,,,,
1576,SCENE 2250 S  2,1,,,,,,,,,,
1577,SCENE 2252 W 54,1,,,,,,,,,,
1578,SCENE 226 E 144,1,,,,,,,,,,
1579,SCENE 2260 S BL,1,,,,,,,,,,
1580,SCENE 22660 CIC,1,,,,,,,,,,
1581,SCENE 22660 S C,1,,,,,,,,,,
1582,SCENE 228 N. LA,1,,,,,,,,,,
1583,SCENE 228 W 37T,1,,,,,,,,,,
1584,SCENE 229 E. 68,1,,,,,,,,,,
1585,SCENE 23 S MAYF,1,,,,,,,,,,
1586,SCENE 230 E. 16,1,,,,,,,,,,
1587,SCENE 2300 W GA,1,,,,,,,,,,
1588,SCENE 2301 S HO,1,,,,,,,,,,
1589,SCENE 2301 S WH,1,,,,,,,,,,
1590,SCENE 2303 173R,1,,,,,,,,,,
1591,SCENE 2304 173R,1,,,,,,,,,,
1592,SCENE 2305 N PA,1,,,,,,,,,,
1593,SCENE 2306 S IN,1,,,,,,,,,,
1594,SCENE 2307 61ST,1,,,,,,,,,,
1595,SCENE 2307 N. A,1,,,,,,,,,,
1596,SCENE 2309 E 70,1,,,,,,,,,,
1597,SCENE 2310 W MO,1,,,,,,,,,,
1598,SCENE 2314 E 75,1,,,,,,,,,,
1599,SCENE 2315 W 69,1,,,,,,,,,,
1600,SCENE 2315 W JA,1,,,,,,,,,,
1601,SCENE 2315 W LE,1,,,,,,,,,,
1602,SCENE 2320 EAST,1,,,,,,,,,,
1603,SCENE 2320 SOUT,1,,,,,,,,,,
1604,SCENE 2322 W MO,1,,,,,,,,,,
1605,SCENE 2323 W HU,1,,,,,,,,,,
1606,SCENE 2325 S CO,1,,,,,,,,,,
1607,SCENE 2326 N SP,1,,,,,,,,,,
1608,SCENE 2326 N. T,1,,,,,,,,,,
1609,SCENE 2330 S ST,1,,,,,,,,,,
1610,SCENE 2331 S TH,1,,,,,,,,,,
1611,SCENE 2332 S. M,1,,,,,,,,,,
1612,SCENE 2332 W MO,1,,,,,,,,,,
1613,SCENE 2333 W JA,1,,,,,,,,,,
1614,SCENE 2333 W. J,1,,,,,,,,,,
1615,SCENE 2334 W. V,1,,,,,,,,,,
1616,SCENE 2338 N. L,1,,,,,,,,,,
1617,SCENE 2339 W LA,1,,,,,,,,,,
1618,SCENE 234 N MAP,1,,,,,,,,,,
1619,SCENE 234 S WAB,1,,,,,,,,,,
1620,SCENE 2340 EAST,1,,,,,,,,,,
1621,SCENE 2340 S. S,1,,,,,,,,,,
1622,SCENE 2342 S. L,1,,,,,,,,,,
1623,SCENE 235 N LAT,1,,,,,,,,,,
1624,SCENE 235 N. LO,1,,,,,,,,,,
1625,SCENE 2350 S ST,1,,,,,,,,,,
1626,SCENE 2357 E 79,1,,,,,,,,,,
1627,SCENE 2358 N LA,1,,,,,,,,,,
1628,SCENE 2358 N. L,1,,,,,,,,,,
1629,SCENE 2358 W MA,1,,,,,,,,,,
1630,SCENE 2373 E 70,1,,,,,,,,,,
1631,SCENE 238 S 15T,1,,,,,,,,,,
1632,SCENE 23RD & 19,1,,,,,,,,,,
1633,SCENE 2400 E 11,1,,,,,,,,,,
1634,SCENE 2400 N WA,1,,,,,,,,,,
1635,SCENE 2404 N MA,1,,,,,,,,,,
1636,SCENE 2405 S. D,1,,,,,,,,,,
1637,SCENE 2410 EAST,1,,,,,,,,,,
1638,SCENE 2411 N. M,1,,,,,,,,,,
1639,SCENE 2412 E 75,1,,,,,,,,,,
1640,SCENE 2413 E 79,1,,,,,,,,,,
1641,SCENE 2413 S. H,1,,,,,,,,,,
1642,SCENE 2413 S. R,1,,,,,,,,,,
1643,SCENE 2414 W 35,1,,,,,,,,,,
1644,SCENE 2414 W 70,1,,,,,,,,,,
1645,SCENE 242 WET 1,1,,,,,,,,,,
1646,SCENE 2422 S PU,1,,,,,,,,,,
1647,SCENE 2424 E. 7,1,,,,,,,,,,
1648,SCENE 2425 W RO,1,,,,,,,,,,
1649,SCENE 2427 N KE,1,,,,,,,,,,
1650,SCENE 243 N. AU,1,,,,,,,,,,
1651,SCENE 2431 S. T,1,,,,,,,,,,
1652,SCENE 2434 N LU,1,,,,,,,,,,
1653,SCENE 2439 W71S,1,,,,,,,,,,
1654,SCENE 244 W 106,1,,,,,,,,,,
1655,SCENE 2440 KEDZ,1,,,,,,,,,,
1656,SCENE 2441 S PU,1,,,,,,,,,,
1657,SCENE 2441 W AR,1,,,,,,,,,,
1658,SCENE 2442 N RU,1,,,,,,,,,,
1659,SCENE 2442 W FI,1,,,,,,,,,,
1660,SCENE 2444 W. A,1,,,,,,,,,,
1661,SCENE 2445 E 74,1,,,,,,,,,,
1662,SCENE 2445 W LE,1,,,,,,,,,,
1663,SCENE 2449 E. 8,1,,,,,,,,,,
1664,SCENE 2450 S ST,1,,,,,,,,,,
1665,SCENE 2450 S TR,1,,,,,,,,,,
1666,SCENE 2456 S HA,1,,,,,,,,,,
1667,SCENE 2456 WEST,1,,,,,,,,,,
1668,SCENE 2468 STAT,1,,,,,,,,,,
1669,SCENE 250 W. 37,1,,,,,,,,,,
1670,SCENE 2501 E 97,1,,,,,,,,,,
1671,SCENE 2501 N. D,1,,,,,,,,,,
1672,SCENE 2501 W RO,1,,,,,,,,,,
1673,SCENE 2501 W. R,1,,,,,,,,,,
1674,SCENE 2503 EAST,1,,,,,,,,,,
1675,SCENE 2504 E.,1,,,,,,,,,,
1676,SCENE 2504 E. 7,1,,,,,,,,,,
1677,SCENE 2506 W 70,1,,,,,,,,,,
1678,SCENE 2509 S TR,1,,,,,,,,,,
1679,SCENE 251 W 48T,1,,,,,,,,,,
1680,SCENE 251 W 63R,1,,,,,,,,,,
1681,SCENE 2510 W GL,1,,,,,,,,,,
1682,SCENE 2511 S SP,1,,,,,,,,,,
1683,SCENE 2511 W PO,1,,,,,,,,,,
1684,SCENE 2513 W. L,1,,,,,,,,,,
1685,SCENE 2515   S.,1,,,,,,,,,,
1686,SCENE 2516 BLUE,1,,,,,,,,,,
1687,SCENE 2517 S HA,1,,,,,,,,,,
1688,SCENE 2517 W GE,1,,,,,,,,,,
1689,SCENE 2519 EAST,1,,,,,,,,,,
1690,SCENE 252 W 99T,1,,,,,,,,,,
1691,SCENE 252 W. 99,1,,,,,,,,,,
1692,SCENE 2520 S. W,1,,,,,,,,,,
1693,SCENE 2522 E 10,1,,,,,,,,,,
1694,SCENE 2528 S TR,1,,,,,,,,,,
1695,SCENE 2528 WEST,1,,,,,,,,,,
1696,SCENE 2529 W 79,1,,,,,,,,,,
1697,SCENE 253 W 115,1,,,,,,,,,,
1698,SCENE 2530 W LU,1,,,,,,,,,,
1699,SCENE 2530 W VA,1,,,,,,,,,,
1700,SCENE 2531 S AR,1,,,,,,,,,,
1701,SCENE 2531 S. K,1,,,,,,,,,,
1702,SCENE 2532 N AS,1,,,,,,,,,,
1703,SCENE 2533 S. S,1,,,,,,,,,,
1704,SCENE 2535 W AD,1,,,,,,,,,,
1705,SCENE 2539 S RI,1,,,,,,,,,,
1706,SCENE 2540 N TA,1,,,,,,,,,,
1707,SCENE 2540 N WI,1,,,,,,,,,,
1708,SCENE 2543 S. K,1,,,,,,,,,,
1709,SCENE 2545 S. C,1,,,,,,,,,,
1710,SCENE 2549 PRAI,1,,,,,,,,,,
1711,SCENE 2549 S PR,1,,,,,,,,,,
1712,SCENE 2551 N. B,1,,,,,,,,,,
1713,SCENE 2551 W 63,1,,,,,,,,,,
1714,SCENE 2556 E 79,1,,,,,,,,,,
1715,SCENE 2558 N PU,1,,,,,,,,,,
1716,SCENE 2572 E 71,1,,,,,,,,,,
1717,SCENE 2577 W.,1,,,,,,,,,,
1718,SCENE 258 E.107,1,,,,,,,,,,
1719,SCENE 259 S KIL,1,,,,,,,,,,
1720,SCENE 259 S. WE,1,,,,,,,,,,
1721,SCENE 260 N PUL,1,,,,,,,,,,
1722,SCENE 2600 S. S,1,,,,,,,,,,
1723,SCENE 2600 W 53,1,,,,,,,,,,
1724,SCENE 2600 W. G,1,,,,,,,,,,
1725,SCENE 2600 W. V,1,,,,,,,,,,
1726,SCENE 2601 E 83,1,,,,,,,,,,
1727,SCENE 2601 W. M,1,,,,,,,,,,
1728,SCENE 2602 E 74,1,,,,,,,,,,
1729,SCENE 2605 W LU,1,,,,,,,,,,
1730,SCENE 2606 N SP,1,,,,,,,,,,
1731,SCENE 2608 W 15,1,,,,,,,,,,
1732,SCENE 2611 EAST,1,,,,,,,,,,
1733,SCENE 2618 S HO,1,,,,,,,,,,
1734,SCENE 2619 W. W,1,,,,,,,,,,
1735,SCENE 2620 WEST,1,,,,,,,,,,
1736,SCENE 2621 E 13,1,,,,,,,,,,
1737,SCENE 2622 W LI,1,,,,,,,,,,
1738,SCENE 2622 W MO,1,,,,,,,,,,
1739,SCENE 2623 S KI,1,,,,,,,,,,
1740,SCENE 2624 W 59,1,,,,,,,,,,
1741,SCENE 2625 W GL,1,,,,,,,,,,
1742,SCENE 2627 S TR,1,,,,,,,,,,
1743,SCENE 2627 W PO,1,,,,,,,,,,
1744,SCENE 2628 NORT,1,,,,,,,,,,
1745,SCENE 2628 W SH,1,,,,,,,,,,
1746,SCENE 2630 S. R,1,,,,,,,,,,
1747,SCENE 2634 S ST,1,,,,,,,,,,
1748,SCENE 2637 S. K,1,,,,,,,,,,
1749,SCENE 2637 W HI,1,,,,,,,,,,
1750,SCENE 2638 WEST,1,,,,,,,,,,
1751,SCENE 2639  W 2,1,,,,,,,,,,
1752,SCENE 2641 W. 7,1,,,,,,,,,,
1753,SCENE 2647 S KE,1,,,,,,,,,,
1754,SCENE 2650 W BE,1,,,,,,,,,,
1755,SCENE 2651 N. S,1,,,,,,,,,,
1756,SCENE 2653 S CA,1,,,,,,,,,,
1757,SCENE 2654 SOUT,1,,,,,,,,,,
1758,SCENE 2657 WEST,1,,,,,,,,,,
1759,SCENE 2658 E. 7,1,,,,,,,,,,
1760,SCENE 2660 E 79,1,,,,,,,,,,
1761,SCENE 2700 GLEN,1,,,,,,,,,,
1762,SCENE 2700 W. L,1,,,,,,,,,,
1763,SCENE 2702 E 80,1,,,,,,,,,,
1764,SCENE 2703 W 23,1,,,,,,,,,,
1765,SCENE 2704 W 26,1,,,,,,,,,,
1766,SCENE 2706 W. T,1,,,,,,,,,,
1767,SCENE 2711 W LA,1,,,,,,,,,,
1768,SCENE 2712 W JA,1,,,,,,,,,,
1769,SCENE 2714 N. M,1,,,,,,,,,,
1770,SCENE 2715 E. 8,1,,,,,,,,,,
1771,SCENE 2716 W. C,1,,,,,,,,,,
1772,SCENE 2717 N LE,1,,,,,,,,,,
1773,SCENE 2717 N MA,1,,,,,,,,,,
1774,SCENE 2717 W 51,1,,,,,,,,,,
1775,SCENE 2719 NORT,1,,,,,,,,,,
1776,SCENE 2721 W. F,1,,,,,,,,,,
1777,SCENE 2723 W 61,1,,,,,,,,,,
1778,SCENE 2725 W. D,1,,,,,,,,,,
1779,SCENE 2728 E 76,1,,,,,,,,,,
1780,SCENE 2729 JACK,1,,,,,,,,,,
1781,SCENE 2729 NORT,1,,,,,,,,,,
1782,SCENE 2730 S. S,1,,,,,,,,,,
1783,SCENE 2732 N FA,1,,,,,,,,,,
1784,SCENE 2732 W FU,1,,,,,,,,,,
1785,SCENE 2736 W WI,1,,,,,,,,,,
1786,SCENE 274 E. 14,1,,,,,,,,,,
1787,SCENE 2741 S HO,1,,,,,,,,,,
1788,SCENE 2741 W AU,1,,,,,,,,,,
1789,SCENE 2741 W IR,1,,,,,,,,,,
1790,SCENE 2742 N MO,1,,,,,,,,,,
1791,SCENE 2743 OXFO,1,,,,,,,,,,
1792,SCENE 2743 W PO,1,,,,,,,,,,
1793,SCENE 2745 W AR,1,,,,,,,,,,
1794,SCENE 2748 W BE,1,,,,,,,,,,
1795,SCENE 2749 S. S,1,,,,,,,,,,
1796,SCENE 2750 W FR,1,,,,,,,,,,
1797,SCENE 2758 SOUT,1,,,,,,,,,,
1798,SCENE 2758 W PE,1,,,,,,,,,,
1799,SCENE 28 E. 119,1,,,,,,,,,,
1800,SCENE 28 EAST 1,1,,,,,,,,,,
1801,SCENE 2800 N CI,1,,,,,,,,,,
1802,SCENE 2800 N. -,1,,,,,,,,,,
1803,SCENE 2801 S AV,1,,,,,,,,,,
1804,SCENE 2801 S KI,1,,,,,,,,,,
1805,SCENE 2801 S. H,1,,,,,,,,,,
1806,SCENE 2801 W. C,1,,,,,,,,,,
1807,SCENE 2803 N HA,1,,,,,,,,,,
1808,SCENE 2805 W DI,1,,,,,,,,,,
1809,SCENE 2805 W. 2,1,,,,,,,,,,
1810,SCENE 2805 WEST,1,,,,,,,,,,
1811,SCENE 2807 W 71,1,,,,,,,,,,
1812,SCENE 2809 W 63,1,,,,,,,,,,
1813,SCENE 2809 W. H,1,,,,,,,,,,
1814,SCENE 2810 CHIC,1,,,,,,,,,,
1815,SCENE 2813 N AL,1,,,,,,,,,,
1816,SCENE 2813 S HO,1,,,,,,,,,,
1817,SCENE 2819 W. 6,1,,,,,,,,,,
1818,SCENE 282 W 95T,1,,,,,,,,,,
1819,SCENE 2820 W HA,1,,,,,,,,,,
1820,SCENE 2824 EAST,1,,,,,,,,,,
1821,SCENE 2825 W CO,1,,,,,,,,,,
1822,SCENE 2825 W MO,1,,,,,,,,,,
1823,SCENE 2826 N CL,1,,,,,,,,,,
1824,SCENE 2828 W 49,1,,,,,,,,,,
1825,SCENE 2830 W FU,1,,,,,,,,,,
1826,SCENE 2832 W 63,1,,,,,,,,,,
1827,SCENE 2832 W MA,1,,,,,,,,,,
1828,SCENE 2833 E 79,1,,,,,,,,,,
1829,SCENE 2833 N AL,1,,,,,,,,,,
1830,SCENE 2836 W PO,1,,,,,,,,,,
1831,SCENE 2837 S. T,1,,,,,,,,,,
1832,SCENE 2840 S ST,1,,,,,,,,,,
1833,SCENE 2841 W WA,1,,,,,,,,,,
1834,SCENE 2847 N RO,1,,,,,,,,,,
1835,SCENE 2851 E. 7,1,,,,,,,,,,
1836,SCENE 2855 N AV,1,,,,,,,,,,
1837,SCENE 2856 W FL,1,,,,,,,,,,
1838,SCENE 2856 W. J,1,,,,,,,,,,
1839,SCENE 2859 W 21,1,,,,,,,,,,
1840,SCENE 2859 W 25,1,,,,,,,,,,
1841,SCENE 2859 W AR,1,,,,,,,,,,
1842,SCENE 2861 SOUT,1,,,,,,,,,,
1843,SCENE 2861 W. 7,1,,,,,,,,,,
1844,SCENE 2869 W 14,1,,,,,,,,,,
1845,SCENE 28TH AVE,1,,,,,,,,,,
1846,SCENE 2900 LINC,1,,,,,,,,,,
1847,SCENE 2900 S 48,1,,,,,,,,,,
1848,SCENE 2900 S AU,1,,,,,,,,,,
1849,SCENE 2900 S DA,1,,,,,,,,,,
1850,SCENE 2900 S. S,1,,,,,,,,,,
1851,SCENE 2903 W 59,1,,,,,,,,,,
1852,SCENE 2905 NORT,1,,,,,,,,,,
1853,SCENE 2905 W FL,1,,,,,,,,,,
1854,SCENE 2905 W RO,1,,,,,,,,,,
1855,SCENE 2906 N. N,1,,,,,,,,,,
1856,SCENE 2907 W SU,1,,,,,,,,,,
1857,SCENE 2908 W. W,1,,,,,,,,,,
1858,SCENE 2911 W W,1,,,,,,,,,,
1859,SCENE 2916 W. L,1,,,,,,,,,,
1860,SCENE 2916 W. W,1,,,,,,,,,,
1861,SCENE 2920 W. 2,1,,,,,,,,,,
1862,SCENE 2923 N MI,1,,,,,,,,,,
1863,SCENE 2924 EAST,1,,,,,,,,,,
1864,SCENE 2924 N CL,1,,,,,,,,,,
1865,SCENE 2924 W LO,1,,,,,,,,,,
1866,SCENE 2930 N PI,1,,,,,,,,,,
1867,SCENE 2931 N MI,1,,,,,,,,,,
1868,SCENE 2938 W 63,1,,,,,,,,,,
1869,SCENE 2939 N EL,1,,,,,,,,,,
1870,SCENE 2940 S ST,1,,,,,,,,,,
1871,SCENE 2940 W HA,1,,,,,,,,,,
1872,SCENE 2940 W LA,1,,,,,,,,,,
1873,SCENE 2941 W 66,1,,,,,,,,,,
1874,SCENE 2941 W JA,1,,,,,,,,,,
1875,SCENE 2942 W BE,1,,,,,,,,,,
1876,SCENE 2943 N. A,1,,,,,,,,,,
1877,SCENE 2944 N RO,1,,,,,,,,,,
1878,SCENE 2952 W. S,1,,,,,,,,,,
1879,SCENE 2953 W SH,1,,,,,,,,,,
1880,SCENE 2957 N KE,1,,,,,,,,,,
1881,SCENE 2965 N. L,1,,,,,,,,,,
1882,SCENE 2968 S AR,1,,,,,,,,,,
1883,SCENE 2969 E. 7,1,,,,,,,,,,
1884,SCENE 30 W CERM,1,,,,,,,,,,
1885,SCENE 300 E 131,1,,,,,,,,,,
1886,SCENE 300 E. 68,1,,,,,,,,,,
1887,SCENE 3000 S TR,1,,,,,,,,,,
1888,SCENE 3000 S WA,1,,,,,,,,,,
1889,SCENE 3000 SOUT,1,,,,,,,,,,
1890,SCENE 3001 WEST,1,,,,,,,,,,
1891,SCENE 3002 W IR,1,,,,,,,,,,
1892,SCENE 3002 W. 6,1,,,,,,,,,,
1893,SCENE 3007 S KO,1,,,,,,,,,,
1894,SCENE 301 E.51S,1,,,,,,,,,,
1895,SCENE 301 EAST,1,,,,,,,,,,
1896,SCENE 3010 W 63,1,,,,,,,,,,
1897,SCENE 3010 W RO,1,,,,,,,,,,
1898,SCENE 3015 W CU,1,,,,,,,,,,
1899,SCENE 3017 N. K,1,,,,,,,,,,
1900,SCENE 3017 W LE,1,,,,,,,,,,
1901,SCENE 3019 N GR,1,,,,,,,,,,
1902,SCENE 302 E 134,1,,,,,,,,,,
1903,SCENE 302 HERND,1,,,,,,,,,,
1904,SCENE 3022 EAST,1,,,,,,,,,,
1905,SCENE 303 W. 62,1,,,,,,,,,,
1906,SCENE 3032 S KO,1,,,,,,,,,,
1907,SCENE 3034 E. 7,1,,,,,,,,,,
1908,SCENE 3035 N. F,1,,,,,,,,,,
1909,SCENE 3035 W GE,1,,,,,,,,,,
1910,SCENE 3037 E 79,1,,,,,,,,,,
1911,SCENE 3041 S. I,1,,,,,,,,,,
1912,SCENE 3042 W. M,1,,,,,,,,,,
1913,SCENE 3043 ELM,1,,,,,,,,,,
1914,SCENE 3043 W LE,1,,,,,,,,,,
1915,SCENE 3043 W. 5,1,,,,,,,,,,
1916,SCENE 3044 BUTL,1,,,,,,,,,,
1917,SCENE 3044 W. F,1,,,,,,,,,,
1918,SCENE 305 W. 15,1,,,,,,,,,,
1919,SCENE 3050 W.23,1,,,,,,,,,,
1920,SCENE 3052 W SU,1,,,,,,,,,,
1921,SCENE 3053 W 5T,1,,,,,,,,,,
1922,SCENE 3053 W AU,1,,,,,,,,,,
1923,SCENE 3055 N SA,1,,,,,,,,,,
1924,SCENE 3058 S KO,1,,,,,,,,,,
1925,SCENE 308 E 68T,1,,,,,,,,,,
1926,SCENE 308 N. WA,1,,,,,,,,,,
1927,SCENE 309 S 11T,1,,,,,,,,,,
1928,SCENE 309 S LAV,1,,,,,,,,,,
1929,SCENE 31 E. 120,1,,,,,,,,,,
1930,SCENE 310 EAST,1,,,,,,,,,,
1931,SCENE 310 N HAM,1,,,,,,,,,,
1932,SCENE 3100 S WA,1,,,,,,,,,,
1933,SCENE 3101 W OG,1,,,,,,,,,,
1934,SCENE 3104 WEST,1,,,,,,,,,,
1935,SCENE 3107 W IR,1,,,,,,,,,,
1936,SCENE 3109 W LE,1,,,,,,,,,,
1937,SCENE 311 N KOT,1,,,,,,,,,,
1938,SCENE 311 W. 15,1,,,,,,,,,,
1939,SCENE 3110 W MA,1,,,,,,,,,,
1940,SCENE 3114 W CA,1,,,,,,,,,,
1941,SCENE 3121  CHI,1,,,,,,,,,,
1942,SCENE 3121 VAN,1,,,,,,,,,,
1943,SCENE 3124 S GR,1,,,,,,,,,,
1944,SCENE 3127 W 15,1,,,,,,,,,,
1945,SCENE 3127 W. T,1,,,,,,,,,,
1946,SCENE 313 N AUS,1,,,,,,,,,,
1947,SCENE 3130 W. O,1,,,,,,,,,,
1948,SCENE 3138 W 41,1,,,,,,,,,,
1949,SCENE 314 25TH,1,,,,,,,,,,
1950,SCENE 3140 N SA,1,,,,,,,,,,
1951,SCENE 3142 S RA,1,,,,,,,,,,
1952,SCENE 3143 W AR,1,,,,,,,,,,
1953,SCENE 3144 N. N,1,,,,,,,,,,
1954,SCENE 3145 W. 4,1,,,,,,,,,,
1955,SCENE 3147 S 53,1,,,,,,,,,,
1956,SCENE 3148 W WA,1,,,,,,,,,,
1957,SCENE 315 W. CH,1,,,,,,,,,,
1958,SCENE 3150 W. 5,1,,,,,,,,,,
1959,SCENE 3151 W GE,1,,,,,,,,,,
1960,SCENE 3151 W. S,1,,,,,,,,,,
1961,SCENE 3154 S KE,1,,,,,,,,,,
1962,SCENE 3155 WEST,1,,,,,,,,,,
1963,SCENE 3158 W 65,1,,,,,,,,,,
1964,SCENE 3158 W MA,1,,,,,,,,,,
1965,SCENE 3159 MONT,1,,,,,,,,,,
1966,SCENE 316 VICTO,1,,,,,,,,,,
1967,SCENE 3160 W OG,1,,,,,,,,,,
1968,SCENE 3166 S AS,1,,,,,,,,,,
1969,SCENE 317 N PAR,1,,,,,,,,,,
1970,SCENE 317 W GAR,1,,,,,,,,,,
1971,SCENE 318 157TH,1,,,,,,,,,,
1972,SCENE 318 SOUTH,1,,,,,,,,,,
1973,SCENE 3188 N. E,1,,,,,,,,,,
1974,SCENE 319 TODD,1,,,,,,,,,,
1975,SCENE 319 W 109,1,,,,,,,,,,
1976,SCENE 319 W. 11,1,,,,,,,,,,
1977,SCENE 320 N PIN,1,,,,,,,,,,
1978,SCENE 3200 200T,1,,,,,,,,,,
1979,SCENE 3200 S AB,1,,,,,,,,,,
1980,SCENE 3201 W 15,1,,,,,,,,,,
1981,SCENE 3201 W 38,1,,,,,,,,,,
1982,SCENE 3204 WEST,1,,,,,,,,,,
1983,SCENE 3208 W LA,1,,,,,,,,,,
1984,SCENE 3212 S WA,1,,,,,,,,,,
1985,SCENE 3215 W 37,1,,,,,,,,,,
1986,SCENE 3215 W MA,1,,,,,,,,,,
1987,SCENE 3219 W. F,1,,,,,,,,,,
1988,SCENE 322 W. 10,1,,,,,,,,,,
1989,SCENE 3224 N CE,1,,,,,,,,,,
1990,SCENE 3233 S. K,1,,,,,,,,,,
1991,SCENE 3233 W WA,1,,,,,,,,,,
1992,SCENE 324 CORNE,1,,,,,,,,,,
1993,SCENE 324 E 91S,1,,,,,,,,,,
1994,SCENE 3240 S CI,1,,,,,,,,,,
1995,SCENE 3241 W WI,1,,,,,,,,,,
1996,SCENE 3242 W AR,1,,,,,,,,,,
1997,SCENE 3243 NORT,1,,,,,,,,,,
1998,SCENE 3245 W 63,1,,,,,,,,,,
1999,SCENE 3247 W. D,1,,,,,,,,,,
2000,SCENE 325  W 51,1,,,,,,,,,,
2001,SCENE 3251 W MA,1,,,,,,,,,,
2002,SCENE 3252 W 55,1,,,,,,,,,,
2003,SCENE 3254 W 23,1,,,,,,,,,,
2004,SCENE 3256 W CE,1,,,,,,,,,,
2005,SCENE 3260 W WA,1,,,,,,,,,,
2006,SCENE 3263 W MA,1,,,,,,,,,,
2007,SCENE 329 EAST,1,,,,,,,,,,
2008,SCENE 33 LAKEVI,1,,,,,,,,,,
2009,SCENE 33 W 122N,1,,,,,,,,,,
2010,SCENE 330 S 22N,1,,,,,,,,,,
2011,SCENE 330 W ARM,1,,,,,,,,,,
2012,SCENE 3300 S LA,1,,,,,,,,,,
2013,SCENE 3301 S. C,1,,,,,,,,,,
2014,SCENE 3301 W PE,1,,,,,,,,,,
2015,SCENE 3303 W WA,1,,,,,,,,,,
2016,SCENE 3305 W. D,1,,,,,,,,,,
2017,SCENE 3306 W EA,1,,,,,,,,,,
2018,SCENE 3306 W MA,1,,,,,,,,,,
2019,SCENE 3307 ADAM,1,,,,,,,,,,
2020,SCENE 3308 W.,1,,,,,,,,,,
2021,SCENE 3308 W. F,1,,,,,,,,,,
2022,SCENE 331 S CEN,1,,,,,,,,,,
2023,SCENE 3310 S. K,1,,,,,,,,,,
2024,SCENE 3310 W BR,1,,,,,,,,,,
2025,SCENE 3310 W. 2,1,,,,,,,,,,
2026,SCENE 3311 N DR,1,,,,,,,,,,
2027,SCENE 3314 W. M,1,,,,,,,,,,
2028,SCENE 3315 W. 1,1,,,,,,,,,,
2029,SCENE 332 EAST,1,,,,,,,,,,
2030,SCENE 332 NORTH,1,,,,,,,,,,
2031,SCENE 3320 W. G,1,,,,,,,,,,
2032,SCENE 3322 N.HO,1,,,,,,,,,,
2033,SCENE 3324 W. F,1,,,,,,,,,,
2034,SCENE 3325 135T,1,,,,,,,,,,
2035,SCENE 3326 W HI,1,,,,,,,,,,
2036,SCENE 3326 W WA,1,,,,,,,,,,
2037,SCENE 333 W 61S,1,,,,,,,,,,
2038,SCENE 3330 S WE,1,,,,,,,,,,
2039,SCENE 3330 W NO,1,,,,,,,,,,
2040,SCENE 3333 W VA,1,,,,,,,,,,
2041,SCENE 3334 W DO,1,,,,,,,,,,
2042,SCENE 3335 CARR,1,,,,,,,,,,
2043,SCENE 3339 W 54,1,,,,,,,,,,
2044,SCENE 334 S. W,1,,,,,,,,,,
2045,SCENE 3341 W GL,1,,,,,,,,,,
2046,SCENE 3343 N MO,1,,,,,,,,,,
2047,SCENE 3343 W 79,1,,,,,,,,,,
2048,SCENE 3343 W CH,1,,,,,,,,,,
2049,SCENE 3343 W FU,1,,,,,,,,,,
2050,SCENE 3346 W MO,1,,,,,,,,,,
2051,SCENE 3346 W. 6,1,,,,,,,,,,
2052,SCENE 3347 S. L,1,,,,,,,,,,
2053,SCENE 3347 W IR,1,,,,,,,,,,
2054,SCENE 3349 WEST,1,,,,,,,,,,
2055,SCENE 335 EAST,1,,,,,,,,,,
2056,SCENE 335 S KEE,1,,,,,,,,,,
2057,SCENE 335 WET 6,1,,,,,,,,,,
2058,SCENE 3351 W. I,1,,,,,,,,,,
2059,SCENE 3354 W DO,1,,,,,,,,,,
2060,SCENE 3355 W 51,1,,,,,,,,,,
2061,SCENE 3355 W HU,1,,,,,,,,,,
2062,SCENE 3355 W. 3,1,,,,,,,,,,
2063,SCENE 3356 S HA,1,,,,,,,,,,
2064,SCENE 3358 W 25,1,,,,,,,,,,
2065,SCENE 336 N AVE,1,,,,,,,,,,
2066,SCENE 3365 RIDG,1,,,,,,,,,,
2067,SCENE 338 SOUTH,1,,,,,,,,,,
2068,SCENE 339 S LEA,1,,,,,,,,,,
2069,SCENE 34 S. 18T,1,,,,,,,,,,
2070,SCENE 34 WEST M,1,,,,,,,,,,
2071,SCENE 340 W 60,1,,,,,,,,,,
2072,SCENE 3400 S CE,1,,,,,,,,,,
2073,SCENE 3400 W WA,1,,,,,,,,,,
2074,SCENE 3401 SOUT,1,,,,,,,,,,
2075,SCENE 3404 W IR,1,,,,,,,,,,
2076,SCENE 3405 N LA,1,,,,,,,,,,
2077,SCENE 3407 W BE,1,,,,,,,,,,
2078,SCENE 3410 W 31,1,,,,,,,,,,
2079,SCENE 3410 W. 2,1,,,,,,,,,,
2080,SCENE 342 BOHLA,1,,,,,,,,,,
2081,SCENE 342 W. 75,1,,,,,,,,,,
2082,SCENE 3420 W 64,1,,,,,,,,,,
2083,SCENE 3422 W 65,1,,,,,,,,,,
2084,SCENE 3422 W. 7,1,,,,,,,,,,
2085,SCENE 3425 W 51,1,,,,,,,,,,
2086,SCENE 3426 W DO,1,,,,,,,,,,
2087,SCENE 3428 W NO,1,,,,,,,,,,
2088,SCENE 3430  SAR,1,,,,,,,,,,
2089,SCENE 3434 N. B,1,,,,,,,,,,
2090,SCENE 3435 W. S,1,,,,,,,,,,
2091,SCENE 3436 W FR,1,,,,,,,,,,
2092,SCENE 3437 W. L,1,,,,,,,,,,
2093,SCENE 3439 W MA,1,,,,,,,,,,
2094,SCENE 344 W 47T,1,,,,,,,,,,
2095,SCENE 3441 S KE,1,,,,,,,,,,
2096,SCENE 3443 W MA,1,,,,,,,,,,
2097,SCENE 3443 W. 5,1,,,,,,,,,,
2098,SCENE 3444 S. L,1,,,,,,,,,,
2099,SCENE 3446 W 84,1,,,,,,,,,,
2100,SCENE 345 N KED,1,,,,,,,,,,
2101,SCENE 345 N. CA,1,,,,,,,,,,
2102,SCENE 3451 W 21,1,,,,,,,,,,
2103,SCENE 3451 W. 2,1,,,,,,,,,,
2104,SCENE 3452 N HA,1,,,,,,,,,,
2105,SCENE 3456 W 2,1,,,,,,,,,,
2106,SCENE 3459 W LA,1,,,,,,,,,,
2107,SCENE 346 N PIN,1,,,,,,,,,,
2108,SCENE 348 W 74T,1,,,,,,,,,,
2109,SCENE 349 E 75T,1,,,,,,,,,,
2110,SCENE 349 W 108,1,,,,,,,,,,
2111,SCENE 35 E. 59T,1,,,,,,,,,,
2112,SCENE 3500 S. O,1,,,,,,,,,,
2113,SCENE 3500 W OH,1,,,,,,,,,,
2114,SCENE 3502 W FR,1,,,,,,,,,,
2115,SCENE 3504 BIRC,1,,,,,,,,,,
2116,SCENE 3504 W 79,1,,,,,,,,,,
2117,SCENE 3504 W.,1,,,,,,,,,,
2118,SCENE 3511 N BE,1,,,,,,,,,,
2119,SCENE 3512 W PA,1,,,,,,,,,,
2120,SCENE 3512 W PO,1,,,,,,,,,,
2121,SCENE 3514 W 12,1,,,,,,,,,,
2122,SCENE 3515 W IO,1,,,,,,,,,,
2123,SCENE 3515 W. B,1,,,,,,,,,,
2124,SCENE 3517 SOUT,1,,,,,,,,,,
2125,SCENE 3519 W 16,1,,,,,,,,,,
2126,SCENE 3520 W AV,1,,,,,,,,,,
2127,SCENE 3521 W 16,1,,,,,,,,,,
2128,SCENE 3521 W. C,1,,,,,,,,,,
2129,SCENE 3524 WEST,1,,,,,,,,,,
2130,SCENE 3528 W BE,1,,,,,,,,,,
2131,SCENE 3530 N. L,1,,,,,,,,,,
2132,SCENE 3531 W DI,1,,,,,,,,,,
2133,SCENE 3537 W 13,1,,,,,,,,,,
2134,SCENE 354 E 117,1,,,,,,,,,,
2135,SCENE 3540 S. P,1,,,,,,,,,,
2136,SCENE 3542 PERS,1,,,,,,,,,,
2137,SCENE 3542 S ST,1,,,,,,,,,,
2138,SCENE 3544 S ST,1,,,,,,,,,,
2139,SCENE 3545 N NE,1,,,,,,,,,,
2140,SCENE 3548 W. C,1,,,,,,,,,,
2141,SCENE 355 W 99T,1,,,,,,,,,,
2142,SCENE 3551 WEST,1,,,,,,,,,,
2143,SCENE 3552 WEST,1,,,,,,,,,,
2144,SCENE 3555 COTT,1,,,,,,,,,,
2145,SCENE 359 EAST,1,,,,,,,,,,
2146,SCENE 3600 S MA,1,,,,,,,,,,
2147,SCENE 3600 W WA,1,,,,,,,,,,
2148,SCENE 3600 WOLC,1,,,,,,,,,,
2149,SCENE 3601 S HA,1,,,,,,,,,,
2150,SCENE 3604 W 64,1,,,,,,,,,,
2151,SCENE 3611 WEST,1,,,,,,,,,,
2152,SCENE 3612 S EL,1,,,,,,,,,,
2153,SCENE 3614 W. 1,1,,,,,,,,,,
2154,SCENE 3615 S. S,1,,,,,,,,,,
2155,SCENE 362 E. 89,1,,,,,,,,,,
2156,SCENE 3620 WEST,1,,,,,,,,,,
2157,SCENE 3622 W FU,1,,,,,,,,,,
2158,SCENE 3632 W NO,1,,,,,,,,,,
2159,SCENE 364 NORTH,1,,,,,,,,,,
2160,SCENE 3644 W PO,1,,,,,,,,,,
2161,SCENE 3647 S. S,1,,,,,,,,,,
2162,SCENE 3647 W LE,1,,,,,,,,,,
2163,SCENE 3648 W GR,1,,,,,,,,,,
2164,SCENE 365 E 56T,1,,,,,,,,,,
2165,SCENE 3650 W CO,1,,,,,,,,,,
2166,SCENE 3650 W RO,1,,,,,,,,,,
2167,SCENE 3654 S IN,1,,,,,,,,,,
2168,SCENE 3654 W MC,1,,,,,,,,,,
2169,SCENE 368 EAST,1,,,,,,,,,,
2170,SCENE 37 KING A,1,,,,,,,,,,
2171,SCENE 3700 174,1,,,,,,,,,,
2172,SCENE 3700 S SE,1,,,,,,,,,,
2173,SCENE 3700 W CO,1,,,,,,,,,,
2174,SCENE 3700 W. L,1,,,,,,,,,,
2175,SCENE 3701 25TH,1,,,,,,,,,,
2176,SCENE 3701 W CH,1,,,,,,,,,,
2177,SCENE 3701 W TH,1,,,,,,,,,,
2178,SCENE 3702 S IN,1,,,,,,,,,,
2179,SCENE 3703 W DI,1,,,,,,,,,,
2180,SCENE 3707 N. K,1,,,,,,,,,,
2181,SCENE 3722 S AL,1,,,,,,,,,,
2182,SCENE 3740 S PR,1,,,,,,,,,,
2183,SCENE 3750 S IN,1,,,,,,,,,,
2184,SCENE 3750 W FL,1,,,,,,,,,,
2185,SCENE 3752 N. W,1,,,,,,,,,,
2186,SCENE 3754 W GE,1,,,,,,,,,,
2187,SCENE 3759 W. C,1,,,,,,,,,,
2188,SCENE 3759 W. O,1,,,,,,,,,,
2189,SCENE 3761 W 21,1,,,,,,,,,,
2190,SCENE 3763 W WA,1,,,,,,,,,,
2191,SCENE 3784 W 79,1,,,,,,,,,,
2192,SCENE 379 E 89T,1,,,,,,,,,,
2193,SCENE 380 PAYSO,1,,,,,,,,,,
2194,SCENE 3803 WEST,1,,,,,,,,,,
2195,SCENE 3806 SACR,1,,,,,,,,,,
2196,SCENE 3806 W 47,1,,,,,,,,,,
2197,SCENE 3806 W OH,1,,,,,,,,,,
2198,SCENE 3808 S RH,1,,,,,,,,,,
2199,SCENE 3808 W P0,1,,,,,,,,,,
2200,SCENE 381 E 51S,1,,,,,,,,,,
2201,SCENE 3811 W. 1,1,,,,,,,,,,
2202,SCENE 3813 W. 5,1,,,,,,,,,,
2203,SCENE 3817 HALS,1,,,,,,,,,,
2204,SCENE 3819 DEWE,1,,,,,,,,,,
2205,SCENE 3819 W MO,1,,,,,,,,,,
2206,SCENE 3820 W 17,1,,,,,,,,,,
2207,SCENE 3821 S. F,1,,,,,,,,,,
2208,SCENE 3821 W JA,1,,,,,,,,,,
2209,SCENE 3823 W LE,1,,,,,,,,,,
2210,SCENE 3824 W 14,1,,,,,,,,,,
2211,SCENE 3824 W GL,1,,,,,,,,,,
2212,SCENE 3826 W GR,1,,,,,,,,,,
2213,SCENE 3827 W. L,1,,,,,,,,,,
2214,SCENE 3830 W AD,1,,,,,,,,,,
2215,SCENE 3833 S. L,1,,,,,,,,,,
2216,SCENE 3834 W 26,1,,,,,,,,,,
2217,SCENE 3836 W AD,1,,,,,,,,,,
2218,SCENE 3837 S KI,1,,,,,,,,,,
2219,SCENE 3838 W. C,1,,,,,,,,,,
2220,SCENE 3839 S WE,1,,,,,,,,,,
2221,SCENE 3840 N TR,1,,,,,,,,,,
2222,SCENE 3840 W MA,1,,,,,,,,,,
2223,SCENE 3840 W WI,1,,,,,,,,,,
2224,SCENE 3842 N JA,1,,,,,,,,,,
2225,SCENE 3842 S KI,1,,,,,,,,,,
2226,SCENE 3842 W 15,1,,,,,,,,,,
2227,SCENE 3848 S LA,1,,,,,,,,,,
2228,SCENE 3849 W MA,1,,,,,,,,,,
2229,SCENE 3851 S CL,1,,,,,,,,,,
2230,SCENE 3854 W LE,1,,,,,,,,,,
2231,SCENE 3857 S RH,1,,,,,,,,,,
2232,SCENE 3857 W 51,1,,,,,,,,,,
2233,SCENE 3858 W. D,1,,,,,,,,,,
2234,SCENE 3859 W 25,1,,,,,,,,,,
2235,SCENE 3860 S WA,1,,,,,,,,,,
2236,SCENE 39 N PULA,1,,,,,,,,,,
2237,SCENE 3900 W. M,1,,,,,,,,,,
2238,SCENE 3901 CONG,1,,,,,,,,,,
2239,SCENE 3906 TOWE,1,,,,,,,,,,
2240,SCENE 3907 PRAR,1,,,,,,,,,,
2241,SCENE 3908 W 47,1,,,,,,,,,,
2242,SCENE 3909 211T,1,,,,,,,,,,
2243,SCENE 3909 W. 3,1,,,,,,,,,,
2244,SCENE 3909 W. G,1,,,,,,,,,,
2245,SCENE 3913 W 14,1,,,,,,,,,,
2246,SCENE 392 PRAIR,1,,,,,,,,,,
2247,SCENE 3920 W. C,1,,,,,,,,,,
2248,SCENE 3921 S KE,1,,,,,,,,,,
2249,SCENE 3922 W AU,1,,,,,,,,,,
2250,SCENE 3923 W GL,1,,,,,,,,,,
2251,SCENE 3924 W. G,1,,,,,,,,,,
2252,SCENE 3928 BELM,1,,,,,,,,,,
2253,SCENE 3928 W. G,1,,,,,,,,,,
2254,SCENE 393 WOODV,1,,,,,,,,,,
2255,SCENE 3930 S. S,1,,,,,,,,,,
2256,SCENE 3936 S PR,1,,,,,,,,,,
2257,SCENE 3936 W. P,1,,,,,,,,,,
2258,SCENE 3938 W GR,1,,,,,,,,,,
2259,SCENE 3938 W JA,1,,,,,,,,,,
2260,SCENE 3938 W. 2,1,,,,,,,,,,
2261,SCENE 3938 W. F,1,,,,,,,,,,
2262,SCENE 3939 W MO,1,,,,,,,,,,
2263,SCENE 3940 W 30,1,,,,,,,,,,
2264,SCENE 3942 S FE,1,,,,,,,,,,
2265,SCENE 3945 N PU,1,,,,,,,,,,
2266,SCENE 3947 KEDZ,1,,,,,,,,,,
2267,SCENE 3947 S KE,1,,,,,,,,,,
2268,SCENE 3947 W GL,1,,,,,,,,,,
2269,SCENE 3947 W VA,1,,,,,,,,,,
2270,SCENE 3954 W. D,1,,,,,,,,,,
2271,SCENE 3955 W 49,1,,,,,,,,,,
2272,SCENE 3956 W CE,1,,,,,,,,,,
2273,SCENE 3957 W DI,1,,,,,,,,,,
2274,SCENE 3958 W MO,1,,,,,,,,,,
2275,SCENE 3960 W GR,1,,,,,,,,,,
2276,SCENE 3965 S. E,1,,,,,,,,,,
2277,SCENE 3965 W. G,1,,,,,,,,,,
2278,SCENE 398 N KEN,1,,,,,,,,,,
2279,SCENE 398 N KOS,1,,,,,,,,,,
2280,SCENE 399 YATES,1,,,,,,,,,,
2281,SCENE 40 E.101S,1,,,,,,,,,,
2282,SCENE 40 N. LOC,1,,,,,,,,,,
2283,SCENE 400 E. 95,1,,,,,,,,,,
2284,SCENE 400 GLADY,1,,,,,,,,,,
2285,SCENE 400 N. HE,1,,,,,,,,,,
2286,SCENE 400 SOUTH,1,,,,,,,,,,
2287,SCENE 400 W HER,1,,,,,,,,,,
2288,SCENE 4000 E 13,1,,,,,,,,,,
2289,SCENE 4000 E 34,1,,,,,,,,,,
2290,SCENE 4000 W WA,1,,,,,,,,,,
2291,SCENE 4001 W. A,1,,,,,,,,,,
2292,SCENE 4003 W WE,1,,,,,,,,,,
2293,SCENE 4005  S C,1,,,,,,,,,,
2294,SCENE 4005 N RI,1,,,,,,,,,,
2295,SCENE 4005 S. K,1,,,,,,,,,,
2296,SCENE 401 W 115,1,,,,,,,,,,
2297,SCENE 4012 W. F,1,,,,,,,,,,
2298,SCENE 4013 WEST,1,,,,,,,,,,
2299,SCENE 4016 S. P,1,,,,,,,,,,
2300,SCENE 4018 W MA,1,,,,,,,,,,
2301,SCENE 402 N AVE,1,,,,,,,,,,
2302,SCENE 4020 W PO,1,,,,,,,,,,
2303,SCENE 4020 W. W,1,,,,,,,,,,
2304,SCENE 4022 S ST,1,,,,,,,,,,
2305,SCENE 4024 N MO,1,,,,,,,,,,
2306,SCENE 4026 W CO,1,,,,,,,,,,
2307,SCENE 4026 W VA,1,,,,,,,,,,
2308,SCENE 4028 W CR,1,,,,,,,,,,
2309,SCENE 4029 W AR,1,,,,,,,,,,
2310,SCENE 4034 W. J,1,,,,,,,,,,
2311,SCENE 4036 W MO,1,,,,,,,,,,
2312,SCENE 4037 S FE,1,,,,,,,,,,
2313,SCENE 4039 W HI,1,,,,,,,,,,
2314,SCENE 404 W 79T,1,,,,,,,,,,
2315,SCENE 4042 W PO,1,,,,,,,,,,
2316,SCENE 4043 W HI,1,,,,,,,,,,
2317,SCENE 4045 W DI,1,,,,,,,,,,
2318,SCENE 4048 W. W,1,,,,,,,,,,
2319,SCENE 4049 WEST,1,,,,,,,,,,
2320,SCENE 405 W 57T,1,,,,,,,,,,
2321,SCENE 405 W 60T,1,,,,,,,,,,
2322,SCENE 4050 S PU,1,,,,,,,,,,
2323,SCENE 4051 S. R,1,,,,,,,,,,
2324,SCENE 4051 W HI,1,,,,,,,,,,
2325,SCENE 4056 W. H,1,,,,,,,,,,
2326,SCENE 4058 W. C,1,,,,,,,,,,
2327,SCENE 4058 W. N,1,,,,,,,,,,
2328,SCENE 406 YATES,1,,,,,,,,,,
2329,SCENE 4069 N. K,1,,,,,,,,,,
2330,SCENE 408 EAST,1,,,,,,,,,,
2331,SCENE 408 W 57T,1,,,,,,,,,,
2332,SCENE 409 W. 70,1,,,,,,,,,,
2333,SCENE 41 W 14TH,1,,,,,,,,,,
2334,SCENE 4100 W AD,1,,,,,,,,,,
2335,SCENE 4100 W KI,1,,,,,,,,,,
2336,SCENE 4101 SOUT,1,,,,,,,,,,
2337,SCENE 4102 W. 1,1,,,,,,,,,,
2338,SCENE 4105 W 15,1,,,,,,,,,,
2339,SCENE 4106 W JA,1,,,,,,,,,,
2340,SCENE 4109 W 16,1,,,,,,,,,,
2341,SCENE 4109 W 5T,1,,,,,,,,,,
2342,SCENE 411 W 79T,1,,,,,,,,,,
2343,SCENE 4110 W. C,1,,,,,,,,,,
2344,SCENE 4111 S KE,1,,,,,,,,,,
2345,SCENE 4112 GAGE,1,,,,,,,,,,
2346,SCENE 4115 N ST,1,,,,,,,,,,
2347,SCENE 412 S. KE,1,,,,,,,,,,
2348,SCENE 4120 S PR,1,,,,,,,,,,
2349,SCENE 4121 N CA,1,,,,,,,,,,
2350,SCENE 4121 S SA,1,,,,,,,,,,
2351,SCENE 4123 W. 6,1,,,,,,,,,,
2352,SCENE 4124 W 30,1,,,,,,,,,,
2353,SCENE 4128 N LE,1,,,,,,,,,,
2354,SCENE 4129 LAWN,1,,,,,,,,,,
2355,SCENE 4129 W VA,1,,,,,,,,,,
2356,SCENE 413 N HAR,1,,,,,,,,,,
2357,SCENE 4130 S. D,1,,,,,,,,,,
2358,SCENE 4130 W. 1,1,,,,,,,,,,
2359,SCENE 4132 W 26,1,,,,,,,,,,
2360,SCENE 4132 W. 1,1,,,,,,,,,,
2361,SCENE 4135 W 28,1,,,,,,,,,,
2362,SCENE 4137 W CE,1,,,,,,,,,,
2363,SCENE 4139 W KI,1,,,,,,,,,,
2364,SCENE 414 W. 14,1,,,,,,,,,,
2365,SCENE 4140 S. W,1,,,,,,,,,,
2366,SCENE 4141 W. N,1,,,,,,,,,,
2367,SCENE 4143 W DI,1,,,,,,,,,,
2368,SCENE 4144 W RO,1,,,,,,,,,,
2369,SCENE 4145 S. P,1,,,,,,,,,,
2370,SCENE 4147 N. W,1,,,,,,,,,,
2371,SCENE 415 S LOT,1,,,,,,,,,,
2372,SCENE 415 S. PU,1,,,,,,,,,,
2373,SCENE 4150 N MA,1,,,,,,,,,,
2374,SCENE 4153 N CE,1,,,,,,,,,,
2375,SCENE 4153 W. C,1,,,,,,,,,,
2376,SCENE 4158 W JA,1,,,,,,,,,,
2377,SCENE 416 CLYDE,1,,,,,,,,,,
2378,SCENE 416 E 66T,1,,,,,,,,,,
2379,SCENE 416 E. 63,1,,,,,,,,,,
2380,SCENE 4163 SUMT,1,,,,,,,,,,
2381,SCENE 417 MERRI,1,,,,,,,,,,
2382,SCENE 417 N HAR,1,,,,,,,,,,
2383,SCENE 418 W 117,1,,,,,,,,,,
2384,SCENE 419 25TH,1,,,,,,,,,,
2385,SCENE 420 N. AS,1,,,,,,,,,,
2386,SCENE 4200 S. P,1,,,,,,,,,,
2387,SCENE 4201 W WI,1,,,,,,,,,,
2388,SCENE 4203 S CH,1,,,,,,,,,,
2389,SCENE 4207 W 26,1,,,,,,,,,,
2390,SCENE 4207 W. F,1,,,,,,,,,,
2391,SCENE 4209 SOUT,1,,,,,,,,,,
2392,SCENE 421 E 69T,1,,,,,,,,,,
2393,SCENE 421 OSAGE,1,,,,,,,,,,
2394,SCENE 421 W 100,1,,,,,,,,,,
2395,SCENE 4210 W CE,1,,,,,,,,,,
2396,SCENE 422 E 134,1,,,,,,,,,,
2397,SCENE 422 E. 75,1,,,,,,,,,,
2398,SCENE 422 N LOC,1,,,,,,,,,,
2399,SCENE 422 W. MA,1,,,,,,,,,,
2400,SCENE 4221 LIND,1,,,,,,,,,,
2401,SCENE 4221 S WA,1,,,,,,,,,,
2402,SCENE 4224 S. C,1,,,,,,,,,,
2403,SCENE 4224 W OG,1,,,,,,,,,,
2404,SCENE 4224 W. J,1,,,,,,,,,,
2405,SCENE 4228 W 21,1,,,,,,,,,,
2406,SCENE 4228 W. 5,1,,,,,,,,,,
2407,SCENE 4230 S MA,1,,,,,,,,,,
2408,SCENE 4231 W CE,1,,,,,,,,,,
2409,SCENE 4233 W LA,1,,,,,,,,,,
2410,SCENE 4236 SOUT,1,,,,,,,,,,
2411,SCENE 4237 W TH,1,,,,,,,,,,
2412,SCENE 4239 W CE,1,,,,,,,,,,
2413,SCENE 4245 W AR,1,,,,,,,,,,
2414,SCENE 4245 W MO,1,,,,,,,,,,
2415,SCENE 4247 W PO,1,,,,,,,,,,
2416,SCENE 4248 N. H,1,,,,,,,,,,
2417,SCENE 425 N CEN,1,,,,,,,,,,
2418,SCENE 425 W. 79,1,,,,,,,,,,
2419,SCENE 4250 W GR,1,,,,,,,,,,
2420,SCENE 4256 S CO,1,,,,,,,,,,
2421,SCENE 4256 S TA,1,,,,,,,,,,
2422,SCENE 4257 S MI,1,,,,,,,,,,
2423,SCENE 4259 W VA,1,,,,,,,,,,
2424,SCENE 427 W. 61,1,,,,,,,,,,
2425,SCENE 428 N WES,1,,,,,,,,,,
2426,SCENE 429 ENGLE,1,,,,,,,,,,
2427,SCENE 429 W. 11,1,,,,,,,,,,
2428,SCENE 43 E 100T,1,,,,,,,,,,
2429,SCENE 43 WEST 2,1,,,,,,,,,,
2430,SCENE 430 N. PE,1,,,,,,,,,,
2431,SCENE 430 WEST,1,,,,,,,,,,
2432,SCENE 4300 S WE,1,,,,,,,,,,
2433,SCENE 4300 S. O,1,,,,,,,,,,
2434,SCENE 4300 S. S,1,,,,,,,,,,
2435,SCENE 4300 S. V,1,,,,,,,,,,
2436,SCENE 4300 W MA,1,,,,,,,,,,
2437,SCENE 4301 S. W,1,,,,,,,,,,
2438,SCENE 4303 S. H,1,,,,,,,,,,
2439,SCENE 4303 W VA,1,,,,,,,,,,
2440,SCENE 4308 W 25,1,,,,,,,,,,
2441,SCENE 4309 W 18,1,,,,,,,,,,
2442,SCENE 431 N. TR,1,,,,,,,,,,
2443,SCENE 4310 W 15,1,,,,,,,,,,
2444,SCENE 4311 W NO,1,,,,,,,,,,
2445,SCENE 4313 W. M,1,,,,,,,,,,
2446,SCENE 4316 W MA,1,,,,,,,,,,
2447,SCENE 4319 W 16,1,,,,,,,,,,
2448,SCENE 4321 S PA,1,,,,,,,,,,
2449,SCENE 4323 W MA,1,,,,,,,,,,
2450,SCENE 4326 S. P,1,,,,,,,,,,
2451,SCENE 4326 W 16,1,,,,,,,,,,
2452,SCENE 4327 W 18,1,,,,,,,,,,
2453,SCENE 4329 TROY,1,,,,,,,,,,
2454,SCENE 4329 W PA,1,,,,,,,,,,
2455,SCENE 433 N LAM,1,,,,,,,,,,
2456,SCENE 4330 W MA,1,,,,,,,,,,
2457,SCENE 4331 S. F,1,,,,,,,,,,
2458,SCENE 4331 W KI,1,,,,,,,,,,
2459,SCENE 4332 W WA,1,,,,,,,,,,
2460,SCENE 4333 N WE,1,,,,,,,,,,
2461,SCENE 4336 W CU,1,,,,,,,,,,
2462,SCENE 4337 S. A,1,,,,,,,,,,
2463,SCENE 4337 W GL,1,,,,,,,,,,
2464,SCENE 4340 W LA,1,,,,,,,,,,
2465,SCENE 4340 W. 8,1,,,,,,,,,,
2466,SCENE 4346 W. P,1,,,,,,,,,,
2467,SCENE 4348 W DI,1,,,,,,,,,,
2468,SCENE 435 E 71S,1,,,,,,,,,,
2469,SCENE 435 W 126,1,,,,,,,,,,
2470,SCENE 4353 W. H,1,,,,,,,,,,
2471,SCENE 4355 NORT,1,,,,,,,,,,
2472,SCENE 4357 W 25,1,,,,,,,,,,
2473,SCENE 4359 W. J,1,,,,,,,,,,
2474,SCENE 437 W 103,1,,,,,,,,,,
2475,SCENE 4372 W OG,1,,,,,,,,,,
2476,SCENE 438 W. 12,1,,,,,,,,,,
2477,SCENE 439 S SIB,1,,,,,,,,,,
2478,SCENE 44 N LATR,1,,,,,,,,,,
2479,SCENE 4400 S. P,1,,,,,,,,,,
2480,SCENE 4400 W AR,1,,,,,,,,,,
2481,SCENE 4400 W BE,1,,,,,,,,,,
2482,SCENE 4401 S AS,1,,,,,,,,,,
2483,SCENE 4401 W WR,1,,,,,,,,,,
2484,SCENE 4403 W GR,1,,,,,,,,,,
2485,SCENE 4404 NORT,1,,,,,,,,,,
2486,SCENE 4406 W MO,1,,,,,,,,,,
2487,SCENE 4408 W 16,1,,,,,,,,,,
2488,SCENE 4409 W TH,1,,,,,,,,,,
2489,SCENE 441 W 122,1,,,,,,,,,,
2490,SCENE 4410 S ST,1,,,,,,,,,,
2491,SCENE 4410 SOUT,1,,,,,,,,,,
2492,SCENE 4414 MICH,1,,,,,,,,,,
2493,SCENE 4426 N KE,1,,,,,,,,,,
2494,SCENE 4426 S. C,1,,,,,,,,,,
2495,SCENE 4430 SOUT,1,,,,,,,,,,
2496,SCENE 4434 W AD,1,,,,,,,,,,
2497,SCENE 4436 S.WE,1,,,,,,,,,,
2498,SCENE 4437 S PR,1,,,,,,,,,,
2499,SCENE 4437 W AD,1,,,,,,,,,,
2500,SCENE 4437 W CO,1,,,,,,,,,,
2501,SCENE 4438 W 5T,1,,,,,,,,,,
2502,SCENE 4438 W WE,1,,,,,,,,,,
2503,SCENE 444 E47TH,1,,,,,,,,,,
2504,SCENE 4441 W CO,1,,,,,,,,,,
2505,SCENE 4444 W WE,1,,,,,,,,,,
2506,SCENE 4445 W 5T,1,,,,,,,,,,
2507,SCENE 4445 W. 5,1,,,,,,,,,,
2508,SCENE 4452 S LE,1,,,,,,,,,,
2509,SCENE 4452 W 28,1,,,,,,,,,,
2510,SCENE 4453 N. C,1,,,,,,,,,,
2511,SCENE 4454 W. T,1,,,,,,,,,,
2512,SCENE 4455 W 45,1,,,,,,,,,,
2513,SCENE 4457 N DR,1,,,,,,,,,,
2514,SCENE 4457 W. I,1,,,,,,,,,,
2515,SCENE 4457 WEST,1,,,,,,,,,,
2516,SCENE 4459 S KE,1,,,,,,,,,,
2517,SCENE 4463 W LA,1,,,,,,,,,,
2518,SCENE 4500 S KI,1,,,,,,,,,,
2519,SCENE 4500 S ST,1,,,,,,,,,,
2520,SCENE 4500 S WH,1,,,,,,,,,,
2521,SCENE 4500 S. M,1,,,,,,,,,,
2522,SCENE 4500 W DI,1,,,,,,,,,,
2523,SCENE 4503 S. C,1,,,,,,,,,,
2524,SCENE 4510 S. M,1,,,,,,,,,,
2525,SCENE 4510 W 5T,1,,,,,,,,,,
2526,SCENE 4513 W JA,1,,,,,,,,,,
2527,SCENE 4514 N. S,1,,,,,,,,,,
2528,SCENE 4514 W. O,1,,,,,,,,,,
2529,SCENE 4525 S HA,1,,,,,,,,,,
2530,SCENE 4528 S ST,1,,,,,,,,,,
2531,SCENE 4529 W MO,1,,,,,,,,,,
2532,SCENE 453 E. 11,1,,,,,,,,,,
2533,SCENE 4530 S. I,1,,,,,,,,,,
2534,SCENE 4530 W MA,1,,,,,,,,,,
2535,SCENE 4531 SOUT,1,,,,,,,,,,
2536,SCENE 4531 W. C,1,,,,,,,,,,
2537,SCENE 4531 W. J,1,,,,,,,,,,
2538,SCENE 4534 S. O,1,,,,,,,,,,
2539,SCENE 4539 SOUT,1,,,,,,,,,,
2540,SCENE 454 W. 95,1,,,,,,,,,,
2541,SCENE 454 W118T,1,,,,,,,,,,
2542,SCENE 4540 W JA,1,,,,,,,,,,
2543,SCENE 4540 W. J,1,,,,,,,,,,
2544,SCENE 4542 N HA,1,,,,,,,,,,
2545,SCENE 4542 PRES,1,,,,,,,,,,
2546,SCENE 4547 N BR,1,,,,,,,,,,
2547,SCENE 4552 S LA,1,,,,,,,,,,
2548,SCENE 4558 S WO,1,,,,,,,,,,
2549,SCENE 4565 S CH,1,,,,,,,,,,
2550,SCENE 457 SUTHE,1,,,,,,,,,,
2551,SCENE 457 W. 89,1,,,,,,,,,,
2552,SCENE 458 N. SP,1,,,,,,,,,,
2553,SCENE 4600 MONR,1,,,,,,,,,,
2554,SCENE 4601 S WO,1,,,,,,,,,,
2555,SCENE 4606 S MO,1,,,,,,,,,,
2556,SCENE 4611 S GR,1,,,,,,,,,,
2557,SCENE 4611 W FU,1,,,,,,,,,,
2558,SCENE 4612 W SH,1,,,,,,,,,,
2559,SCENE 4612 W. 1,1,,,,,,,,,,
2560,SCENE 4614  NOR,1,,,,,,,,,,
2561,SCENE 4614 W OH,1,,,,,,,,,,
2562,SCENE 4615 W FI,1,,,,,,,,,,
2563,SCENE 4616 S EV,1,,,,,,,,,,
2564,SCENE 4619 N BR,1,,,,,,,,,,
2565,SCENE 4619 N. K,1,,,,,,,,,,
2566,SCENE 4630 W SH,1,,,,,,,,,,
2567,SCENE 4635 W. B,1,,,,,,,,,,
2568,SCENE 4639 W ER,1,,,,,,,,,,
2569,SCENE 4643 S. C,1,,,,,,,,,,
2570,SCENE 4645 S DR,1,,,,,,,,,,
2571,SCENE 4645 S HO,1,,,,,,,,,,
2572,SCENE 4645 W. 9,1,,,,,,,,,,
2573,SCENE 4648 W WA,1,,,,,,,,,,
2574,SCENE 4650 N MI,1,,,,,,,,,,
2575,SCENE 4650 W PO,1,,,,,,,,,,
2576,SCENE 4650 W. J,1,,,,,,,,,,
2577,SCENE 4656 W. S,1,,,,,,,,,,
2578,SCENE 4701 S  L,1,,,,,,,,,,
2579,SCENE 4702 S FO,1,,,,,,,,,,
2580,SCENE 4703 W AR,1,,,,,,,,,,
2581,SCENE 4703 W. 5,1,,,,,,,,,,
2582,SCENE 4706 W AR,1,,,,,,,,,,
2583,SCENE 4706 W GL,1,,,,,,,,,,
2584,SCENE 4708 S VI,1,,,,,,,,,,
2585,SCENE 4709 S. E,1,,,,,,,,,,
2586,SCENE 471 W 15T,1,,,,,,,,,,
2587,SCENE 4711 N MA,1,,,,,,,,,,
2588,SCENE 4717 N WI,1,,,,,,,,,,
2589,SCENE 4719 W VA,1,,,,,,,,,,
2590,SCENE 4720 N SP,1,,,,,,,,,,
2591,SCENE 4721 W OH,1,,,,,,,,,,
2592,SCENE 4722 W WE,1,,,,,,,,,,
2593,SCENE 4727 W MA,1,,,,,,,,,,
2594,SCENE 4728 W MA,1,,,,,,,,,,
2595,SCENE 4733 W WE,1,,,,,,,,,,
2596,SCENE 4735 W. W,1,,,,,,,,,,
2597,SCENE 4740 S. L,1,,,,,,,,,,
2598,SCENE 4740 W WA,1,,,,,,,,,,
2599,SCENE 4741 S AD,1,,,,,,,,,,
2600,SCENE 4741 WEST,1,,,,,,,,,,
2601,SCENE 4744 S PR,1,,,,,,,,,,
2602,SCENE 4745 W HA,1,,,,,,,,,,
2603,SCENE 4746 S AS,1,,,,,,,,,,
2604,SCENE 4747 S SH,1,,,,,,,,,,
2605,SCENE 4749 W FU,1,,,,,,,,,,
2606,SCENE 4750 S. F,1,,,,,,,,,,
2607,SCENE 4752 N WI,1,,,,,,,,,,
2608,SCENE 4752 W AD,1,,,,,,,,,,
2609,SCENE 4752 W GL,1,,,,,,,,,,
2610,SCENE 4753 N. S,1,,,,,,,,,,
2611,SCENE 4753 S FO,1,,,,,,,,,,
2612,SCENE 4755 W. M,1,,,,,,,,,,
2613,SCENE 4756 S MI,1,,,,,,,,,,
2614,SCENE 4759 W NO,1,,,,,,,,,,
2615,SCENE 4760 W BE,1,,,,,,,,,,
2616,SCENE 4800 S CH,1,,,,,,,,,,
2617,SCENE 4800 S TH,1,,,,,,,,,,
2618,SCENE 4801 N TR,1,,,,,,,,,,
2619,SCENE 4804 N. K,1,,,,,,,,,,
2620,SCENE 4806 N LA,1,,,,,,,,,,
2621,SCENE 4807 W GU,1,,,,,,,,,,
2622,SCENE 4810 S. M,1,,,,,,,,,,
2623,SCENE 4810 W WA,1,,,,,,,,,,
2624,SCENE 4815 W GE,1,,,,,,,,,,
2625,SCENE 4816 W CO,1,,,,,,,,,,
2626,SCENE 4816 W MO,1,,,,,,,,,,
2627,SCENE 4817 W. D,1,,,,,,,,,,
2628,SCENE 4818 W MO,1,,,,,,,,,,
2629,SCENE 4818 W. G,1,,,,,,,,,,
2630,SCENE 4819 S MA,1,,,,,,,,,,
2631,SCENE 4820 S MI,1,,,,,,,,,,
2632,SCENE 4821 N WI,1,,,,,,,,,,
2633,SCENE 4821 WEST,1,,,,,,,,,,
2634,SCENE 4822 W AU,1,,,,,,,,,,
2635,SCENE 4823 S JU,1,,,,,,,,,,
2636,SCENE 4824 SOUT,1,,,,,,,,,,
2637,SCENE 4826 W BE,1,,,,,,,,,,
2638,SCENE 4826 W RA,1,,,,,,,,,,
2639,SCENE 4827 W FE,1,,,,,,,,,,
2640,SCENE 4827 W ST,1,,,,,,,,,,
2641,SCENE 4828 N SH,1,,,,,,,,,,
2642,SCENE 4832 S. L,1,,,,,,,,,,
2643,SCENE 4833 S LO,1,,,,,,,,,,
2644,SCENE 4833 W43R,1,,,,,,,,,,
2645,SCENE 4834 W AR,1,,,,,,,,,,
2646,SCENE 4842 N KE,1,,,,,,,,,,
2647,SCENE 4843 W. 4,1,,,,,,,,,,
2648,SCENE 4845 N KA,1,,,,,,,,,,
2649,SCENE 4848 N WI,1,,,,,,,,,,
2650,SCENE 4848 S BI,1,,,,,,,,,,
2651,SCENE 4857 W HU,1,,,,,,,,,,
2652,SCENE 4858 S DR,1,,,,,,,,,,
2653,SCENE 4858 S VI,1,,,,,,,,,,
2654,SCENE 4865 N.,1,,,,,,,,,,
2655,SCENE 4867 N MI,1,,,,,,,,,,
2656,SCENE 49 E 148T,1,,,,,,,,,,
2657,SCENE 4900 S LO,1,,,,,,,,,,
2658,SCENE 4900 W 41,1,,,,,,,,,,
2659,SCENE 4900 W BE,1,,,,,,,,,,
2660,SCENE 4900 W SU,1,,,,,,,,,,
2661,SCENE 4901 SOUT,1,,,,,,,,,,
2662,SCENE 4902 W. T,1,,,,,,,,,,
2663,SCENE 4904 W. G,1,,,,,,,,,,
2664,SCENE 4907 N BE,1,,,,,,,,,,
2665,SCENE 4907 W. W,1,,,,,,,,,,
2666,SCENE 4910 S IN,1,,,,,,,,,,
2667,SCENE 4911 S WA,1,,,,,,,,,,
2668,SCENE 4915 N. T,1,,,,,,,,,,
2669,SCENE 4916 S. W,1,,,,,,,,,,
2670,SCENE 4918 W MA,1,,,,,,,,,,
2671,SCENE 4919 WEST,1,,,,,,,,,,
2672,SCENE 4921 N KE,1,,,,,,,,,,
2673,SCENE 4921 W. 2,1,,,,,,,,,,
2674,SCENE 4923 W CR,1,,,,,,,,,,
2675,SCENE 4925 W. M,1,,,,,,,,,,
2676,SCENE 4927 N TR,1,,,,,,,,,,
2677,SCENE 4928 W QU,1,,,,,,,,,,
2678,SCENE 4930 S. H,1,,,,,,,,,,
2679,SCENE 4930 W HU,1,,,,,,,,,,
2680,SCENE 4933 WEST,1,,,,,,,,,,
2681,SCENE 4935 W HU,1,,,,,,,,,,
2682,SCENE 4937 S IN,1,,,,,,,,,,
2683,SCENE 4937 W 14,1,,,,,,,,,,
2684,SCENE 4945 S HO,1,,,,,,,,,,
2685,SCENE 4945 W. F,1,,,,,,,,,,
2686,SCENE 4946 S WA,1,,,,,,,,,,
2687,SCENE 4947 S. F,1,,,,,,,,,,
2688,SCENE 4947 SOUT,1,,,,,,,,,,
2689,SCENE 4950 N MA,1,,,,,,,,,,
2690,SCENE 4958 S KA,1,,,,,,,,,,
2691,SCENE 4958 S PA,1,,,,,,,,,,
2692,SCENE 4958 S. R,1,,,,,,,,,,
2693,SCENE 4958 W 43,1,,,,,,,,,,
2694,SCENE 499 EAST,1,,,,,,,,,,
2695,SCENE 5 1/1 N C,1,,,,,,,,,,
2696,SCENE 5 1/2 NOR,1,,,,,,,,,,
2697,SCENE 5 S PARKS,1,,,,,,,,,,
2698,SCENE 5 W. WABA,1,,,,,,,,,,
2699,SCENE 50 W. 51S,1,,,,,,,,,,
2700,SCENE 500 E 33R,1,,,,,,,,,,
2701,SCENE 500 N. LA,1,,,,,,,,,,
2702,SCENE 500 S CEN,1,,,,,,,,,,
2703,SCENE 5000 S HO,1,,,,,,,,,,
2704,SCENE 5000 S IN,1,,,,,,,,,,
2705,SCENE 5001 S TA,1,,,,,,,,,,
2706,SCENE 5001 W NO,1,,,,,,,,,,
2707,SCENE 5004 S LE,1,,,,,,,,,,
2708,SCENE 5004 W 45,1,,,,,,,,,,
2709,SCENE 5007 W FU,1,,,,,,,,,,
2710,SCENE 5009 S PR,1,,,,,,,,,,
2711,SCENE 501 EAST,1,,,,,,,,,,
2712,SCENE 501 N TRO,1,,,,,,,,,,
2713,SCENE 501 NORTH,1,,,,,,,,,,
2714,SCENE 5012 W JA,1,,,,,,,,,,
2715,SCENE 5012 W. W,1,,,,,,,,,,
2716,SCENE 5016 S LO,1,,,,,,,,,,
2717,SCENE 5019 W BE,1,,,,,,,,,,
2718,SCENE 5020 MEAD,1,,,,,,,,,,
2719,SCENE 5023 S PR,1,,,,,,,,,,
2720,SCENE 5024 W BE,1,,,,,,,,,,
2721,SCENE 5028 W. 3,1,,,,,,,,,,
2722,SCENE 5028 WEST,1,,,,,,,,,,
2723,SCENE 5031 S IN,1,,,,,,,,,,
2724,SCENE 5031 SOUT,1,,,,,,,,,,
2725,SCENE 5032 W WA,1,,,,,,,,,,
2726,SCENE 5033 W. N,1,,,,,,,,,,
2727,SCENE 5033 WEST,1,,,,,,,,,,
2728,SCENE 5034 S EV,1,,,,,,,,,,
2729,SCENE 5035 S DR,1,,,,,,,,,,
2730,SCENE 5035 S MA,1,,,,,,,,,,
2731,SCENE 5035 W WA,1,,,,,,,,,,
2732,SCENE 5036 W. C,1,,,,,,,,,,
2733,SCENE 5039 S EV,1,,,,,,,,,,
2734,SCENE 5039 S MA,1,,,,,,,,,,
2735,SCENE 5039 S ST,1,,,,,,,,,,
2736,SCENE 5042 W. Q,1,,,,,,,,,,
2737,SCENE 5043 S MO,1,,,,,,,,,,
2738,SCENE 505 E 67T,1,,,,,,,,,,
2739,SCENE 5050 SOUT,1,,,,,,,,,,
2740,SCENE 5052 SOUT,1,,,,,,,,,,
2741,SCENE 5052 W AD,1,,,,,,,,,,
2742,SCENE 5053 N. K,1,,,,,,,,,,
2743,SCENE 5054 SOUT,1,,,,,,,,,,
2744,SCENE 5057 S WE,1,,,,,,,,,,
2745,SCENE 5058 S ST,1,,,,,,,,,,
2746,SCENE 506 W 117,1,,,,,,,,,,
2747,SCENE 506 W 60T,1,,,,,,,,,,
2748,SCENE 507 MINER,1,,,,,,,,,,
2749,SCENE 5070 SOUT,1,,,,,,,,,,
2750,SCENE 5086 W. M,1,,,,,,,,,,
2751,SCENE 51 W 15TH,1,,,,,,,,,,
2752,SCENE 51 W 68TH,1,,,,,,,,,,
2753,SCENE 51 WEST 1,1,,,,,,,,,,
2754,SCENE 510 STATE,1,,,,,,,,,,
2755,SCENE 510 W 60T,1,,,,,,,,,,
2756,SCENE 5100 S IN,1,,,,,,,,,,
2757,SCENE 5100 S. S,1,,,,,,,,,,
2758,SCENE 5101 W FE,1,,,,,,,,,,
2759,SCENE 5101 W HI,1,,,,,,,,,,
2760,SCENE 5107 S. L,1,,,,,,,,,,
2761,SCENE 5108 W 63,1,,,,,,,,,,
2762,SCENE 511 SOUTH,1,,,,,,,,,,
2763,SCENE 5113 N. H,1,,,,,,,,,,
2764,SCENE 5115 W. R,1,,,,,,,,,,
2765,SCENE 512 NORTH,1,,,,,,,,,,
2766,SCENE 5121 NORT,1,,,,,,,,,,
2767,SCENE 5123 S KE,1,,,,,,,,,,
2768,SCENE 5128 S NA,1,,,,,,,,,,
2769,SCENE 5133 W NO,1,,,,,,,,,,
2770,SCENE 5134 S HE,1,,,,,,,,,,
2771,SCENE 5135 S. F,1,,,,,,,,,,
2772,SCENE 5136 SOUT,1,,,,,,,,,,
2773,SCENE 5139 S MA,1,,,,,,,,,,
2774,SCENE 514 E 109,1,,,,,,,,,,
2775,SCENE 514 S. KO,1,,,,,,,,,,
2776,SCENE 514 W. PE,1,,,,,,,,,,
2777,SCENE 5140 N. S,1,,,,,,,,,,
2778,SCENE 5140 W NO,1,,,,,,,,,,
2779,SCENE 5144 S LO,1,,,,,,,,,,
2780,SCENE 5145 W OH,1,,,,,,,,,,
2781,SCENE 5147 S SP,1,,,,,,,,,,
2782,SCENE 515 W WIN,1,,,,,,,,,,
2783,SCENE 5150 W CH,1,,,,,,,,,,
2784,SCENE 5150 W RO,1,,,,,,,,,,
2785,SCENE 5152 S JU,1,,,,,,,,,,
2786,SCENE 5153 W HU,1,,,,,,,,,,
2787,SCENE 5154 S. W,1,,,,,,,,,,
2788,SCENE 5155 S. S,1,,,,,,,,,,
2789,SCENE 5156 SOUT,1,,,,,,,,,,
2790,SCENE 5158 S. J,1,,,,,,,,,,
2791,SCENE 5158 W QU,1,,,,,,,,,,
2792,SCENE 516 W ILL,1,,,,,,,,,,
2793,SCENE 516 W. IL,1,,,,,,,,,,
2794,SCENE 517 E 79T,1,,,,,,,,,,
2795,SCENE 517 S CAM,1,,,,,,,,,,
2796,SCENE 5170 SOUT,1,,,,,,,,,,
2797,SCENE 519 S CAL,1,,,,,,,,,,
2798,SCENE 52 NORTH,1,,,,,,,,,,
2799,SCENE 5200 S. H,1,,,,,,,,,,
2800,SCENE 5201 S CO,1,,,,,,,,,,
2801,SCENE 5201 S FE,1,,,,,,,,,,
2802,SCENE 5201 S. F,1,,,,,,,,,,
2803,SCENE 5204 S CA,1,,,,,,,,,,
2804,SCENE 5205 S. C,1,,,,,,,,,,
2805,SCENE 5206  LAK,1,,,,,,,,,,
2806,SCENE 5206 N. L,1,,,,,,,,,,
2807,SCENE 521 E 38T,1,,,,,,,,,,
2808,SCENE 5214 S LA,1,,,,,,,,,,
2809,SCENE 5215  W Q,1,,,,,,,,,,
2810,SCENE 5218 SOUT,1,,,,,,,,,,
2811,SCENE 5219 W LA,1,,,,,,,,,,
2812,SCENE 522 N AVE,1,,,,,,,,,,
2813,SCENE 522 W 58T,1,,,,,,,,,,
2814,SCENE 5220 S. D,1,,,,,,,,,,
2815,SCENE 5221 SOUT,1,,,,,,,,,,
2816,SCENE 5221 W 30,1,,,,,,,,,,
2817,SCENE 5223 W FE,1,,,,,,,,,,
2818,SCENE 5229 W 23,1,,,,,,,,,,
2819,SCENE 523 E 92N,1,,,,,,,,,,
2820,SCENE 5230 SOUT,1,,,,,,,,,,
2821,SCENE 5232 S. S,1,,,,,,,,,,
2822,SCENE 5235 N. W,1,,,,,,,,,,
2823,SCENE 5237 W. L,1,,,,,,,,,,
2824,SCENE 5238 W. C,1,,,,,,,,,,
2825,SCENE 524 W 31S,1,,,,,,,,,,
2826,SCENE 5241 S HO,1,,,,,,,,,,
2827,SCENE 5241 W LA,1,,,,,,,,,,
2828,SCENE 5243 N. H,1,,,,,,,,,,
2829,SCENE 5245 SMOZ,1,,,,,,,,,,
2830,SCENE 5250 MICH,1,,,,,,,,,,
2831,SCENE 5252 W NO,1,,,,,,,,,,
2832,SCENE 5254 W CH,1,,,,,,,,,,
2833,SCENE 5256 S LO,1,,,,,,,,,,
2834,SCENE 5256 S MA,1,,,,,,,,,,
2835,SCENE 5259 W. F,1,,,,,,,,,,
2836,SCENE 526 W. 57,1,,,,,,,,,,
2837,SCENE 5261 W JA,1,,,,,,,,,,
2838,SCENE 527 E. 46,1,,,,,,,,,,
2839,SCENE 527 E. BR,1,,,,,,,,,,
2840,SCENE 5271 N. L,1,,,,,,,,,,
2841,SCENE 528 E 63R,1,,,,,,,,,,
2842,SCENE 529 N HAM,1,,,,,,,,,,
2843,SCENE 530 W 59T,1,,,,,,,,,,
2844,SCENE 530 W. 41,1,,,,,,,,,,
2845,SCENE 5300 S. M,1,,,,,,,,,,
2846,SCENE 5300 SOUT,1,,,,,,,,,,
2847,SCENE 5302 W VA,1,,,,,,,,,,
2848,SCENE 5305 W AD,1,,,,,,,,,,
2849,SCENE 5309 W HA,1,,,,,,,,,,
2850,SCENE 531 N KED,1,,,,,,,,,,
2851,SCENE 5310 W. M,1,,,,,,,,,,
2852,SCENE 5311 W MA,1,,,,,,,,,,
2853,SCENE 5314 S MA,1,,,,,,,,,,
2854,SCENE 5314 S. A,1,,,,,,,,,,
2855,SCENE 5314 W 25,1,,,,,,,,,,
2856,SCENE 5316 W MO,1,,,,,,,,,,
2857,SCENE 5317 N. D,1,,,,,,,,,,
2858,SCENE 5319 W AG,1,,,,,,,,,,
2859,SCENE 532 N KIL,1,,,,,,,,,,
2860,SCENE 5320 S BI,1,,,,,,,,,,
2861,SCENE 5326 S ST,1,,,,,,,,,,
2862,SCENE 5328 S CA,1,,,,,,,,,,
2863,SCENE 5330 S HA,1,,,,,,,,,,
2864,SCENE 5331 S. H,1,,,,,,,,,,
2865,SCENE 5335 W FE,1,,,,,,,,,,
2866,SCENE 5335 W FR,1,,,,,,,,,,
2867,SCENE 5336 W CH,1,,,,,,,,,,
2868,SCENE 5336 W NO,1,,,,,,,,,,
2869,SCENE 534 W DIV,1,,,,,,,,,,
2870,SCENE 5341 W CR,1,,,,,,,,,,
2871,SCENE 5348 S HO,1,,,,,,,,,,
2872,SCENE 535 S WES,1,,,,,,,,,,
2873,SCENE 535 W HAR,1,,,,,,,,,,
2874,SCENE 5350 S. S,1,,,,,,,,,,
2875,SCENE 5355 S. P,1,,,,,,,,,,
2876,SCENE 5355 W. D,1,,,,,,,,,,
2877,SCENE 5357 S SH,1,,,,,,,,,,
2878,SCENE 5358 S HO,1,,,,,,,,,,
2879,SCENE 5358 W MA,1,,,,,,,,,,
2880,SCENE 536 E 41S,1,,,,,,,,,,
2881,SCENE 537 CONCO,1,,,,,,,,,,
2882,SCENE 537 E. 38,1,,,,,,,,,,
2883,SCENE 537 E. 79,1,,,,,,,,,,
2884,SCENE 538 E SIB,1,,,,,,,,,,
2885,SCENE 539 S ST,1,,,,,,,,,,
2886,SCENE 54 N LOTU,1,,,,,,,,,,
2887,SCENE 540 E 45T,1,,,,,,,,,,
2888,SCENE 5400 W WE,1,,,,,,,,,,
2889,SCENE 5401 SRIC,1,,,,,,,,,,
2890,SCENE 5403 S. C,1,,,,,,,,,,
2891,SCENE 5407 HYDE,1,,,,,,,,,,
2892,SCENE 5407 S SP,1,,,,,,,,,,
2893,SCENE 5409 S. W,1,,,,,,,,,,
2894,SCENE 541 S MAP,1,,,,,,,,,,
2895,SCENE 5410 WEST,1,,,,,,,,,,
2896,SCENE 5411 N WI,1,,,,,,,,,,
2897,SCENE 5411 W. A,1,,,,,,,,,,
2898,SCENE 5411 W.AR,1,,,,,,,,,,
2899,SCENE 5412 W MA,1,,,,,,,,,,
2900,SCENE 5413 S LA,1,,,,,,,,,,
2901,SCENE 5414 S. W,1,,,,,,,,,,
2902,SCENE 5419 W. W,1,,,,,,,,,,
2903,SCENE 542 N. CE,1,,,,,,,,,,
2904,SCENE 5421 S MO,1,,,,,,,,,,
2905,SCENE 5424 S WO,1,,,,,,,,,,
2906,SCENE 5424 S. C,1,,,,,,,,,,
2907,SCENE 5426 S. L,1,,,,,,,,,,
2908,SCENE 5430 S S,1,,,,,,,,,,
2909,SCENE 5431 S BI,1,,,,,,,,,,
2910,SCENE 5433 W LE,1,,,,,,,,,,
2911,SCENE 5436 W TH,1,,,,,,,,,,
2912,SCENE 5437 S WI,1,,,,,,,,,,
2913,SCENE 5438 S LO,1,,,,,,,,,,
2914,SCENE 5438 W MO,1,,,,,,,,,,
2915,SCENE 5440 S FE,1,,,,,,,,,,
2916,SCENE 5441 NORT,1,,,,,,,,,,
2917,SCENE 5442 SMOZ,1,,,,,,,,,,
2918,SCENE 5443 S MA,1,,,,,,,,,,
2919,SCENE 5446 W MO,1,,,,,,,,,,
2920,SCENE 5447 N.LI,1,,,,,,,,,,
2921,SCENE 5449 W WA,1,,,,,,,,,,
2922,SCENE 5457 S ST,1,,,,,,,,,,
2923,SCENE 5458 S JU,1,,,,,,,,,,
2924,SCENE 5458 S LA,1,,,,,,,,,,
2925,SCENE 5461 W CH,1,,,,,,,,,,
2926,SCENE 548 N CIC,1,,,,,,,,,,
2927,SCENE 549 E.104,1,,,,,,,,,,
2928,SCENE 549 N LEC,1,,,,,,,,,,
2929,SCENE 550 W. RO,1,,,,,,,,,,
2930,SCENE 5500 S WA,1,,,,,,,,,,
2931,SCENE 5501 W. W,1,,,,,,,,,,
2932,SCENE 5501 WEST,1,,,,,,,,,,
2933,SCENE 5504 W. H,1,,,,,,,,,,
2934,SCENE 5506 W HE,1,,,,,,,,,,
2935,SCENE 5508 W CO,1,,,,,,,,,,
2936,SCENE 5510 S WI,1,,,,,,,,,,
2937,SCENE 5510 W LA,1,,,,,,,,,,
2938,SCENE 5510 W RI,1,,,,,,,,,,
2939,SCENE 5511 W 25,1,,,,,,,,,,
2940,SCENE 5512 W 23,1,,,,,,,,,,
2941,SCENE 5514 W CO,1,,,,,,,,,,
2942,SCENE 5519 S UN,1,,,,,,,,,,
2943,SCENE 5520 S PR,1,,,,,,,,,,
2944,SCENE 5520 S. A,1,,,,,,,,,,
2945,SCENE 5523 S SH,1,,,,,,,,,,
2946,SCENE 5523 S. H,1,,,,,,,,,,
2947,SCENE 5524 W 87,1,,,,,,,,,,
2948,SCENE 5525 S NO,1,,,,,,,,,,
2949,SCENE 5525 SOUT,1,,,,,,,,,,
2950,SCENE 553 N. CE,1,,,,,,,,,,
2951,SCENE 5530 S KO,1,,,,,,,,,,
2952,SCENE 5530 S. C,1,,,,,,,,,,
2953,SCENE 5532 S HE,1,,,,,,,,,,
2954,SCENE 5532 SOUT,1,,,,,,,,,,
2955,SCENE 5533 W 22,1,,,,,,,,,,
2956,SCENE 5536  S C,1,,,,,,,,,,
2957,SCENE 5539 SOUT,1,,,,,,,,,,
2958,SCENE 554 N LAR,1,,,,,,,,,,
2959,SCENE 554 PERSH,1,,,,,,,,,,
2960,SCENE 554 W PER,1,,,,,,,,,,
2961,SCENE 5542 W MO,1,,,,,,,,,,
2962,SCENE 5544 S SE,1,,,,,,,,,,
2963,SCENE 5544 SOUT,1,,,,,,,,,,
2964,SCENE 5546 S. E,1,,,,,,,,,,
2965,SCENE 5546 W. L,1,,,,,,,,,,
2966,SCENE 5547 WEST,1,,,,,,,,,,
2967,SCENE 555 E 33,1,,,,,,,,,,
2968,SCENE 5555 W GR,1,,,,,,,,,,
2969,SCENE 5558 W NO,1,,,,,,,,,,
2970,SCENE 5558 W. J,1,,,,,,,,,,
2971,SCENE 5561 S. S,1,,,,,,,,,,
2972,SCENE 557 N HAM,1,,,,,,,,,,
2973,SCENE 559 EAST,1,,,,,,,,,,
2974,SCENE 56 N LARA,1,,,,,,,,,,
2975,SCENE 5600 OLD,1,,,,,,,,,,
2976,SCENE 5600 S WO,1,,,,,,,,,,
2977,SCENE 5600 W BL,1,,,,,,,,,,
2978,SCENE 5601 S. H,1,,,,,,,,,,
2979,SCENE 5601 SOUT,1,,,,,,,,,,
2980,SCENE 5601 W DI,1,,,,,,,,,,
2981,SCENE 5601 W. M,1,,,,,,,,,,
2982,SCENE 5602 S PE,1,,,,,,,,,,
2983,SCENE 5602 S. C,1,,,,,,,,,,
2984,SCENE 5604 W NO,1,,,,,,,,,,
2985,SCENE 5607 S MA,1,,,,,,,,,,
2986,SCENE 5611 S EV,1,,,,,,,,,,
2987,SCENE 5614 WEST,1,,,,,,,,,,
2988,SCENE 5618 S WO,1,,,,,,,,,,
2989,SCENE 5618 S. W,1,,,,,,,,,,
2990,SCENE 5625 W MA,1,,,,,,,,,,
2991,SCENE 563 BENSL,1,,,,,,,,,,
2992,SCENE 5630 MAY,1,,,,,,,,,,
2993,SCENE 5630 S FR,1,,,,,,,,,,
2994,SCENE 5630 S LA,1,,,,,,,,,,
2995,SCENE 5631 S SH,1,,,,,,,,,,
2996,SCENE 5632 S. L,1,,,,,,,,,,
2997,SCENE 5633 S MO,1,,,,,,,,,,
2998,SCENE 5633 W IO,1,,,,,,,,,,
2999,SCENE 5635 S SA,1,,,,,,,,,,
3000,SCENE 564 LUCIL,1,,,,,,,,,,
3001,SCENE 5640 S TH,1,,,,,,,,,,
3002,SCENE 5641 S GR,1,,,,,,,,,,
3003,SCENE 5641 S NO,1,,,,,,,,,,
3004,SCENE 5642 W DI,1,,,,,,,,,,
3005,SCENE 5643 W IO,1,,,,,,,,,,
3006,SCENE 5652 S WE,1,,,,,,,,,,
3007,SCENE 5656 S WA,1,,,,,,,,,,
3008,SCENE 5659  N J,1,,,,,,,,,,
3009,SCENE 566 E. 67,1,,,,,,,,,,
3010,SCENE 5669 SOUT,1,,,,,,,,,,
3011,SCENE 5700 S WO,1,,,,,,,,,,
3012,SCENE 5701 N CL,1,,,,,,,,,,
3013,SCENE 5701 S. S,1,,,,,,,,,,
3014,SCENE 5701 W. 7,1,,,,,,,,,,
3015,SCENE 5704 S DA,1,,,,,,,,,,
3016,SCENE 5704 S. G,1,,,,,,,,,,
3017,SCENE 5707 S. S,1,,,,,,,,,,
3018,SCENE 5707S HON,1,,,,,,,,,,
3019,SCENE 5708 WEST,1,,,,,,,,,,
3020,SCENE 5709 S. W,1,,,,,,,,,,
3021,SCENE 5714 W CE,1,,,,,,,,,,
3022,SCENE 5717 S NA,1,,,,,,,,,,
3023,SCENE 5718 S WA,1,,,,,,,,,,
3024,SCENE 5718 W WA,1,,,,,,,,,,
3025,SCENE 5720 W 95,1,,,,,,,,,,
3026,SCENE 5721 S WE,1,,,,,,,,,,
3027,SCENE 5722 S LA,1,,,,,,,,,,
3028,SCENE 5722 W. M,1,,,,,,,,,,
3029,SCENE 5726  W S,1,,,,,,,,,,
3030,SCENE 5726 S BI,1,,,,,,,,,,
3031,SCENE 5727 WEST,1,,,,,,,,,,
3032,SCENE 5728 S EL,1,,,,,,,,,,
3033,SCENE 5728 S. L,1,,,,,,,,,,
3034,SCENE 5729 S WA,1,,,,,,,,,,
3035,SCENE 5732 S EM,1,,,,,,,,,,
3036,SCENE 5734 N WI,1,,,,,,,,,,
3037,SCENE 5735 S CA,1,,,,,,,,,,
3038,SCENE 5735 S LO,1,,,,,,,,,,
3039,SCENE 5737 W NO,1,,,,,,,,,,
3040,SCENE 574 E 36T,1,,,,,,,,,,
3041,SCENE 5741 S SP,1,,,,,,,,,,
3042,SCENE 5746 S LA,1,,,,,,,,,,
3043,SCENE 5746 S WO,1,,,,,,,,,,
3044,SCENE 5748 S HO,1,,,,,,,,,,
3045,SCENE 5748 S WE,1,,,,,,,,,,
3046,SCENE 5749 S. I,1,,,,,,,,,,
3047,SCENE 5749 W HU,1,,,,,,,,,,
3048,SCENE 575 EAST,1,,,,,,,,,,
3049,SCENE 5750 OLD,1,,,,,,,,,,
3050,SCENE 5752 S. S,1,,,,,,,,,,
3051,SCENE 5754 S CA,1,,,,,,,,,,
3052,SCENE 5757 S BI,1,,,,,,,,,,
3053,SCENE 5758 SANG,1,,,,,,,,,,
3054,SCENE 5759 S. A,1,,,,,,,,,,
3055,SCENE 5759 S. G,1,,,,,,,,,,
3056,SCENE 5770 S PE,1,,,,,,,,,,
3057,SCENE 5800 S PE,1,,,,,,,,,,
3058,SCENE 5801 S. S,1,,,,,,,,,,
3059,SCENE 5801 W AU,1,,,,,,,,,,
3060,SCENE 5803 W RA,1,,,,,,,,,,
3061,SCENE 5804 S FA,1,,,,,,,,,,
3062,SCENE 5805 S RI,1,,,,,,,,,,
3063,SCENE 5806 S. W,1,,,,,,,,,,
3064,SCENE 5806 SOUT,1,,,,,,,,,,
3065,SCENE 5808 W. I,1,,,,,,,,,,
3066,SCENE 5811  S W,1,,,,,,,,,,
3067,SCENE 5812 S MA,1,,,,,,,,,,
3068,SCENE 5812 S. L,1,,,,,,,,,,
3069,SCENE 5812 S. S,1,,,,,,,,,,
3070,SCENE 5813 W 35,1,,,,,,,,,,
3071,SCENE 5815 W WA,1,,,,,,,,,,
3072,SCENE 5818 W WA,1,,,,,,,,,,
3073,SCENE 5819 SOUT,1,,,,,,,,,,
3074,SCENE 5819 W WA,1,,,,,,,,,,
3075,SCENE 5820 S LA,1,,,,,,,,,,
3076,SCENE 5820 SOUT,1,,,,,,,,,,
3077,SCENE 5821 N. B,1,,,,,,,,,,
3078,SCENE 5825 S ST,1,,,,,,,,,,
3079,SCENE 5832 S TH,1,,,,,,,,,,
3080,SCENE 5835 W HU,1,,,,,,,,,,
3081,SCENE 5839 W SU,1,,,,,,,,,,
3082,SCENE 5840 SOUT,1,,,,,,,,,,
3083,SCENE 5841 N MA,1,,,,,,,,,,
3084,SCENE 5842 W 62,1,,,,,,,,,,
3085,SCENE 5843 S WA,1,,,,,,,,,,
3086,SCENE 5843 W AR,1,,,,,,,,,,
3087,SCENE 5848 S HA,1,,,,,,,,,,
3088,SCENE 5850 S FA,1,,,,,,,,,,
3089,SCENE 5853 S. R,1,,,,,,,,,,
3090,SCENE 5900 S. W,1,,,,,,,,,,
3091,SCENE 5900 W. M,1,,,,,,,,,,
3092,SCENE 5901  N.,1,,,,,,,,,,
3093,SCENE 5901 S UN,1,,,,,,,,,,
3094,SCENE 5901 S. A,1,,,,,,,,,,
3095,SCENE 5913 W. R,1,,,,,,,,,,
3096,SCENE 5916 S PA,1,,,,,,,,,,
3097,SCENE 5917 S. L,1,,,,,,,,,,
3098,SCENE 5923-25 S,1,,,,,,,,,,
3099,SCENE 5924 S WI,1,,,,,,,,,,
3100,SCENE 5924 SOUT,1,,,,,,,,,,
3101,SCENE 5928 S MA,1,,,,,,,,,,
3102,SCENE 5934 S MA,1,,,,,,,,,,
3103,SCENE 5935  S.,1,,,,,,,,,,
3104,SCENE 5935 S PA,1,,,,,,,,,,
3105,SCENE 5936 S LA,1,,,,,,,,,,
3106,SCENE 5936 S. P,1,,,,,,,,,,
3107,SCENE 5936 S. S,1,,,,,,,,,,
3108,SCENE 5937 S HE,1,,,,,,,,,,
3109,SCENE 5939 W NO,1,,,,,,,,,,
3110,SCENE 5940 W. C,1,,,,,,,,,,
3111,SCENE 5943 S JU,1,,,,,,,,,,
3112,SCENE 5943 W. C,1,,,,,,,,,,
3113,SCENE 5951 N. N,1,,,,,,,,,,
3114,SCENE 5952 S AD,1,,,,,,,,,,
3115,SCENE 5956 W LA,1,,,,,,,,,,
3116,SCENE 5959 W. M,1,,,,,,,,,,
3117,SCENE 5961 N WI,1,,,,,,,,,,
3118,SCENE 599 E SIB,1,,,,,,,,,,
3119,SCENE 6 SOUTH M,1,,,,,,,,,,
3120,SCENE 60 E 104T,1,,,,,,,,,,
3121,SCENE 600 EAST,1,,,,,,,,,,
3122,SCENE 600 N WAU,1,,,,,,,,,,
3123,SCENE 600 N. SP,1,,,,,,,,,,
3124,SCENE 600 S. HO,1,,,,,,,,,,
3125,SCENE 600 SOUTH,1,,,,,,,,,,
3126,SCENE 6000 S SA,1,,,,,,,,,,
3127,SCENE 6000 W. D,1,,,,,,,,,,
3128,SCENE 6005 SOUT,1,,,,,,,,,,
3129,SCENE 6006 S WI,1,,,,,,,,,,
3130,SCENE 6008 S MA,1,,,,,,,,,,
3131,SCENE 6008 S PR,1,,,,,,,,,,
3132,SCENE 6008 W NO,1,,,,,,,,,,
3133,SCENE 601 E 115,1,,,,,,,,,,
3134,SCENE 601 S. SP,1,,,,,,,,,,
3135,SCENE 6014 S MA,1,,,,,,,,,,
3136,SCENE 602 N CHR,1,,,,,,,,,,
3137,SCENE 6021 S CA,1,,,,,,,,,,
3138,SCENE 6022 N WI,1,,,,,,,,,,
3139,SCENE 603 N CEN,1,,,,,,,,,,
3140,SCENE 603 S. IN,1,,,,,,,,,,
3141,SCENE 6042 S MA,1,,,,,,,,,,
3142,SCENE 6042 S MO,1,,,,,,,,,,
3143,SCENE 6042 W BE,1,,,,,,,,,,
3144,SCENE 6043 S KI,1,,,,,,,,,,
3145,SCENE 6045 S TA,1,,,,,,,,,,
3146,SCENE 6050 S SA,1,,,,,,,,,,
3147,SCENE 6054 S. M,1,,,,,,,,,,
3148,SCENE 6058 S MA,1,,,,,,,,,,
3149,SCENE 6058 S RI,1,,,,,,,,,,
3150,SCENE 6059 S RI,1,,,,,,,,,,
3151,SCENE 606 E 79T,1,,,,,,,,,,
3152,SCENE 6060 N. L,1,,,,,,,,,,
3153,SCENE 6076 SOUT,1,,,,,,,,,,
3154,SCENE 608 E. 84,1,,,,,,,,,,
3155,SCENE 6086 S 75,1,,,,,,,,,,
3156,SCENE 610 E 62N,1,,,,,,,,,,
3157,SCENE 610 N. RI,1,,,,,,,,,,
3158,SCENE 6100 S/B,1,,,,,,,,,,
3159,SCENE 6101 W SH,1,,,,,,,,,,
3160,SCENE 6102 S HA,1,,,,,,,,,,
3161,SCENE 6103 S CO,1,,,,,,,,,,
3162,SCENE 6104 S SA,1,,,,,,,,,,
3163,SCENE 6105 W DI,1,,,,,,,,,,
3164,SCENE 6111 S TR,1,,,,,,,,,,
3165,SCENE 6119 S. M,1,,,,,,,,,,
3166,SCENE 6120 S EL,1,,,,,,,,,,
3167,SCENE 6120 SLAN,1,,,,,,,,,,
3168,SCENE 6123 S CO,1,,,,,,,,,,
3169,SCENE 6124 N. W,1,,,,,,,,,,
3170,SCENE 6129 S TR,1,,,,,,,,,,
3171,SCENE 613 S. ST,1,,,,,,,,,,
3172,SCENE 6130 S. K,1,,,,,,,,,,
3173,SCENE 6135 S VE,1,,,,,,,,,,
3174,SCENE 6136 S. L,1,,,,,,,,,,
3175,SCENE 6136 S.CA,1,,,,,,,,,,
3176,SCENE 614 N RID,1,,,,,,,,,,
3177,SCENE 614 S. OA,1,,,,,,,,,,
3178,SCENE 6141 S. E,1,,,,,,,,,,
3179,SCENE 6145 S KI,1,,,,,,,,,,
3180,SCENE 6145 S. A,1,,,,,,,,,,
3181,SCENE 6149 S WA,1,,,,,,,,,,
3182,SCENE 615 E 87T,1,,,,,,,,,,
3183,SCENE 615 S. KO,1,,,,,,,,,,
3184,SCENE 6151 S. M,1,,,,,,,,,,
3185,SCENE 6152 SOUT,1,,,,,,,,,,
3186,SCENE 6153 S MO,1,,,,,,,,,,
3187,SCENE 6153 S WE,1,,,,,,,,,,
3188,SCENE 6154 S KI,1,,,,,,,,,,
3189,SCENE 6154 S. S,1,,,,,,,,,,
3190,SCENE 6157 S. K,1,,,,,,,,,,
3191,SCENE 6158 S AS,1,,,,,,,,,,
3192,SCENE 616 E 81S,1,,,,,,,,,,
3193,SCENE 616 N LAT,1,,,,,,,,,,
3194,SCENE 616 W. WA,1,,,,,,,,,,
3195,SCENE 6164 S MI,1,,,,,,,,,,
3196,SCENE 619 EAST,1,,,,,,,,,,
3197,SCENE 619 N MAY,1,,,,,,,,,,
3198,SCENE 619 W 73R,1,,,,,,,,,,
3199,SCENE 6200 DEVO,1,,,,,,,,,,
3200,SCENE 6200 W BL,1,,,,,,,,,,
3201,SCENE 6201 S TR,1,,,,,,,,,,
3202,SCENE 6201 S. A,1,,,,,,,,,,
3203,SCENE 6204 S TR,1,,,,,,,,,,
3204,SCENE 6205 S WH,1,,,,,,,,,,
3205,SCENE 6205 S. S,1,,,,,,,,,,
3206,SCENE 6206 S. T,1,,,,,,,,,,
3207,SCENE 6210 N MO,1,,,,,,,,,,
3208,SCENE 6210 N. L,1,,,,,,,,,,
3209,SCENE 6210 S KI,1,,,,,,,,,,
3210,SCENE 6211 ROCK,1,,,,,,,,,,
3211,SCENE 6211 S EB,1,,,,,,,,,,
3212,SCENE 6212 S VE,1,,,,,,,,,,
3213,SCENE 6212 S. K,1,,,,,,,,,,
3214,SCENE 6212 SOUT,1,,,,,,,,,,
3215,SCENE 6215 S WA,1,,,,,,,,,,
3216,SCENE 6216 S EV,1,,,,,,,,,,
3217,SCENE 6216 S MA,1,,,,,,,,,,
3218,SCENE 6216 S. L,1,,,,,,,,,,
3219,SCENE 6218  S.,1,,,,,,,,,,
3220,SCENE 6218  S.P,1,,,,,,,,,,
3221,SCENE 6219 1/2,1,,,,,,,,,,
3222,SCENE 622 N AVE,1,,,,,,,,,,
3223,SCENE 6221 S MA,1,,,,,,,,,,
3224,SCENE 6224 S RH,1,,,,,,,,,,
3225,SCENE 6229 S DA,1,,,,,,,,,,
3226,SCENE 623 N. SA,1,,,,,,,,,,
3227,SCENE 6230 S TA,1,,,,,,,,,,
3228,SCENE 6232  S.,1,,,,,,,,,,
3229,SCENE 6234 S CO,1,,,,,,,,,,
3230,SCENE 6235 S HO,1,,,,,,,,,,
3231,SCENE 6237 S EL,1,,,,,,,,,,
3232,SCENE 624 N RID,1,,,,,,,,,,
3233,SCENE 6243 S EV,1,,,,,,,,,,
3234,SCENE 6249 S CA,1,,,,,,,,,,
3235,SCENE 625 W. 10,1,,,,,,,,,,
3236,SCENE 6251 S WA,1,,,,,,,,,,
3237,SCENE 6253 S WH,1,,,,,,,,,,
3238,SCENE 6254 S CA,1,,,,,,,,,,
3239,SCENE 626 E 71S,1,,,,,,,,,,
3240,SCENE 626 E. 71,1,,,,,,,,,,
3241,SCENE 628 LINDA,1,,,,,,,,,,
3242,SCENE 628 N MAY,1,,,,,,,,,,
3243,SCENE 63 W HICK,1,,,,,,,,,,
3244,SCENE 6300 S ST,1,,,,,,,,,,
3245,SCENE 6300 S WO,1,,,,,,,,,,
3246,SCENE 6301 S. C,1,,,,,,,,,,
3247,SCENE 6301 W GE,1,,,,,,,,,,
3248,SCENE 6303 S SA,1,,,,,,,,,,
3249,SCENE 6306 S. A,1,,,,,,,,,,
3250,SCENE 6307 S EB,1,,,,,,,,,,
3251,SCENE 6308 N. W,1,,,,,,,,,,
3252,SCENE 631 S KIL,1,,,,,,,,,,
3253,SCENE 631 W 47T,1,,,,,,,,,,
3254,SCENE 6311 S. R,1,,,,,,,,,,
3255,SCENE 6320 S RH,1,,,,,,,,,,
3256,SCENE 6320 SOUT,1,,,,,,,,,,
3257,SCENE 6322 SOUT,1,,,,,,,,,,
3258,SCENE 6324 S. M,1,,,,,,,,,,
3259,SCENE 6328 S LA,1,,,,,,,,,,
3260,SCENE 6329 S CA,1,,,,,,,,,,
3261,SCENE 6333 S RO,1,,,,,,,,,,
3262,SCENE 6338 S WI,1,,,,,,,,,,
3263,SCENE 6338 S. H,1,,,,,,,,,,
3264,SCENE 6339 S. S,1,,,,,,,,,,
3265,SCENE 634 N RID,1,,,,,,,,,,
3266,SCENE 6340 S AL,1,,,,,,,,,,
3267,SCENE 6340 S. E,1,,,,,,,,,,
3268,SCENE 6341 S FR,1,,,,,,,,,,
3269,SCENE 6341 S WE,1,,,,,,,,,,
3270,SCENE 6342 N LA,1,,,,,,,,,,
3271,SCENE 6343 S WO,1,,,,,,,,,,
3272,SCENE 6344 S. H,1,,,,,,,,,,
3273,SCENE 6345 S. M,1,,,,,,,,,,
3274,SCENE 6347 N. R,1,,,,,,,,,,
3275,SCENE 6347 S WO,1,,,,,,,,,,
3276,SCENE 6347 S. M,1,,,,,,,,,,
3277,SCENE 6349 S EV,1,,,,,,,,,,
3278,SCENE 6349 S FR,1,,,,,,,,,,
3279,SCENE 6351 S HA,1,,,,,,,,,,
3280,SCENE 6352 S HA,1,,,,,,,,,,
3281,SCENE 6354 S HO,1,,,,,,,,,,
3282,SCENE 6359 S MA,1,,,,,,,,,,
3283,SCENE 636 E. 44,1,,,,,,,,,,
3284,SCENE 6363 JOLI,1,,,,,,,,,,
3285,SCENE 637 N SPR,1,,,,,,,,,,
3286,SCENE 639 N. TR,1,,,,,,,,,,
3287,SCENE 64 N. CEN,1,,,,,,,,,,
3288,SCENE 640 E. 62,1,,,,,,,,,,
3289,SCENE 6400 S AL,1,,,,,,,,,,
3290,SCENE 6400 S LA,1,,,,,,,,,,
3291,SCENE 6400 S SA,1,,,,,,,,,,
3292,SCENE 6400 SOUT,1,,,,,,,,,,
3293,SCENE 6404 S. W,1,,,,,,,,,,
3294,SCENE 6407 S.EB,1,,,,,,,,,,
3295,SCENE 6408 S DO,1,,,,,,,,,,
3296,SCENE 6408 SOUT,1,,,,,,,,,,
3297,SCENE 6411 S. E,1,,,,,,,,,,
3298,SCENE 6415 S. F,1,,,,,,,,,,
3299,SCENE 6416 S AB,1,,,,,,,,,,
3300,SCENE 6417 S OA,1,,,,,,,,,,
3301,SCENE 6418 S. R,1,,,,,,,,,,
3302,SCENE 6419 S. F,1,,,,,,,,,,
3303,SCENE 6421 S WO,1,,,,,,,,,,
3304,SCENE 6422 S EG,1,,,,,,,,,,
3305,SCENE 6424 W. B,1,,,,,,,,,,
3306,SCENE 643 E. 46,1,,,,,,,,,,
3307,SCENE 6430 S GR,1,,,,,,,,,,
3308,SCENE 6433 SOUT,1,,,,,,,,,,
3309,SCENE 6435 S. M,1,,,,,,,,,,
3310,SCENE 6436 NORT,1,,,,,,,,,,
3311,SCENE 6436 S RI,1,,,,,,,,,,
3312,SCENE 6438 S WO,1,,,,,,,,,,
3313,SCENE 644 N SPR,1,,,,,,,,,,
3314,SCENE 644 W. LA,1,,,,,,,,,,
3315,SCENE 6443 S YA,1,,,,,,,,,,
3316,SCENE 6444 S. L,1,,,,,,,,,,
3317,SCENE 6446 S AR,1,,,,,,,,,,
3318,SCENE 6448 S DR,1,,,,,,,,,,
3319,SCENE 6448 W 83,1,,,,,,,,,,
3320,SCENE 6448 W. 8,1,,,,,,,,,,
3321,SCENE 6449 N DI,1,,,,,,,,,,
3322,SCENE 6457 S ST,1,,,,,,,,,,
3323,SCENE 6459 S JU,1,,,,,,,,,,
3324,SCENE 649 EAST,1,,,,,,,,,,
3325,SCENE 650 N. AL,1,,,,,,,,,,
3326,SCENE 6500 S PE,1,,,,,,,,,,
3327,SCENE 6500 S SA,1,,,,,,,,,,
3328,SCENE 6500 S. W,1,,,,,,,,,,
3329,SCENE 6500S. TR,1,,,,,,,,,,
3330,SCENE 6501 SOUT,1,,,,,,,,,,
3331,SCENE 6505 S HO,1,,,,,,,,,,
3332,SCENE 6505 W CA,1,,,,,,,,,,
3333,SCENE 6505 W. 1,1,,,,,,,,,,
3334,SCENE 6506 SANG,1,,,,,,,,,,
3335,SCENE 6509 S LA,1,,,,,,,,,,
3336,SCENE 652 N SPR,1,,,,,,,,,,
3337,SCENE 652 W. 13,1,,,,,,,,,,
3338,SCENE 6522 S AB,1,,,,,,,,,,
3339,SCENE 6523 S BI,1,,,,,,,,,,
3340,SCENE 6525 S. L,1,,,,,,,,,,
3341,SCENE 6528 S YA,1,,,,,,,,,,
3342,SCENE 6529 S. S,1,,,,,,,,,,
3343,SCENE 6530 S DA,1,,,,,,,,,,
3344,SCENE 6532 S RO,1,,,,,,,,,,
3345,SCENE 6540 S. K,1,,,,,,,,,,
3346,SCENE 6541 S SE,1,,,,,,,,,,
3347,SCENE 6546 S. M,1,,,,,,,,,,
3348,SCENE 6548 S IN,1,,,,,,,,,,
3349,SCENE 6549 SOUT,1,,,,,,,,,,
3350,SCENE 655 W 65T,1,,,,,,,,,,
3351,SCENE 6550 S GR,1,,,,,,,,,,
3352,SCENE 6552 S AB,1,,,,,,,,,,
3353,SCENE 6553 S CA,1,,,,,,,,,,
3354,SCENE 6558 ROS,1,,,,,,,,,,
3355,SCENE 656 E. 51,1,,,,,,,,,,
3356,SCENE 6565 S.,1,,,,,,,,,,
3357,SCENE 6565 S. Y,1,,,,,,,,,,
3358,SCENE 658 E.42N,1,,,,,,,,,,
3359,SCENE 66 E 70TH,1,,,,,,,,,,
3360,SCENE 6601 S. S,1,,,,,,,,,,
3361,SCENE 6602 W WE,1,,,,,,,,,,
3362,SCENE 6604 S MA,1,,,,,,,,,,
3363,SCENE 6608 S. E,1,,,,,,,,,,
3364,SCENE 6609 S. W,1,,,,,,,,,,
3365,SCENE 6616 S. O,1,,,,,,,,,,
3366,SCENE 6617 S.,1,,,,,,,,,,
3367,SCENE 6620 S. U,1,,,,,,,,,,
3368,SCENE 6628 S JU,1,,,,,,,,,,
3369,SCENE 6629 S HO,1,,,,,,,,,,
3370,SCENE 6629 SOUT,1,,,,,,,,,,
3371,SCENE 6632 SOUT,1,,,,,,,,,,
3372,SCENE 6635 S LO,1,,,,,,,,,,
3373,SCENE 6635 SOUT,1,,,,,,,,,,
3374,SCENE 6639 S RH,1,,,,,,,,,,
3375,SCENE 6640 S EL,1,,,,,,,,,,
3376,SCENE 6644 S WI,1,,,,,,,,,,
3377,SCENE 6646 S MI,1,,,,,,,,,,
3378,SCENE 6647 S BE,1,,,,,,,,,,
3379,SCENE 6650 SOUT,1,,,,,,,,,,
3380,SCENE 6659 S MA,1,,,,,,,,,,
3381,SCENE 6659 S RH,1,,,,,,,,,,
3382,SCENE 666 E 50T,1,,,,,,,,,,
3383,SCENE 6700 S JE,1,,,,,,,,,,
3384,SCENE 6700 S LA,1,,,,,,,,,,
3385,SCENE 6703 S ME,1,,,,,,,,,,
3386,SCENE 6708 SOUT,1,,,,,,,,,,
3387,SCENE 6709 S. G,1,,,,,,,,,,
3388,SCENE 6710 S. I,1,,,,,,,,,,
3389,SCENE 6724 S CH,1,,,,,,,,,,
3390,SCENE 6725 S CH,1,,,,,,,,,,
3391,SCENE 6727 S EV,1,,,,,,,,,,
3392,SCENE 6728 S. E,1,,,,,,,,,,
3393,SCENE 6732 S. O,1,,,,,,,,,,
3394,SCENE 6735 S CL,1,,,,,,,,,,
3395,SCENE 6735 S JU,1,,,,,,,,,,
3396,SCENE 6735 S MA,1,,,,,,,,,,
3397,SCENE 6735 SOUT,1,,,,,,,,,,
3398,SCENE 6739 S MO,1,,,,,,,,,,
3399,SCENE 6741 S JE,1,,,,,,,,,,
3400,SCENE 6741 S. H,1,,,,,,,,,,
3401,SCENE 6741 S. P,1,,,,,,,,,,
3402,SCENE 6746 S. N,1,,,,,,,,,,
3403,SCENE 6747 S WA,1,,,,,,,,,,
3404,SCENE 6757 S PA,1,,,,,,,,,,
3405,SCENE 6759 S AR,1,,,,,,,,,,
3406,SCENE 6759 S PE,1,,,,,,,,,,
3407,SCENE 6759 S. C,1,,,,,,,,,,
3408,SCENE 6759 SOUT,1,,,,,,,,,,
3409,SCENE 676 DOUGL,1,,,,,,,,,,
3410,SCENE 67TH SEEL,1,,,,,,,,,,
3411,SCENE 6800 S EA,1,,,,,,,,,,
3412,SCENE 6800 W VO,1,,,,,,,,,,
3413,SCENE 6802 W. 8,1,,,,,,,,,,
3414,SCENE 6804 S. J,1,,,,,,,,,,
3415,SCENE 6808 S GR,1,,,,,,,,,,
3416,SCENE 6808 S JU,1,,,,,,,,,,
3417,SCENE 6812 S PR,1,,,,,,,,,,
3418,SCENE 6812 S. N,1,,,,,,,,,,
3419,SCENE 6814 N LA,1,,,,,,,,,,
3420,SCENE 6815 S. I,1,,,,,,,,,,
3421,SCENE 6817 W CA,1,,,,,,,,,,
3422,SCENE 6818 S ST,1,,,,,,,,,,
3423,SCENE 6818 S. M,1,,,,,,,,,,
3424,SCENE 6822 S NO,1,,,,,,,,,,
3425,SCENE 6824 SOUT,1,,,,,,,,,,
3426,SCENE 6826 S CR,1,,,,,,,,,,
3427,SCENE 6826 S. C,1,,,,,,,,,,
3428,SCENE 6829 S CA,1,,,,,,,,,,
3429,SCENE 6829 S HA,1,,,,,,,,,,
3430,SCENE 6830 S. H,1,,,,,,,,,,
3431,SCENE 6830 S. L,1,,,,,,,,,,
3432,SCENE 6830 S. P,1,,,,,,,,,,
3433,SCENE 6831 S JU,1,,,,,,,,,,
3434,SCENE 6834 S PE,1,,,,,,,,,,
3435,SCENE 6835 S LA,1,,,,,,,,,,
3436,SCENE 6838 S KE,1,,,,,,,,,,
3437,SCENE 6840 S. P,1,,,,,,,,,,
3438,SCENE 6850 S. R,1,,,,,,,,,,
3439,SCENE 6851 SOUT,1,,,,,,,,,,
3440,SCENE 6852 S CA,1,,,,,,,,,,
3441,SCENE 6853 S. M,1,,,,,,,,,,
3442,SCENE 6858 S. S,1,,,,,,,,,,
3443,SCENE 6900 S CR,1,,,,,,,,,,
3444,SCENE 6901 S WE,1,,,,,,,,,,
3445,SCENE 6903 S CA,1,,,,,,,,,,
3446,SCENE 6904 S DO,1,,,,,,,,,,
3447,SCENE 6911 S PA,1,,,,,,,,,,
3448,SCENE 6919 S VE,1,,,,,,,,,,
3449,SCENE 6920 S LO,1,,,,,,,,,,
3450,SCENE 6920 S RA,1,,,,,,,,,,
3451,SCENE 6920 S. C,1,,,,,,,,,,
3452,SCENE 6922 ELIZ,1,,,,,,,,,,
3453,SCENE 6923 S. S,1,,,,,,,,,,
3454,SCENE 6923 SOUT,1,,,,,,,,,,
3455,SCENE 6925 S EM,1,,,,,,,,,,
3456,SCENE 6927 S AD,1,,,,,,,,,,
3457,SCENE 6928 S WA,1,,,,,,,,,,
3458,SCENE 6928 S. C,1,,,,,,,,,,
3459,SCENE 6928 S. M,1,,,,,,,,,,
3460,SCENE 6932 W PA,1,,,,,,,,,,
3461,SCENE 6933 S CO,1,,,,,,,,,,
3462,SCENE 6936 S. K,1,,,,,,,,,,
3463,SCENE 6936 SOUT,1,,,,,,,,,,
3464,SCENE 6937 SOUT,1,,,,,,,,,,
3465,SCENE 6938 -40,1,,,,,,,,,,
3466,SCENE 6939 SOUT,1,,,,,,,,,,
3467,SCENE 6941 SOUT,1,,,,,,,,,,
3468,SCENE 6942 S CO,1,,,,,,,,,,
3469,SCENE 6947 S.,1,,,,,,,,,,
3470,SCENE 6948 S RA,1,,,,,,,,,,
3471,SCENE 6949 S AD,1,,,,,,,,,,
3472,SCENE 6950 S. P,1,,,,,,,,,,
3473,SCENE 6952 SOUT,1,,,,,,,,,,
3474,SCENE 6954 S DA,1,,,,,,,,,,
3475,SCENE 6958 S TH,1,,,,,,,,,,
3476,SCENE 700 ALBIO,1,,,,,,,,,,
3477,SCENE 700 E. 91,1,,,,,,,,,,
3478,SCENE 700 FORES,1,,,,,,,,,,
3479,SCENE 700 LOCUS,1,,,,,,,,,,
3480,SCENE 700 S.WES,1,,,,,,,,,,
3481,SCENE 7000 S PR,1,,,,,,,,,,
3482,SCENE 7001 S SA,1,,,,,,,,,,
3483,SCENE 7004 S OG,1,,,,,,,,,,
3484,SCENE 7005 N. T,1,,,,,,,,,,
3485,SCENE 7005 SOUT,1,,,,,,,,,,
3486,SCENE 7007 S EG,1,,,,,,,,,,
3487,SCENE 7007 S HE,1,,,,,,,,,,
3488,SCENE 7009 S GR,1,,,,,,,,,,
3489,SCENE 701 NORTH,1,,,,,,,,,,
3490,SCENE 7017 SOUT,1,,,,,,,,,,
3491,SCENE 7018 S. P,1,,,,,,,,,,
3492,SCENE 7019 S YA,1,,,,,,,,,,
3493,SCENE 7019 S. Y,1,,,,,,,,,,
3494,SCENE 7022 S SH,1,,,,,,,,,,
3495,SCENE 7026 S. W,1,,,,,,,,,,
3496,SCENE 7027 S MI,1,,,,,,,,,,
3497,SCENE 7029 N CL,1,,,,,,,,,,
3498,SCENE 7029 S AD,1,,,,,,,,,,
3499,SCENE 703 S KIL,1,,,,,,,,,,
3500,SCENE 7031 S DO,1,,,,,,,,,,
3501,SCENE 7035 SOUT,1,,,,,,,,,,
3502,SCENE 7038 S CA,1,,,,,,,,,,
3503,SCENE 7039 SFAI,1,,,,,,,,,,
3504,SCENE 7039 SOUT,1,,,,,,,,,,
3505,SCENE 704 N RID,1,,,,,,,,,,
3506,SCENE 704 S IND,1,,,,,,,,,,
3507,SCENE 7041 S EB,1,,,,,,,,,,
3508,SCENE 7041 S. J,1,,,,,,,,,,
3509,SCENE 7044 N CL,1,,,,,,,,,,
3510,SCENE 7044 SOUT,1,,,,,,,,,,
3511,SCENE 705 E 43R,1,,,,,,,,,,
3512,SCENE 7053 S ST,1,,,,,,,,,,
3513,SCENE 7056 NORT,1,,,,,,,,,,
3514,SCENE 7057 S  C,1,,,,,,,,,,
3515,SCENE 7058 S BE,1,,,,,,,,,,
3516,SCENE 7058 S PA,1,,,,,,,,,,
3517,SCENE 709 N HAR,1,,,,,,,,,,
3518,SCENE 709 N SAC,1,,,,,,,,,,
3519,SCENE 710 E 83R,1,,,,,,,,,,
3520,SCENE 7100 S CH,1,,,,,,,,,,
3521,SCENE 7100 S CO,1,,,,,,,,,,
3522,SCENE 7101 S RH,1,,,,,,,,,,
3523,SCENE 7101 S S,1,,,,,,,,,,
3524,SCENE 7101 S. H,1,,,,,,,,,,
3525,SCENE 7102 S. J,1,,,,,,,,,,
3526,SCENE 7103 S. W,1,,,,,,,,,,
3527,SCENE 7106 S RI,1,,,,,,,,,,
3528,SCENE 7107 N. C,1,,,,,,,,,,
3529,SCENE 711 W. 59,1,,,,,,,,,,
3530,SCENE 7111 S EG,1,,,,,,,,,,
3531,SCENE 7111 S WE,1,,,,,,,,,,
3532,SCENE 7114 S VI,1,,,,,,,,,,
3533,SCENE 7118 S MI,1,,,,,,,,,,
3534,SCENE 7118 W HI,1,,,,,,,,,,
3535,SCENE 712 E 87T,1,,,,,,,,,,
3536,SCENE 712 S WAS,1,,,,,,,,,,
3537,SCENE 7121 S BE,1,,,,,,,,,,
3538,SCENE 7121 S RI,1,,,,,,,,,,
3539,SCENE 7122 S VI,1,,,,,,,,,,
3540,SCENE 7124 S PA,1,,,,,,,,,,
3541,SCENE 7125 S. H,1,,,,,,,,,,
3542,SCENE 7125 SOUT,1,,,,,,,,,,
3543,SCENE 7128 S MA,1,,,,,,,,,,
3544,SCENE 7129 S CH,1,,,,,,,,,,
3545,SCENE 7130 S. J,1,,,,,,,,,,
3546,SCENE 7137 S GR,1,,,,,,,,,,
3547,SCENE 714 S. KE,1,,,,,,,,,,
3548,SCENE 7140 S. K,1,,,,,,,,,,
3549,SCENE 7142 SOUT,1,,,,,,,,,,
3550,SCENE 7145 HERM,1,,,,,,,,,,
3551,SCENE 7147 S CA,1,,,,,,,,,,
3552,SCENE 7148 S VI,1,,,,,,,,,,
3553,SCENE 7150 S. P,1,,,,,,,,,,
3554,SCENE 7151 W 18,1,,,,,,,,,,
3555,SCENE 7156 SOUT,1,,,,,,,,,,
3556,SCENE 7158 SOUT,1,,,,,,,,,,
3557,SCENE 7159 S BE,1,,,,,,,,,,
3558,SCENE 716 E 79T,1,,,,,,,,,,
3559,SCENE 716 MONRO,1,,,,,,,,,,
3560,SCENE 716 SOUH,1,,,,,,,,,,
3561,SCENE 716 W. 66,1,,,,,,,,,,
3562,SCENE 719 NORTH,1,,,,,,,,,,
3563,SCENE 7193 WEST,1,,,,,,,,,,
3564,SCENE 720 E. 79,1,,,,,,,,,,
3565,SCENE 720 W 61S,1,,,,,,,,,,
3566,SCENE 720 W. 70,1,,,,,,,,,,
3567,SCENE 7200 S BI,1,,,,,,,,,,
3568,SCENE 7200 S HA,1,,,,,,,,,,
3569,SCENE 7200 S. M,1,,,,,,,,,,
3570,SCENE 7202 S. I,1,,,,,,,,,,
3571,SCENE 7207 SOUT,1,,,,,,,,,,
3572,SCENE 721 E 103,1,,,,,,,,,,
3573,SCENE 7211 S SA,1,,,,,,,,,,
3574,SCENE 7217 S CA,1,,,,,,,,,,
3575,SCENE 7219 S AR,1,,,,,,,,,,
3576,SCENE 722 OAK S,1,,,,,,,,,,
3577,SCENE 722 W 87T,1,,,,,,,,,,
3578,SCENE 7220 S EX,1,,,,,,,,,,
3579,SCENE 7220 S. M,1,,,,,,,,,,
3580,SCENE 7221 S CA,1,,,,,,,,,,
3581,SCENE 7221 S MA,1,,,,,,,,,,
3582,SCENE 7221 S MO,1,,,,,,,,,,
3583,SCENE 7222 S. R,1,,,,,,,,,,
3584,SCENE 723 W 64T,1,,,,,,,,,,
3585,SCENE 7230 S. W,1,,,,,,,,,,
3586,SCENE 7231 S RA,1,,,,,,,,,,
3587,SCENE 7237 S RI,1,,,,,,,,,,
3588,SCENE 7238 S CO,1,,,,,,,,,,
3589,SCENE 724 E 91S,1,,,,,,,,,,
3590,SCENE 7244 S. P,1,,,,,,,,,,
3591,SCENE 725 E 79T,1,,,,,,,,,,
3592,SCENE 725 W 53R,1,,,,,,,,,,
3593,SCENE 7250 N KE,1,,,,,,,,,,
3594,SCENE 7253 SOUT,1,,,,,,,,,,
3595,SCENE 7254 S MO,1,,,,,,,,,,
3596,SCENE 7254 S. J,1,,,,,,,,,,
3597,SCENE 727 E 50T,1,,,,,,,,,,
3598,SCENE 728  E 10,1,,,,,,,,,,
3599,SCENE 729 N. PI,1,,,,,,,,,,
3600,SCENE 730 W 21S,1,,,,,,,,,,
3601,SCENE 7300 S. K,1,,,,,,,,,,
3602,SCENE 7301 S WI,1,,,,,,,,,,
3603,SCENE 7308 S EM,1,,,,,,,,,,
3604,SCENE 731 E. 50,1,,,,,,,,,,
3605,SCENE 7311 E 69,1,,,,,,,,,,
3606,SCENE 732 E 133,1,,,,,,,,,,
3607,SCENE 732 N AUS,1,,,,,,,,,,
3608,SCENE 732 N. HA,1,,,,,,,,,,
3609,SCENE 733 E 132,1,,,,,,,,,,
3610,SCENE 733 E 92N,1,,,,,,,,,,
3611,SCENE 733 N. GR,1,,,,,,,,,,
3612,SCENE 733 W. 17,1,,,,,,,,,,
3613,SCENE 7330 S WA,1,,,,,,,,,,
3614,SCENE 7333 S. L,1,,,,,,,,,,
3615,SCENE 7335 S. M,1,,,,,,,,,,
3616,SCENE 7338 WABA,1,,,,,,,,,,
3617,SCENE 734 E 103,1,,,,,,,,,,
3618,SCENE 734 N CIC,1,,,,,,,,,,
3619,SCENE 734 N HOM,1,,,,,,,,,,
3620,SCENE 7340 S RI,1,,,,,,,,,,
3621,SCENE 7344 S. E,1,,,,,,,,,,
3622,SCENE 7345 S. S,1,,,,,,,,,,
3623,SCENE 7347 S. 8,1,,,,,,,,,,
3624,SCENE 7348 S HA,1,,,,,,,,,,
3625,SCENE 7349 S OA,1,,,,,,,,,,
3626,SCENE 735 NORTH,1,,,,,,,,,,
3627,SCENE 735 SOUTH,1,,,,,,,,,,
3628,SCENE 7351 N PA,1,,,,,,,,,,
3629,SCENE 7354 S WA,1,,,,,,,,,,
3630,SCENE 7356 S DO,1,,,,,,,,,,
3631,SCENE 7358 S. W,1,,,,,,,,,,
3632,SCENE 7359 S PR,1,,,,,,,,,,
3633,SCENE 7380 N DA,1,,,,,,,,,,
3634,SCENE 739 E.87T,1,,,,,,,,,,
3635,SCENE 740 E 61,1,,,,,,,,,,
3636,SCENE 740 S KOS,1,,,,,,,,,,
3637,SCENE 7400 S KI,1,,,,,,,,,,
3638,SCENE 7400 S RA,1,,,,,,,,,,
3639,SCENE 7400 S. C,1,,,,,,,,,,
3640,SCENE 7403 S. H,1,,,,,,,,,,
3641,SCENE 7406 S. K,1,,,,,,,,,,
3642,SCENE 741 E BOW,1,,,,,,,,,,
3643,SCENE 7415 S KI,1,,,,,,,,,,
3644,SCENE 742 NORTH,1,,,,,,,,,,
3645,SCENE 7422 S PE,1,,,,,,,,,,
3646,SCENE 7423 S EV,1,,,,,,,,,,
3647,SCENE 7423 S YA,1,,,,,,,,,,
3648,SCENE 7425 S DO,1,,,,,,,,,,
3649,SCENE 7425 S NO,1,,,,,,,,,,
3650,SCENE 7425 S WE,1,,,,,,,,,,
3651,SCENE 7427 S WE,1,,,,,,,,,,
3652,SCENE 743 N SPR,1,,,,,,,,,,
3653,SCENE 743 W 49T,1,,,,,,,,,,
3654,SCENE 7430 N. P,1,,,,,,,,,,
3655,SCENE 7430 S SA,1,,,,,,,,,,
3656,SCENE 7431 S KI,1,,,,,,,,,,
3657,SCENE 7431 S ME,1,,,,,,,,,,
3658,SCENE 7438 SOUT,1,,,,,,,,,,
3659,SCENE 744 WEST,1,,,,,,,,,,
3660,SCENE 7440 S OG,1,,,,,,,,,,
3661,SCENE 7440 S PR,1,,,,,,,,,,
3662,SCENE 7444 S EM,1,,,,,,,,,,
3663,SCENE 7445 S EB,1,,,,,,,,,,
3664,SCENE 7445 SOUT,1,,,,,,,,,,
3665,SCENE 7447 S PA,1,,,,,,,,,,
3666,SCENE 7449 S. C,1,,,,,,,,,,
3667,SCENE 7450 S. K,1,,,,,,,,,,
3668,SCENE 747 E 92N,1,,,,,,,,,,
3669,SCENE 748 E 89T,1,,,,,,,,,,
3670,SCENE 748 N LAW,1,,,,,,,,,,
3671,SCENE 748 W. IR,1,,,,,,,,,,
3672,SCENE 749 TRACE,1,,,,,,,,,,
3673,SCENE 750 N. DE,1,,,,,,,,,,
3674,SCENE 750 W ALG,1,,,,,,,,,,
3675,SCENE 7500 S CO,1,,,,,,,,,,
3676,SCENE 7500 S. M,1,,,,,,,,,,
3677,SCENE 7501 S. H,1,,,,,,,,,,
3678,SCENE 7509 S CO,1,,,,,,,,,,
3679,SCENE 751 W 61S,1,,,,,,,,,,
3680,SCENE 7511 S KI,1,,,,,,,,,,
3681,SCENE 7512 N. G,1,,,,,,,,,,
3682,SCENE 7516 S AB,1,,,,,,,,,,
3683,SCENE 7516 S VE,1,,,,,,,,,,
3684,SCENE 7517 SOUT,1,,,,,,,,,,
3685,SCENE 7519 S GR,1,,,,,,,,,,
3686,SCENE 752 FRANC,1,,,,,,,,,,
3687,SCENE 752 N CEN,1,,,,,,,,,,
3688,SCENE 7520 S HA,1,,,,,,,,,,
3689,SCENE 7524 S. U,1,,,,,,,,,,
3690,SCENE 7530 S PA,1,,,,,,,,,,
3691,SCENE 7532 S MA,1,,,,,,,,,,
3692,SCENE 7533 S. K,1,,,,,,,,,,
3693,SCENE 7543 S SA,1,,,,,,,,,,
3694,SCENE 7547 S GR,1,,,,,,,,,,
3695,SCENE 755 E 76T,1,,,,,,,,,,
3696,SCENE 7550 S RI,1,,,,,,,,,,
3697,SCENE 756 N HAM,1,,,,,,,,,,
3698,SCENE 7563 NORT,1,,,,,,,,,,
3699,SCENE 757 SOUTH,1,,,,,,,,,,
3700,SCENE 76 EAST 1,1,,,,,,,,,,
3701,SCENE 7600 N. S,1,,,,,,,,,,
3702,SCENE 7600 S AL,1,,,,,,,,,,
3703,SCENE 7600 S PA,1,,,,,,,,,,
3704,SCENE 7606 S. U,1,,,,,,,,,,
3705,SCENE 7609 S. H,1,,,,,,,,,,
3706,SCENE 7616 SOUT,1,,,,,,,,,,
3707,SCENE 7619 S PA,1,,,,,,,,,,
3708,SCENE 7620 S EM,1,,,,,,,,,,
3709,SCENE 7621 S GR,1,,,,,,,,,,
3710,SCENE 7625 S W,1,,,,,,,,,,
3711,SCENE 7626 S CO,1,,,,,,,,,,
3712,SCENE 7628 S. E,1,,,,,,,,,,
3713,SCENE 7638 S CO,1,,,,,,,,,,
3714,SCENE 764 E 131,1,,,,,,,,,,
3715,SCENE 7641 S DR,1,,,,,,,,,,
3716,SCENE 7641 S. B,1,,,,,,,,,,
3717,SCENE 7649 S EM,1,,,,,,,,,,
3718,SCENE 7652 EGGL,1,,,,,,,,,,
3719,SCENE 7655 S. P,1,,,,,,,,,,
3720,SCENE 7700 S PE,1,,,,,,,,,,
3721,SCENE 7700 S SO,1,,,,,,,,,,
3722,SCENE 7700 S ST,1,,,,,,,,,,
3723,SCENE 7701 S PA,1,,,,,,,,,,
3724,SCENE 7704 S. H,1,,,,,,,,,,
3725,SCENE 7708 SOUT,1,,,,,,,,,,
3726,SCENE 7712 S SH,1,,,,,,,,,,
3727,SCENE 7717 S HO,1,,,,,,,,,,
3728,SCENE 7721 SOUT,1,,,,,,,,,,
3729,SCENE 7728 S AS,1,,,,,,,,,,
3730,SCENE 7730 S CA,1,,,,,,,,,,
3731,SCENE 7735 SKED,1,,,,,,,,,,
3732,SCENE 7736 S WI,1,,,,,,,,,,
3733,SCENE 7739  W C,1,,,,,,,,,,
3734,SCENE 7742 S CA,1,,,,,,,,,,
3735,SCENE 7744 S RH,1,,,,,,,,,,
3736,SCENE 7755 S CA,1,,,,,,,,,,
3737,SCENE 7755 S PE,1,,,,,,,,,,
3738,SCENE 7759 S UN,1,,,,,,,,,,
3739,SCENE 7801 S HE,1,,,,,,,,,,
3740,SCENE 7801 S. W,1,,,,,,,,,,
3741,SCENE 7801 SOUT,1,,,,,,,,,,
3742,SCENE 7804 SOUT,1,,,,,,,,,,
3743,SCENE 7807 S. U,1,,,,,,,,,,
3744,SCENE 7810 S MA,1,,,,,,,,,,
3745,SCENE 7812 S LA,1,,,,,,,,,,
3746,SCENE 7812 S NO,1,,,,,,,,,,
3747,SCENE 7818  S W,1,,,,,,,,,,
3748,SCENE 7818 S WO,1,,,,,,,,,,
3749,SCENE 7819 S CA,1,,,,,,,,,,
3750,SCENE 7820 S SH,1,,,,,,,,,,
3751,SCENE 7826 S MA,1,,,,,,,,,,
3752,SCENE 7830 S SA,1,,,,,,,,,,
3753,SCENE 7830 S. Y,1,,,,,,,,,,
3754,SCENE 7832 S IN,1,,,,,,,,,,
3755,SCENE 7834 S. G,1,,,,,,,,,,
3756,SCENE 7835 W WI,1,,,,,,,,,,
3757,SCENE 7842 S WI,1,,,,,,,,,,
3758,SCENE 7847 S DO,1,,,,,,,,,,
3759,SCENE 7848 W.FR,1,,,,,,,,,,
3760,SCENE 7850 S EM,1,,,,,,,,,,
3761,SCENE 7850 S VE,1,,,,,,,,,,
3762,SCENE 7855 SOUT,1,,,,,,,,,,
3763,SCENE 7858 S. W,1,,,,,,,,,,
3764,SCENE 7859 S. L,1,,,,,,,,,,
3765,SCENE 7900 S WE,1,,,,,,,,,,
3766,SCENE 7900 S. E,1,,,,,,,,,,
3767,SCENE 7900 S.ES,1,,,,,,,,,,
3768,SCENE 7900 SOUT,1,,,,,,,,,,
3769,SCENE 7904 S VI,1,,,,,,,,,,
3770,SCENE 7907 S LA,1,,,,,,,,,,
3771,SCENE 7907 SOUT,1,,,,,,,,,,
3772,SCENE 7909 S OG,1,,,,,,,,,,
3773,SCENE 7910 S TR,1,,,,,,,,,,
3774,SCENE 7913 S. H,1,,,,,,,,,,
3775,SCENE 7914 S. C,1,,,,,,,,,,
3776,SCENE 7915 S. A,1,,,,,,,,,,
3777,SCENE 7915 S. C,1,,,,,,,,,,
3778,SCENE 7919 S WI,1,,,,,,,,,,
3779,SCENE 7920 S. P,1,,,,,,,,,,
3780,SCENE 7921 S PA,1,,,,,,,,,,
3781,SCENE 7922 S MA,1,,,,,,,,,,
3782,SCENE 7925 S WO,1,,,,,,,,,,
3783,SCENE 7929 S SH,1,,,,,,,,,,
3784,SCENE 7929 S ST,1,,,,,,,,,,
3785,SCENE 7930 S. G,1,,,,,,,,,,
3786,SCENE 7933 S. W,1,,,,,,,,,,
3787,SCENE 7935 S ST,1,,,,,,,,,,
3788,SCENE 7938 S LO,1,,,,,,,,,,
3789,SCENE 7938 S. V,1,,,,,,,,,,
3790,SCENE 7938 SOUT,1,,,,,,,,,,
3791,SCENE 7940 S. C,1,,,,,,,,,,
3792,SCENE 7942 SOUT,1,,,,,,,,,,
3793,SCENE 7947 S PR,1,,,,,,,,,,
3794,SCENE 7948 SOU,1,,,,,,,,,,
3795,SCENE 7949 S CA,1,,,,,,,,,,
3796,SCENE 7949 S. D,1,,,,,,,,,,
3797,SCENE 7951 S HE,1,,,,,,,,,,
3798,SCENE 7955 S CH,1,,,,,,,,,,
3799,SCENE 7958 S LA,1,,,,,,,,,,
3800,SCENE 7959 S MU,1,,,,,,,,,,
3801,SCENE 800 N GRE,1,,,,,,,,,,
3802,SCENE 800 N LAW,1,,,,,,,,,,
3803,SCENE 800 N SPA,1,,,,,,,,,,
3804,SCENE 800 S WEL,1,,,,,,,,,,
3805,SCENE 800 SANGA,1,,,,,,,,,,
3806,SCENE 8000 S SA,1,,,,,,,,,,
3807,SCENE 8002 S LA,1,,,,,,,,,,
3808,SCENE 8004 S. S,1,,,,,,,,,,
3809,SCENE 8004 SOUT,1,,,,,,,,,,
3810,SCENE 8008 S ES,1,,,,,,,,,,
3811,SCENE 8011 S MC,1,,,,,,,,,,
3812,SCENE 8012 S HA,1,,,,,,,,,,
3813,SCENE 8016 S. W,1,,,,,,,,,,
3814,SCENE 8019 S SO,1,,,,,,,,,,
3815,SCENE 802 E. 79,1,,,,,,,,,,
3816,SCENE 8023 S IN,1,,,,,,,,,,
3817,SCENE 8024 S ST,1,,,,,,,,,,
3818,SCENE 8027 S EV,1,,,,,,,,,,
3819,SCENE 8027 S PR,1,,,,,,,,,,
3820,SCENE 8028 S NO,1,,,,,,,,,,
3821,SCENE 8028 S. B,1,,,,,,,,,,
3822,SCENE 8029 S DO,1,,,,,,,,,,
3823,SCENE 8030 S LA,1,,,,,,,,,,
3824,SCENE 8031 S. W,1,,,,,,,,,,
3825,SCENE 8038 SOUT,1,,,,,,,,,,
3826,SCENE 804 E 130,1,,,,,,,,,,
3827,SCENE 804 E 79T,1,,,,,,,,,,
3828,SCENE 804 N.RIC,1,,,,,,,,,,
3829,SCENE 804 S HA,1,,,,,,,,,,
3830,SCENE 8044 S. S,1,,,,,,,,,,
3831,SCENE 8046 S MI,1,,,,,,,,,,
3832,SCENE 8046 S SP,1,,,,,,,,,,
3833,SCENE 8050 S IN,1,,,,,,,,,,
3834,SCENE 8052 S. E,1,,,,,,,,,,
3835,SCENE 8057 SOUT,1,,,,,,,,,,
3836,SCENE 8058 S EL,1,,,,,,,,,,
3837,SCENE 8058 S IN,1,,,,,,,,,,
3838,SCENE 806 N ST,1,,,,,,,,,,
3839,SCENE 8061 COTT,1,,,,,,,,,,
3840,SCENE 8061 S CO,1,,,,,,,,,,
3841,SCENE 807 S 12T,1,,,,,,,,,,
3842,SCENE 809 ALCOA,1,,,,,,,,,,
3843,SCENE 8106 S. P,1,,,,,,,,,,
3844,SCENE 8108 S CO,1,,,,,,,,,,
3845,SCENE 8109 SOUT,1,,,,,,,,,,
3846,SCENE 811 E.77S,1,,,,,,,,,,
3847,SCENE 8111 S EL,1,,,,,,,,,,
3848,SCENE 8116 S HO,1,,,,,,,,,,
3849,SCENE 812 121ST,1,,,,,,,,,,
3850,SCENE 8121 S PE,1,,,,,,,,,,
3851,SCENE 8125 S MU,1,,,,,,,,,,
3852,SCENE 8129 S EB,1,,,,,,,,,,
3853,SCENE 8130 SOUT,1,,,,,,,,,,
3854,SCENE 8132 S GR,1,,,,,,,,,,
3855,SCENE 8139 SOUT,1,,,,,,,,,,
3856,SCENE 814 E 75T,1,,,,,,,,,,
3857,SCENE 814 N. LE,1,,,,,,,,,,
3858,SCENE 8140 S. D,1,,,,,,,,,,
3859,SCENE 8142 S. M,1,,,,,,,,,,
3860,SCENE 8147 S. H,1,,,,,,,,,,
3861,SCENE 815 W 112,1,,,,,,,,,,
3862,SCENE 815 W 99T,1,,,,,,,,,,
3863,SCENE 8150 S.,1,,,,,,,,,,
3864,SCENE 8151 S. W,1,,,,,,,,,,
3865,SCENE 8158 S. P,1,,,,,,,,,,
3866,SCENE 816 N. CA,1,,,,,,,,,,
3867,SCENE 816 N. ST,1,,,,,,,,,,
3868,SCENE 817 E 80T,1,,,,,,,,,,
3869,SCENE 817 PARKW,1,,,,,,,,,,
3870,SCENE 817 S 6TH,1,,,,,,,,,,
3871,SCENE 817 SOUTH,1,,,,,,,,,,
3872,SCENE 817 W 51S,1,,,,,,,,,,
3873,SCENE 819 S CAM,1,,,,,,,,,,
3874,SCENE 82 W. 21S,1,,,,,,,,,,
3875,SCENE 820 N WAL,1,,,,,,,,,,
3876,SCENE 820 N. PA,1,,,,,,,,,,
3877,SCENE 820 N.ST.,1,,,,,,,,,,
3878,SCENE 820 W. 59,1,,,,,,,,,,
3879,SCENE 8200 S EL,1,,,,,,,,,,
3880,SCENE 8200 S. E,1,,,,,,,,,,
3881,SCENE 8202 S CO,1,,,,,,,,,,
3882,SCENE 8206 S KI,1,,,,,,,,,,
3883,SCENE 8206 S SH,1,,,,,,,,,,
3884,SCENE 821 S WES,1,,,,,,,,,,
3885,SCENE 8212 S LA,1,,,,,,,,,,
3886,SCENE 8214 S JU,1,,,,,,,,,,
3887,SCENE 8214 S. E,1,,,,,,,,,,
3888,SCENE 8215 S MA,1,,,,,,,,,,
3889,SCENE 8217 S CL,1,,,,,,,,,,
3890,SCENE 8219 S AB,1,,,,,,,,,,
3891,SCENE 8220 S WA,1,,,,,,,,,,
3892,SCENE 8221 S. S,1,,,,,,,,,,
3893,SCENE 8222 S DO,1,,,,,,,,,,
3894,SCENE 8228 S SH,1,,,,,,,,,,
3895,SCENE 823 E 45T,1,,,,,,,,,,
3896,SCENE 823 W 118,1,,,,,,,,,,
3897,SCENE 8234 S. E,1,,,,,,,,,,
3898,SCENE 8235 S MA,1,,,,,,,,,,
3899,SCENE 8237 S. C,1,,,,,,,,,,
3900,SCENE 8241 S. E,1,,,,,,,,,,
3901,SCENE 8242 S EL,1,,,,,,,,,,
3902,SCENE 8244 S BU,1,,,,,,,,,,
3903,SCENE 8246 S TH,1,,,,,,,,,,
3904,SCENE 8248 S R,1,,,,,,,,,,
3905,SCENE 8249 SOUT,1,,,,,,,,,,
3906,SCENE 825 N. CO,1,,,,,,,,,,
3907,SCENE 8255 S BU,1,,,,,,,,,,
3908,SCENE 826 W 50T,1,,,,,,,,,,
3909,SCENE 828 E 80T,1,,,,,,,,,,
3910,SCENE 830 E 80T,1,,,,,,,,,,
3911,SCENE 830 ELDER,1,,,,,,,,,,
3912,SCENE 830 S. LY,1,,,,,,,,,,
3913,SCENE 8309 PEO,1,,,,,,,,,,
3914,SCENE 8309 S RA,1,,,,,,,,,,
3915,SCENE 8312 S DR,1,,,,,,,,,,
3916,SCENE 8316 S.79,1,,,,,,,,,,
3917,SCENE 832 E 82N,1,,,,,,,,,,
3918,SCENE 8320 S RA,1,,,,,,,,,,
3919,SCENE 8328 S CO,1,,,,,,,,,,
3920,SCENE 833 W WIN,1,,,,,,,,,,
3921,SCENE 8345 S BR,1,,,,,,,,,,
3922,SCENE 8345 SOUT,1,,,,,,,,,,
3923,SCENE 8354 S CO,1,,,,,,,,,,
3924,SCENE 8354 S MU,1,,,,,,,,,,
3925,SCENE 8356 S LA,1,,,,,,,,,,
3926,SCENE 8368 S BA,1,,,,,,,,,,
3927,SCENE 840 E 74T,1,,,,,,,,,,
3928,SCENE 840 E 82N,1,,,,,,,,,,
3929,SCENE 8408 S MU,1,,,,,,,,,,
3930,SCENE 8408 SOUT,1,,,,,,,,,,
3931,SCENE 841 E 47T,1,,,,,,,,,,
3932,SCENE 8411 S CA,1,,,,,,,,,,
3933,SCENE 8412 S MA,1,,,,,,,,,,
3934,SCENE 8414 S KE,1,,,,,,,,,,
3935,SCENE 8416 S PA,1,,,,,,,,,,
3936,SCENE 8423 S SO,1,,,,,,,,,,
3937,SCENE 8423 S ST,1,,,,,,,,,,
3938,SCENE 843 WEST,1,,,,,,,,,,
3939,SCENE 8430 S CR,1,,,,,,,,,,
3940,SCENE 8430 S. P,1,,,,,,,,,,
3941,SCENE 844 E 88T,1,,,,,,,,,,
3942,SCENE 8445 S MU,1,,,,,,,,,,
3943,SCENE 8450 S BU,1,,,,,,,,,,
3944,SCENE 8458 S. K,1,,,,,,,,,,
3945,SCENE 8459 S. E,1,,,,,,,,,,
3946,SCENE 846 N CLE,1,,,,,,,,,,
3947,SCENE 847 N MIL,1,,,,,,,,,,
3948,SCENE 850 W CUY,1,,,,,,,,,,
3949,SCENE 8500 S. M,1,,,,,,,,,,
3950,SCENE 8506 S CO,1,,,,,,,,,,
3951,SCENE 8509 S KI,1,,,,,,,,,,
3952,SCENE 8511 S ST,1,,,,,,,,,,
3953,SCENE 8512 S. E,1,,,,,,,,,,
3954,SCENE 8519 S MU,1,,,,,,,,,,
3955,SCENE 852 N LAW,1,,,,,,,,,,
3956,SCENE 8522 S MA,1,,,,,,,,,,
3957,SCENE 8523 S MA,1,,,,,,,,,,
3958,SCENE 8525 S HE,1,,,,,,,,,,
3959,SCENE 8526 S. H,1,,,,,,,,,,
3960,SCENE 8537 S MA,1,,,,,,,,,,
3961,SCENE 854 N HOM,1,,,,,,,,,,
3962,SCENE 8540 S CI,1,,,,,,,,,,
3963,SCENE 8545 S. P,1,,,,,,,,,,
3964,SCENE 8548 S SA,1,,,,,,,,,,
3965,SCENE 8550 S. C,1,,,,,,,,,,
3966,SCENE 8552 S SE,1,,,,,,,,,,
3967,SCENE 8601 S PH,1,,,,,,,,,,
3968,SCENE 861 BODE,1,,,,,,,,,,
3969,SCENE 8611 E. G,1,,,,,,,,,,
3970,SCENE 8611 S BI,1,,,,,,,,,,
3971,SCENE 8612 S LA,1,,,,,,,,,,
3972,SCENE 8620 S PA,1,,,,,,,,,,
3973,SCENE 8626 S VE,1,,,,,,,,,,
3974,SCENE 8631 CARP,1,,,,,,,,,,
3975,SCENE 8633 S. L,1,,,,,,,,,,
3976,SCENE 8639 S KI,1,,,,,,,,,,
3977,SCENE 8642 S LA,1,,,,,,,,,,
3978,SCENE 8643 S EX,1,,,,,,,,,,
3979,SCENE 8644 S. C,1,,,,,,,,,,
3980,SCENE 8650 S AS,1,,,,,,,,,,
3981,SCENE 8656 S PH,1,,,,,,,,,,
3982,SCENE 8658 S. M,1,,,,,,,,,,
3983,SCENE 866 N. OR,1,,,,,,,,,,
3984,SCENE 8700  S W,1,,,,,,,,,,
3985,SCENE 8700 S EX,1,,,,,,,,,,
3986,SCENE 8700 S MA,1,,,,,,,,,,
3987,SCENE 8701 SOUT,1,,,,,,,,,,
3988,SCENE 8708 S. T,1,,,,,,,,,,
3989,SCENE 8709 S MA,1,,,,,,,,,,
3990,SCENE 8714 S. M,1,,,,,,,,,,
3991,SCENE 8715 S. J,1,,,,,,,,,,
3992,SCENE 8718 S PA,1,,,,,,,,,,
3993,SCENE 8718 S SA,1,,,,,,,,,,
3994,SCENE 8718 S. C,1,,,,,,,,,,
3995,SCENE 8723 S EG,1,,,,,,,,,,
3996,SCENE 8736 S. W,1,,,,,,,,,,
3997,SCENE 8738 S. M,1,,,,,,,,,,
3998,SCENE 8746 W. O,1,,,,,,,,,,
3999,SCENE 8747 S. E,1,,,,,,,,,,
4000,SCENE 8751 S LO,1,,,,,,,,,,
4001,SCENE 8756 S. C,1,,,,,,,,,,
4002,SCENE 878 N. FR,1,,,,,,,,,,
4003,SCENE 87TH & KE,1,,,,,,,,,,
4004,SCENE 87TH STRE,1,,,,,,,,,,
4005,SCENE 8803 W 83,1,,,,,,,,,,
4006,SCENE 8804 S. D,1,,,,,,,,,,
4007,SCENE 8814 S BU,1,,,,,,,,,,
4008,SCENE 8820 S. S,1,,,,,,,,,,
4009,SCENE 8821 S PR,1,,,,,,,,,,
4010,SCENE 8821 S. E,1,,,,,,,,,,
4011,SCENE 8821 SOUT,1,,,,,,,,,,
4012,SCENE 8826 S CO,1,,,,,,,,,,
4013,SCENE 8830 S MI,1,,,,,,,,,,
4014,SCENE 8832 SOUT,1,,,,,,,,,,
4015,SCENE 8833 GROS,1,,,,,,,,,,
4016,SCENE 8833 S BU,1,,,,,,,,,,
4017,SCENE 8833 S EX,1,,,,,,,,,,
4018,SCENE 8837 S PR,1,,,,,,,,,,
4019,SCENE 8841 S. M,1,,,,,,,,,,
4020,SCENE 8845 S CO,1,,,,,,,,,,
4021,SCENE 8851 S. I,1,,,,,,,,,,
4022,SCENE 8858 S EX,1,,,,,,,,,,
4023,SCENE 8901 S. C,1,,,,,,,,,,
4024,SCENE 8901 W. L,1,,,,,,,,,,
4025,SCENE 8913 S MU,1,,,,,,,,,,
4026,SCENE 8918 S MA,1,,,,,,,,,,
4027,SCENE 8919 S. H,1,,,,,,,,,,
4028,SCENE 8923 S. C,1,,,,,,,,,,
4029,SCENE 8925 S 79,1,,,,,,,,,,
4030,SCENE 8940 S LA,1,,,,,,,,,,
4031,SCENE 8941 SOUT,1,,,,,,,,,,
4032,SCENE 8944 S. B,1,,,,,,,,,,
4033,SCENE 8961  S L,1,,,,,,,,,,
4034,SCENE 8961 S. L,1,,,,,,,,,,
4035,SCENE 900 N LAM,1,,,,,,,,,,
4036,SCENE 9003 S MA,1,,,,,,,,,,
4037,SCENE 9008 S. M,1,,,,,,,,,,
4038,SCENE 9008 SOUT,1,,,,,,,,,,
4039,SCENE 9017 SOUT,1,,,,,,,,,,
4040,SCENE 9025 S PL,1,,,,,,,,,,
4041,SCENE 9027 S RI,1,,,,,,,,,,
4042,SCENE 9028 PITA,1,,,,,,,,,,
4043,SCENE 903  S. I,1,,,,,,,,,,
4044,SCENE 903 S ADA,1,,,,,,,,,,
4045,SCENE 9030 S EL,1,,,,,,,,,,
4046,SCENE 9032 S DO,1,,,,,,,,,,
4047,SCENE 9038 S AS,1,,,,,,,,,,
4048,SCENE 9039 S. R,1,,,,,,,,,,
4049,SCENE 904 WEST,1,,,,,,,,,,
4050,SCENE 9041 S. U,1,,,,,,,,,,
4051,SCENE 9041 SOUT,1,,,,,,,,,,
4052,SCENE 9045 S RA,1,,,,,,,,,,
4053,SCENE 905 N. KE,1,,,,,,,,,,
4054,SCENE 9057 S EA,1,,,,,,,,,,
4055,SCENE 9058 SOUT,1,,,,,,,,,,
4056,SCENE 909 N. DR,1,,,,,,,,,,
4057,SCENE 91 E. 150,1,,,,,,,,,,
4058,SCENE 910 N. RI,1,,,,,,,,,,
4059,SCENE 910 W 61S,1,,,,,,,,,,
4060,SCENE 910 W 87T,1,,,,,,,,,,
4061,SCENE 9101 S ST,1,,,,,,,,,,
4062,SCENE 9104 SOUT,1,,,,,,,,,,
4063,SCENE 9105 S. A,1,,,,,,,,,,
4064,SCENE 9110 GRAN,1,,,,,,,,,,
4065,SCENE 9111 S RA,1,,,,,,,,,,
4066,SCENE 9113 S PR,1,,,,,,,,,,
4067,SCENE 9114 S. L,1,,,,,,,,,,
4068,SCENE 9118 S DA,1,,,,,,,,,,
4069,SCENE 9118 S WI,1,,,,,,,,,,
4070,SCENE 9118 S. O,1,,,,,,,,,,
4071,SCENE 912 N 7TH,1,,,,,,,,,,
4072,SCENE 9127 SOUT,1,,,,,,,,,,
4073,SCENE 9130 S CH,1,,,,,,,,,,
4074,SCENE 9132 S HA,1,,,,,,,,,,
4075,SCENE 9137 S. A,1,,,,,,,,,,
4076,SCENE 914 RAILR,1,,,,,,,,,,
4077,SCENE 9142 S BA,1,,,,,,,,,,
4078,SCENE 9147 S BA,1,,,,,,,,,,
4079,SCENE 915 BURNH,1,,,,,,,,,,
4080,SCENE 915 N. LA,1,,,,,,,,,,
4081,SCENE 9151  S J,1,,,,,,,,,,
4082,SCENE 917 E PER,1,,,,,,,,,,
4083,SCENE 921 N. KA,1,,,,,,,,,,
4084,SCENE 9211 S HA,1,,,,,,,,,,
4085,SCENE 9216 S AD,1,,,,,,,,,,
4086,SCENE 9219 S WO,1,,,,,,,,,,
4087,SCENE 922 W 67T,1,,,,,,,,,,
4088,SCENE 9223 S. B,1,,,,,,,,,,
4089,SCENE 9227 S MA,1,,,,,,,,,,
4090,SCENE 9230 S MA,1,,,,,,,,,,
4091,SCENE 9232 S CH,1,,,,,,,,,,
4092,SCENE 9236 S DR,1,,,,,,,,,,
4093,SCENE 924  N  C,1,,,,,,,,,,
4094,SCENE 9244 S CH,1,,,,,,,,,,
4095,SCENE 9250 S ME,1,,,,,,,,,,
4096,SCENE 9253 S ST,1,,,,,,,,,,
4097,SCENE 9259 S EG,1,,,,,,,,,,
4098,SCENE 927 W 54,1,,,,,,,,,,
4099,SCENE 927 W54TH,1,,,,,,,,,,
4100,SCENE 928 W. EA,1,,,,,,,,,,
4101,SCENE 929 N DRA,1,,,,,,,,,,
4102,SCENE 929 N HUD,1,,,,,,,,,,
4103,SCENE 930 EA,1,,,,,,,,,,
4104,SCENE 9301 S PR,1,,,,,,,,,,
4105,SCENE 9307 S WO,1,,,,,,,,,,
4106,SCENE 932 W. GA,1,,,,,,,,,,
4107,SCENE 9344 S GR,1,,,,,,,,,,
4108,SCENE 9347 S EM,1,,,,,,,,,,
4109,SCENE 935 N CAM,1,,,,,,,,,,
4110,SCENE 9351 S. L,1,,,,,,,,,,
4111,SCENE 9359 S. P,1,,,,,,,,,,
4112,SCENE 936 EAST,1,,,,,,,,,,
4113,SCENE 937 E. 81,1,,,,,,,,,,
4114,SCENE 937 W. SH,1,,,,,,,,,,
4115,SCENE 939 N PUL,1,,,,,,,,,,
4116,SCENE 94 SOUTHB,1,,,,,,,,,,
4117,SCENE 940 W 73R,1,,,,,,,,,,
4118,SCENE 9401 N. K,1,,,,,,,,,,
4119,SCENE 9401 S LA,1,,,,,,,,,,
4120,SCENE 9401 SOUT,1,,,,,,,,,,
4121,SCENE 941 W 71S,1,,,,,,,,,,
4122,SCENE 942 S. MA,1,,,,,,,,,,
4123,SCENE 9425 S. A,1,,,,,,,,,,
4124,SCENE 9428 S LA,1,,,,,,,,,,
4125,SCENE 9437 S LA,1,,,,,,,,,,
4126,SCENE 944 N LON,1,,,,,,,,,,
4127,SCENE 9441 W DE,1,,,,,,,,,,
4128,SCENE 9442 S PE,1,,,,,,,,,,
4129,SCENE 945 N PUL,1,,,,,,,,,,
4130,SCENE 945 WEST,1,,,,,,,,,,
4131,SCENE 946 E 75T,1,,,,,,,,,,
4132,SCENE 946 N LAR,1,,,,,,,,,,
4133,SCENE 947 N CIC,1,,,,,,,,,,
4134,SCENE 947 W 83R,1,,,,,,,,,,
4135,SCENE 949 E 84T,1,,,,,,,,,,
4136,SCENE 949 W 58T,1,,,,,,,,,,
4137,SCENE 950 E 31S,1,,,,,,,,,,
4138,SCENE 950 N PAR,1,,,,,,,,,,
4139,SCENE 950 NORTH,1,,,,,,,,,,
4140,SCENE 950 WEST,1,,,,,,,,,,
4141,SCENE 9500 S CO,1,,,,,,,,,,
4142,SCENE 951 S. CE,1,,,,,,,,,,
4143,SCENE 9514 S GR,1,,,,,,,,,,
4144,SCENE 9516 S CO,1,,,,,,,,,,
4145,SCENE 952 E 79T,1,,,,,,,,,,
4146,SCENE 9525 S MA,1,,,,,,,,,,
4147,SCENE 9526 S FO,1,,,,,,,,,,
4148,SCENE 953 W.ARM,1,,,,,,,,,,
4149,SCENE 9538 MERR,1,,,,,,,,,,
4150,SCENE 9541 S. M,1,,,,,,,,,,
4151,SCENE 9550 S HA,1,,,,,,,,,,
4152,SCENE 9556 S. P,1,,,,,,,,,,
4153,SCENE 957 NORTH,1,,,,,,,,,,
4154,SCENE 9606 S DO,1,,,,,,,,,,
4155,SCENE 9609 S CA,1,,,,,,,,,,
4156,SCENE 961 W 19T,1,,,,,,,,,,
4157,SCENE 9623 S. P,1,,,,,,,,,,
4158,SCENE 965 W 18T,1,,,,,,,,,,
4159,SCENE 9651 S LU,1,,,,,,,,,,
4160,SCENE 9663 FRAN,1,,,,,,,,,,
4161,SCENE 9700 S ST,1,,,,,,,,,,
4162,SCENE 9701S NOR,1,,,,,,,,,,
4163,SCENE 9704 S EX,1,,,,,,,,,,
4164,SCENE 9706 AVE,1,,,,,,,,,,
4165,SCENE 971 N HUD,1,,,,,,,,,,
4166,SCENE 9749 S GE,1,,,,,,,,,,
4167,SCENE 9808 S GR,1,,,,,,,,,,
4168,SCENE 9840 S YA,1,,,,,,,,,,
4169,SCENE 9900 S GR,1,,,,,,,,,,
4170,SCENE 9900 S. G,1,,,,,,,,,,
4171,SCENE 9910 S EW,1,,,,,,,,,,
4172,SCENE 9915 S GR,1,,,,,,,,,,
4173,SCENE 9931 S. V,1,,,,,,,,,,
4174,SCENE 9931 VAVL,1,,,,,,,,,,
4175,SCENE 9934 S CA,1,,,,,,,,,,
4176,SCENE AMC BUILD,1,,,,,,,,,,
4177,SCENE AMOCO GAS,1,,,,,,,,,,
4178,SCENE ARTHINGTO,1,,,,,,,,,,
4179,SCENE BUSSE WOO,1,,,,,,,,,,
4180,SCENE CENTRAL A,1,,,,,,,,,,
4181,SCENE CENTRAL P,1,,,,,,,,,,
4182,SCENE CONGRESS,1,,,,,,,,,,
4183,SCENE CONTINENT,1,,,,,,,,,,
4184,SCENE EAST ALLE,1,,,,,,,,,,
4185,SCENE EUCLID &,1,,,,,,,,,,
4186,SCENE FRONTAGE,1,,,,,,,,,,
4187,SCENE GLEN OAKS,1,,,,,,,,,,
4188,SCENE GLENCREST,1,,,,,,,,,,
4189,SCENE I-55 SB @,1,,,,,,,,,,
4190,SCENE I-94 SOUT,1,,,,,,,,,,
4191,SCENE I 290 AND,1,,,,,,,,,,
4192,SCENE I290 AND,1,,,,,,,,,,
4193,SCENE INTERSTAT,1,,,,,,,,,,
4194,SCENE JAMES AND,1,,,,,,,,,,
4195,SCENE JONQUIL T,1,,,,,,,,,,
4196,SCENE KENNY ST.,1,,,,,,,,,,
4197,SCENE MARINA RD,1,,,,,,,,,,
4198,SCENE NOTHFIELD,1,,,,,,,,,,
4199,SCENE O'HARE AI,1,,,,,,,,,,
4200,SCENE PONDVIEW,1,,,,,,,,,,
4201,SCENE ROOSEVELT,1,,,,,,,,,,
4202,SCENE ROUTE 59,1,,,,,,,,,,
4203,SCENE RT 171 SO,1,,,,,,,,,,
4204,SCENE RT.30 AND,1,,,,,,,,,,
4205,SCENE S/B RAMP,1,,,,,,,,,,
4206,SCENE SCENE 714,1,,,,,,,,,,
4207,SCENE SCHILLER,1,,,,,,,,,,
4208,SCENE SHOE FACT,1,,,,,,,,,,
4209,SCENE SOUTH PER,1,,,,,,,,,,
4210,SCENE ST. LOUIS,1,,,,,,,,,,
4211,SCENE STATE & M,1,,,,,,,,,,
4212,SCENE SUPERIOR,1,,,,,,,,,,
4213,SCENE VACANT LO,1,,,,,,,,,,
4214,SCENE WAPELLA A,1,,,,,,,,,,
4215,SCENE WASHINGTO,1,,,,,,,,,,
4216,SCENE/1016 S. 1,1,,,,,,,,,,
4217,SCENE/1264 WEST,1,,,,,,,,,,
4218,SCENE/1507 NORT,1,,,,,,,,,,
4219,SCENE/15537 ING,1,,,,,,,,,,
4220,SCENE/1926 S. L,1,,,,,,,,,,
4221,SCENE/19335 OAK,1,,,,,,,,,,
4222,SCENE/2023 CHUR,1,,,,,,,,,,
4223,SCENE/400 WEST,1,,,,,,,,,,
4224,SCENE/4948 WEST,1,,,,,,,,,,
4225,SCENE/627 EAST,1,,,,,,,,,,
4226,SCENE/6801 SOUT,1,,,,,,,,,,
4227,SCENE/7456 S. C,1,,,,,,,,,,
4228,SCENE/828 W 31S,1,,,,,,,,,,
4229,SCENE:   1249 W,1,,,,,,,,,,
4230,SCENE:   20 N.,1,,,,,,,,,,
4231,SCENE:   319 W.,1,,,,,,,,,,
4232,SCENE:  1240 W.,1,,,,,,,,,,
4233,SCENE:  1470 N.,1,,,,,,,,,,
4234,SCENE:  1503 S.,1,,,,,,,,,,
4235,SCENE:  1528 S.,1,,,,,,,,,,
4236,SCENE:  2001 W.,1,,,,,,,,,,
4237,SCENE:  2301 N.,1,,,,,,,,,,
4238,SCENE:  2525 W.,1,,,,,,,,,,
4239,SCENE:  2742 W.,1,,,,,,,,,,
4240,SCENE:  3052 W.,1,,,,,,,,,,
4241,SCENE:  3124 W.,1,,,,,,,,,,
4242,SCENE:  3534 W.,1,,,,,,,,,,
4243,SCENE: 1051 N.,1,,,,,,,,,,
4244,SCENE: 2235 S.,1,,,,,,,,,,
4245,SCENE: 2430 N.,1,,,,,,,,,,
4246,SCENE: 2501 N.,1,,,,,,,,,,
4247,SCENE: 5508 MAD,1,,,,,,,,,,
4248,SCENE: 5708 S.,1,,,,,,,,,,
4249,SCENE3557 W LEX,1,,,,,,,,,,
4250,SCENE6640 S WOL,1,,,,,,,,,,
4251,SCENE8331 S BUR,1,,,,,,,,,,
4252,SCENEH 12020 S,1,,,,,,,,,,
4253,SCNE,1,,,,,,,,,,
4254,SCNE 3522 S PAR,1,,,,,,,,,,
4255,SCNE 619 N LEAM,1,,,,,,,,,,
4256,SECNE 4844 NOR,1,,,,,,,,,,
4257,SENE 16230 ASHL,1,,,,,,,,,,
4258,SENE 3519 S FED,1,,,,,,,,,,
4259,SENE 400 E OAKW,1,,,,,,,,,,
4260,SENE 4258 W MAD,1,,,,,,,,,,
4261,SHRINERS HOSPIT,1,,,,,,,,,,
4262,ST ALEXIAS HOSP,1,,,,,,,,,,
4263,ST. ANNE'S WEST,1,,,,,,,,,,
4264,STROGERER,1,,,,,,,,,,
4265,VENCOR HOSPITAL,1,,,,,,,,,,
4266,WYLER'S CHILDRE,1,,,,,,,,,,
